{"type":"FeatureCollection","features":[{"type":"Feature","id":1,"properties":{"stop":"kelvingrove","osmId":"way/26605473","name":"Kelvingrove Art Gallery and Museum","height":11,"base":0,"fid":1},"geometry":{"type":"Polygon","coordinates":[[[-4.290125765212703,55.868805998263504],[-4.290058731846032,55.868747761130464],[-4.290052261053472,55.868750086571545],[-4.290031230977654,55.86873188746746],[-4.290083199530397,55.86871308172659],[-4.290132134899129,55.86869528704705],[-4.290098264344325,55.868665865162136],[-4.290084513910136,55.86867081936269],[-4.2900041345338105,55.86860095502427],[-4.290017884967999,55.868596000823715],[-4.290181171373994,55.86853685373548],[-4.28991819432013,55.86830835387322],[-4.289858137276686,55.86833009169197],[-4.289833871804587,55.86830896051002],[-4.289792013865219,55.86829045808754],[-4.289776443520622,55.8682786286699],[-4.289763097510968,55.86826528266024],[-4.289750358138116,55.86823626519986],[-4.2897276092580245,55.868216549503785],[-4.289795350367632,55.86819218292555],[-4.289755312338669,55.8681573013094],[-4.289837410519269,55.86812757610608],[-4.289846813389707,55.868135664596785],[-4.2902359708984825,55.86799462154022],[-4.290229297893656,55.86798885849059],[-4.2903070485105035,55.86796064987928],[-4.29034637879653,55.86799482375248],[-4.290382979216944,55.86798157884896],[-4.290379743820664,55.86797874787722],[-4.290407952431979,55.867968536157704],[-4.290429993569135,55.867987746323124],[-4.290472458145307,55.8680077653376],[-4.2904901517187115,55.86802090913499],[-4.290502587773163,55.86803385072011],[-4.290517551480956,55.86806387924183],[-4.290539289299711,55.8680826849827],[-4.2904744802679815,55.86810614160573],[-4.290736951791178,55.86833433814959],[-4.290784572780171,55.868317049000716],[-4.290780831853223,55.868313813604445],[-4.2908585824700705,55.868285604993126],[-4.290862323397019,55.86828894149554],[-4.290899833772638,55.86832149767061],[-4.290924705881538,55.86831249922471],[-4.290964845016634,55.868347380840845],[-4.290971619127595,55.8683532449966],[-4.290982740802306,55.868349200751254],[-4.291158362156618,55.8685018710132],[-4.291147240481906,55.86850591525855],[-4.291151891364058,55.868509959503896],[-4.291188896209008,55.86854211125443],[-4.291164024100108,55.86855110970034],[-4.291197186911976,55.86858002605458],[-4.291202545537064,55.868584676936734],[-4.291124794920216,55.868612784441915],[-4.291119436295126,55.86860813355977],[-4.291071815306134,55.86862542270864],[-4.291332163600522,55.86885321482796],[-4.291392422856233,55.86883137590307],[-4.291417294965133,55.868852810403425],[-4.291452479899675,55.86886504424561],[-4.29147987966192,55.86888243450061],[-4.291497269916923,55.86890346457643],[-4.291503134072681,55.86892641566879],[-4.291529927198122,55.86894946786728],[-4.291498483190529,55.86896079175426],[-4.291494337839046,55.86895725303958],[-4.2914594562229045,55.86897120568604],[-4.291497371023057,55.86900497513471],[-4.291418407132604,55.86903358817056],[-4.291413250719784,55.86902903839454],[-4.291028339668625,55.86916846375296],[-4.291035315991853,55.869174530120986],[-4.290950184627242,55.86920536749178],[-4.2909432083040135,55.86919930112376],[-4.290907416732668,55.86916816043457],[-4.2908793092274875,55.869178271047936],[-4.290882342411501,55.86918089980742],[-4.29084584309722,55.86919404360481],[-4.290819555502446,55.869171294724715],[-4.290777192032408,55.86915319672677],[-4.290748376784291,55.869128122405606],[-4.290736446260509,55.86909900383908],[-4.2907101586657355,55.86907615385286],[-4.2907746643790645,55.869052798335964],[-4.290515023827613,55.86882712944546],[-4.290351737421618,55.868886175427555],[-4.29033798698743,55.86889112962811],[-4.290258719778574,55.86882227635103],[-4.290272470212764,55.86881732215048],[-4.290237891915024,55.86878719252262],[-4.290189866501496,55.86880468388376],[-4.290136987993548,55.86882379294304],[-4.290119294420144,55.86880832370458],[-4.290125765212703,55.868805998263504]]]}},{"type":"Feature","id":2,"properties":{"stop":"byres","osmId":"way/59189228","name":"","height":14.3,"base":0,"fid":2},"geometry":{"type":"Polygon","coordinates":[[[-4.294768071255395,55.87387269182954],[-4.29494073196121,55.87393288945762],[-4.29495724827794,55.873917242420724],[-4.294976807074067,55.87392397933938],[-4.295068407435932,55.87384628745477],[-4.294872819474656,55.87378130878763],[-4.294864018016399,55.873777940328296],[-4.2948235965044015,55.87380956038204],[-4.294768071255395,55.87387269182954]]]}},{"type":"Feature","id":3,"properties":{"stop":"kelvinhall","osmId":"way/85474432","name":"Kelvin Hall","height":11,"base":0,"fid":3},"geometry":{"type":"Polygon","coordinates":[[[-4.293924225518152,55.869255460556886],[-4.293966857150554,55.86928120041041],[-4.2945517349941476,55.869126459650346],[-4.2947974701582785,55.86907417557288],[-4.2947734395919,55.869056982155094],[-4.294817780511451,55.869039788737304],[-4.294826930225009,55.86904632424699],[-4.2950915680940716,55.868924160489044],[-4.295349469360844,55.868769922460494],[-4.295734561700704,55.868490102099706],[-4.295967326391768,55.86831826846816],[-4.295911322101089,55.86828448491041],[-4.29616278840448,55.86813648075263],[-4.296036401701816,55.86807263385033],[-4.2956057618867725,55.868013009892756],[-4.29531317214552,55.86817368288468],[-4.2948282373269455,55.86790884392301],[-4.294870667866742,55.867878076754344],[-4.294651778565469,55.867821167546936],[-4.294294537551495,55.867708153502555],[-4.2927471299508575,55.86861839918212],[-4.29277628837868,55.868635290961],[-4.292764826100157,55.86864132373917],[-4.292718273161944,55.868641122646565],[-4.292686399983945,55.86865761224023],[-4.292684288511586,55.868684659195694],[-4.292713346393104,55.868702254798684],[-4.292753464367936,55.868701752067174],[-4.293003824661996,55.86883658465927],[-4.292965013789102,55.86886182178129],[-4.293056611470985,55.868904453413684],[-4.293070185221868,55.86891149165489],[-4.293382381492171,55.86909337991671],[-4.293463522358561,55.86914093831796],[-4.293503037055575,55.869130883687674],[-4.293517515723183,55.86911901922394],[-4.293603985543622,55.86916486833803],[-4.29377380824911,55.869254957825376],[-4.293770590767419,55.869276374187876],[-4.293803469408447,55.86929376869827],[-4.293854748022893,55.86929004848507],[-4.2938876266639205,55.8692701403171],[-4.293877773126242,55.869246009204424],[-4.293893458349485,55.8692381665928],[-4.293924225518152,55.869255460556886]]]}},{"type":"Feature","id":4,"properties":{"stop":"station","osmId":"way/111525685","name":"","height":11,"base":0,"fid":4},"geometry":{"type":"Polygon","coordinates":[[[-4.3094113903268925,55.869706535832734],[-4.309515711331404,55.86976756789583],[-4.309256298341702,55.86961589627144],[-4.3094113903268925,55.869706535832734]]]}},{"type":"Feature","id":5,"properties":{"stop":"glenlee","osmId":"way/170350466","name":"Glenlee","height":11,"base":0,"fid":5},"geometry":{"type":"Polygon","coordinates":[[[-4.306962657109674,55.86442705015237],[-4.307010387552278,55.86447193101631],[-4.307055471957554,55.864498798472276],[-4.307140145152112,55.86453635184823],[-4.3072588097492925,55.864575431784175],[-4.307767866623301,55.86471556999199],[-4.307872283327167,55.864740096722635],[-4.307991049695014,55.86476075616793],[-4.308031961502961,55.864764521682595],[-4.30806605467625,55.86475994200261],[-4.308083152148228,55.864749968477284],[-4.308095466398879,55.86473470287731],[-4.308094754004213,55.864719335506656],[-4.3080797937162325,55.86470295042935],[-4.308049567828272,55.86468961847203],[-4.307945761748406,55.86465216686675],[-4.30782933610589,55.86461675067479],[-4.307336257226525,55.86447701954964],[-4.307214437738682,55.86444709897367],[-4.3071048307308235,55.86442684661103],[-4.307037255008244,55.86442369172037],[-4.306962657109674,55.86442705015237]]]}},{"type":"Feature","id":6,"properties":{"stop":"unitower","osmId":"way/532962294","name":"","height":84.7,"base":0,"fid":6},"geometry":{"type":"Polygon","coordinates":[[[-4.288746212904023,55.87107306827348],[-4.288708581048824,55.87115953453037],[-4.288522488261988,55.87113408408495],[-4.2885594675416625,55.871049140504276],[-4.288568277311233,55.87102880190046],[-4.288659202834199,55.871041309598],[-4.28875437009807,55.87105436110847],[-4.288746212904023,55.87107306827348]]]}},{"type":"Feature","id":7,"properties":{"stop":"unitower","osmId":"way/533970249","name":"","height":11.1,"base":0,"fid":7},"geometry":{"type":"Polygon","coordinates":[[[-4.288853284855636,55.871222242057904],[-4.288850168157762,55.871229306573085],[-4.288834584668393,55.87122712488457],[-4.2887354736760015,55.871213826973644],[-4.2887172929384025,55.87125964243239],[-4.288740564282528,55.87126192801083],[-4.288735369786072,55.87127314812317],[-4.288713033451309,55.87127023920516],[-4.28870212500875,55.87129766614645],[-4.288704098917403,55.871299640055106],[-4.288699423870592,55.871304730661635],[-4.288696618842506,55.871310340717805],[-4.288556055768391,55.87129091330106],[-4.288419544401512,55.87127210922389],[-4.288421206640378,55.8712668108375],[-4.288421102750449,55.87126140856119],[-4.288419232731724,55.87125600628487],[-4.2884234922188185,55.871255590725156],[-4.288430141174283,55.8712329427206],[-4.2884055192610795,55.87123086492202],[-4.288408843738812,55.87121891758017],[-4.2884344006613775,55.87122141093847],[-4.288452789178834,55.871176426599156],[-4.2883501459288516,55.87116260923858],[-4.288337679137356,55.871160946999716],[-4.288340588055371,55.871152428025525],[-4.288385780174544,55.871042824150294],[-4.288388792982489,55.87103295460703],[-4.288378715659363,55.871025993981775],[-4.288392636909867,55.87101861779681],[-4.288403753132283,55.871024539522764],[-4.288464320960967,55.87103295460703],[-4.288467749328629,55.871024643412696],[-4.28849039733318,55.871028383450145],[-4.288486865075589,55.87103575963511],[-4.288564886412367,55.871047083637386],[-4.288529563836462,55.87112822167204],[-4.288707319505206,55.871152531915456],[-4.288743265420686,55.871069939421794],[-4.288810793874622,55.87108001674492],[-4.288814118352354,55.871071393880804],[-4.288836766356904,55.87107451057868],[-4.288832714649668,55.871083237332726],[-4.288899619764029,55.87109196408677],[-4.288919151070706,55.87108749681982],[-4.288927150595248,55.87109684691344],[-4.288906372609423,55.87110245696961],[-4.288901385892824,55.87111180706324],[-4.288853284855636,55.871222242057904]]]}},{"type":"Feature","id":8,"properties":{"stop":"unitower","osmId":"way/533970252","name":"","height":14.3,"base":0,"fid":8},"geometry":{"type":"Polygon","coordinates":[[[-4.287567142010493,55.87105120408288],[-4.287564069009913,55.87106021115355],[-4.2875481741793235,55.87105840973941],[-4.287337514691252,55.87103160045849],[-4.287328931482735,55.87102238145675],[-4.2873394220709224,55.87099271110631],[-4.2873217258262,55.87099048583003],[-4.287326282344302,55.8709781938277],[-4.287345144209935,55.870979783310766],[-4.28735616462581,55.87095223227108],[-4.28733836241555,55.870950430856944],[-4.28734302489919,55.87093591357834],[-4.2873622046614335,55.87093792692355],[-4.287373225077309,55.870911435539234],[-4.287352985659692,55.87090857446972],[-4.287357542177794,55.87089607053633],[-4.28737820545756,55.87089840177815],[-4.287381384423678,55.87088981856964],[-4.2874070280836944,55.87089246770806],[-4.287403425255428,55.870902216537495],[-4.287487561892012,55.870913342918904],[-4.2874911647202785,55.87090359408948],[-4.287516384518146,55.87090624322791],[-4.287512145896656,55.8709167338161],[-4.287592997601585,55.87092828405966],[-4.287599567464895,55.8709167338161],[-4.2876208665378845,55.87091980681668],[-4.287616945813005,55.87093114512916],[-4.287627436401194,55.870932628646685],[-4.287623727607389,55.87094163571735],[-4.287613342984739,55.87094068202752],[-4.287567142010493,55.87105120408288]]]}},{"type":"Feature","id":9,"properties":{"stop":"unitower","osmId":"way/533970254","name":"","height":7.9,"base":0,"fid":9},"geometry":{"type":"Polygon","coordinates":[[[-4.2875480588279276,55.87104656718185],[-4.287560792043223,55.87104831286459],[-4.287602996490696,55.871054063348915],[-4.28794884704809,55.87110109409574],[-4.288359082492507,55.87115685325627],[-4.288403751433264,55.87104851823903],[-4.288363087294092,55.87104348656524],[-4.288365859849035,55.871033936653774],[-4.2883504567660164,55.87103188290937],[-4.288346451964431,55.87104061132308],[-4.288304144829738,55.87103527158763],[-4.288307533508003,55.871027570046124],[-4.28828997399336,55.871024900178405],[-4.288285969191775,55.87103290978157],[-4.288248899105309,55.871027980795006],[-4.2882523904707925,55.87101914969407],[-4.288235960515572,55.87101678788801],[-4.288232058401207,55.87102510555284],[-4.288190572764275,55.87101966313017],[-4.28819416681698,55.87101031859314],[-4.288175375055696,55.87100775141264],[-4.288171781002991,55.87101730132411],[-4.288137996907569,55.871012885773645],[-4.288141180211393,55.87100261705163],[-4.288120642767367,55.871000563307234],[-4.288117151401883,55.87101103740368],[-4.2880727905227864,55.871004568108816],[-4.288076384575491,55.87099409401236],[-4.288066937351239,55.870993169827386],[-4.288068477659542,55.8709881381536],[-4.288060262681931,55.870987522030276],[-4.288062521800774,55.87097940973989],[-4.2880480429027354,55.870977664057136],[-4.288045578409453,55.87098546828587],[-4.288030278013653,55.87098392797757],[-4.288028326956471,55.87098906233857],[-4.288002347089779,55.87098557097309],[-4.287975032289224,55.87098197692038],[-4.287976367223086,55.87097684255938],[-4.287956753964041,55.8709748915022],[-4.287959218457324,55.87096739533513],[-4.287941761629902,55.87096503352907],[-4.287938167577197,55.87097673987216],[-4.287917835507613,55.87097427537888],[-4.287914754891008,55.870982593043706],[-4.287873474628516,55.87097673987216],[-4.28787634987068,55.87096852489455],[-4.287857455422175,55.870965855026824],[-4.287853450620592,55.8709743780661],[-4.287680422654674,55.870950965379905],[-4.287682476399076,55.87094233965342],[-4.287649308426974,55.870938129477395],[-4.28764581706149,55.8709458310189],[-4.287602893803475,55.87094038859623],[-4.287592830455903,55.87093946441126],[-4.2875480588279276,55.87104656718185]]]}},{"type":"Feature","id":10,"properties":{"stop":"unitower","osmId":"way/533970256","name":"","height":11.1,"base":0,"fid":10},"geometry":{"type":"Polygon","coordinates":[[[-4.287331575845613,55.87155494500148],[-4.287134373432742,55.871528323699636],[-4.287268913396663,55.87119883389454],[-4.287327377871092,55.871052928682516],[-4.287316422181489,55.87105129044856],[-4.28732686592298,55.87104821875989],[-4.287335671430513,55.87104391839575],[-4.287342838704085,55.871035215277836],[-4.287343657821064,55.87102610260144],[-4.287342019587105,55.87102118789956],[-4.287545570156569,55.87104709247404],[-4.287536662259415,55.87106910624287],[-4.287527140024525,55.87109265585604],[-4.287503692800979,55.87115060838236],[-4.287492737111376,55.87117794641156],[-4.287484341162334,55.87119873150491],[-4.287507685996256,55.87120200797283],[-4.287519665582085,55.87120856090867],[-4.287527242414147,55.871215523402995],[-4.287528266310373,55.87122422652091],[-4.287524170725473,55.871232110521845],[-4.287513522204737,55.871238253899186],[-4.287499392436837,55.871241939925596],[-4.287485672227426,55.871241939925596],[-4.287466832536892,55.87123999452277],[-4.287460381990677,55.8712547386284],[-4.287446559391644,55.87128596746326],[-4.287433453519967,55.871315865233015],[-4.287424545622812,55.87133613837827],[-4.2874438972614595,55.871338493339586],[-4.287451678872767,55.8713395172358],[-4.287463044120861,55.87134453432731],[-4.287471235290658,55.87135108726315],[-4.287471952018016,55.87135958560181],[-4.2874688803293415,55.87136746960274],[-4.287458231808605,55.871373817759334],[-4.287442770975612,55.871378118123474],[-4.287425979077527,55.871378118123474],[-4.287408060893596,55.87137617272065],[-4.287397821931349,55.871400234281936],[-4.287384408890806,55.87143177028565],[-4.287376217721008,55.871451121924295],[-4.287363419018201,55.87148112208368],[-4.287349801198412,55.871513067645886],[-4.287334749923909,55.87154859684488],[-4.287331575845613,55.87155494500148]]]}},{"type":"Feature","id":11,"properties":{"stop":"unitower","osmId":"way/533970259","name":"","height":14.3,"base":0,"fid":11},"geometry":{"type":"Polygon","coordinates":[[[-4.287326821342094,55.87168324955561],[-4.287330874867374,55.87167375577272],[-4.287379410499006,55.87156793742859],[-4.2873692766858085,55.87156687071141],[-4.287359676231199,55.87156420391847],[-4.287352422554385,55.87156047040834],[-4.2873475156553615,55.87155641688306],[-4.287343888816954,55.87155044326686],[-4.2873434621300825,55.87154404296379],[-4.287138012401461,55.87151630831714],[-4.287110384426533,55.87151321483733],[-4.287104517482049,55.871527828862675],[-4.287118384805372,55.87152953561016],[-4.287108144320457,55.87155503015073],[-4.287094276997133,55.87155332340325],[-4.287088516724369,55.87156761741344],[-4.287102917406281,55.87156943083264],[-4.287092356906212,55.87159567207524],[-4.28707891626976,55.871593965327754],[-4.2870740093707385,55.87160633924702],[-4.287087663350625,55.871608045994506],[-4.287076249476813,55.87163642067147],[-4.287060995421157,55.87163450058055],[-4.287055875178699,55.87164719451497],[-4.287070489204048,55.871649007934174],[-4.28706590232018,55.8716605284797],[-4.287093743638544,55.871664048646394],[-4.287097477148669,55.871654661535224],[-4.287178867669406,55.87166511536357],[-4.287174600800691,55.8716754625202],[-4.287193268351319,55.871677809298],[-4.287197428548316,55.87166724879793],[-4.287286819447893,55.87167770262628],[-4.2872824459074605,55.87169039656071],[-4.287306233700545,55.87169306335365],[-4.287311353943003,55.871681436136406],[-4.287326821342094,55.87168324955561]]]}},{"type":"Feature","id":12,"properties":{"stop":"unitower","osmId":"way/533970261","name":"","height":14.3,"base":0,"fid":12},"geometry":{"type":"Polygon","coordinates":[[[-4.287416387761112,55.87172353475009],[-4.287393372993297,55.87172064500346],[-4.287398946076086,55.87170712511743],[-4.287418451865848,55.87170960204312],[-4.287428359568584,55.871685348812456],[-4.287474285898974,55.87157326792526],[-4.287483264754579,55.87155118200457],[-4.287464791017186,55.87154880828413],[-4.287470880126159,55.87153404993526],[-4.2874897666845,55.87153652686095],[-4.287494101304446,55.87152610313203],[-4.287514123120393,55.871528683262945],[-4.287509685295208,55.87153951981281],[-4.287582238576702,55.87154880828413],[-4.287586160375701,55.87153910699186],[-4.287605666165463,55.871541687122786],[-4.287601331545516,55.87155200764647],[-4.287670169438483,55.87156088329684],[-4.287674297647957,55.871550872388866],[-4.28769731241577,55.871553865340736],[-4.28769308100106,55.871563979453946],[-4.28775954517358,55.8715725454886],[-4.2877637765882906,55.87156232817015],[-4.287786172124683,55.87156521791679],[-4.28778204391521,55.871575435235236],[-4.287849024113915,55.871584104475126],[-4.2878530491181515,55.87157440318286],[-4.28787554785978,55.8715772929295],[-4.2878711100345965,55.87158802627413],[-4.287939328696144,55.87159679871926],[-4.287943250495143,55.87158730383747],[-4.287964613979167,55.87159009037886],[-4.287960485769694,55.871600410902545],[-4.288025608274135,55.87160877052673],[-4.2880302525097935,55.87159731474544],[-4.28805347368808,55.87160030769731],[-4.288048829452423,55.87161166027336],[-4.2881188026029955,55.8716207423342],[-4.288123034017706,55.871610318605285],[-4.288151931484019,55.87161403399381],[-4.288146977632651,55.87162600580128],[-4.288167928295728,55.87162868913744],[-4.288161839186754,55.871643447486306],[-4.288139753266073,55.871640454534436],[-4.288127781458599,55.87166862956409],[-4.288069264089316,55.871812084843285],[-4.2880649294693685,55.871822714982684],[-4.2880381993130285,55.87181930920987],[-4.288042637138213,55.87180836945476],[-4.287969671035772,55.87179897777821],[-4.287965542826299,55.87180909189142],[-4.287943766521327,55.87180620214479],[-4.287947997936037,55.87179598482634],[-4.2878843203049115,55.871787831612636],[-4.2878805017111485,55.871797223289185],[-4.2878568677119135,55.871794127132084],[-4.2878609959213865,55.87178401301887],[-4.2877922612336565,55.8717751373685],[-4.287788545845131,55.87178442583982],[-4.287766666334922,55.87178153609319],[-4.2877706913391584,55.871771628390455],[-4.287704949603296,55.87176316556103],[-4.287700614983349,55.87177379570042],[-4.287676258547457,55.87177069954332],[-4.28768100598835,55.871759243762035],[-4.287616089894383,55.871750884137846],[-4.287611652069199,55.87176161748248],[-4.2875865731966485,55.8717583149149],[-4.287591217432307,55.87174696233885],[-4.287526301338338,55.87173860271467],[-4.2875219667183915,55.871749336059295],[-4.287500912850078,55.87174665272314],[-4.287505350675261,55.87173602258375],[-4.287437751245135,55.87172725013862],[-4.287433519830426,55.8717375706623],[-4.287411743525454,55.8717347841209],[-4.287416387761112,55.87172353475009]]]}},{"type":"Feature","id":13,"properties":{"stop":"unitower","osmId":"way/533970263","name":"","height":11.1,"base":0,"fid":13},"geometry":{"type":"Polygon","coordinates":[[[-4.287315782056648,55.8716757836617],[-4.28744117417674,55.871691900900785],[-4.2874889886526955,55.8715752120898],[-4.287481252377934,55.87157424505546],[-4.2874244122480905,55.87156683112548],[-4.287410551422476,55.87156500450505],[-4.287394219286869,55.871562855539835],[-4.287386912805149,55.871566078987655],[-4.287380251012994,55.87156790560808],[-4.28737208494519,55.871569087538944],[-4.287364671015211,55.87156919498721],[-4.287315782056648,55.8716757836617]]]}},{"type":"Feature","id":14,"properties":{"stop":"unitower","osmId":"way/533970266","name":"Bute Hall","height":14.3,"base":0,"fid":14},"geometry":{"type":"Polygon","coordinates":[[[-4.288701388199259,55.87129923466873],[-4.28870055659346,55.87130505590933],[-4.288702115854335,55.87131170875574],[-4.288705754129713,55.871317322094896],[-4.288710327961615,55.87132179197607],[-4.288717396610918,55.87132626185725],[-4.288726960077624,55.87133031593552],[-4.288737043297956,55.87133291470365],[-4.288735172184904,55.87133894384571],[-4.2887654218458975,55.87134299792398],[-4.288759600605293,55.87135807077912],[-4.288729143042851,55.87135443250374],[-4.288715733399317,55.87139050340534],[-4.288744111947259,55.871394037729985],[-4.288738602558832,55.871409214535845],[-4.288708248947113,55.871405264408295],[-4.2886947353528555,55.871439776049016],[-4.288723321802247,55.871443310373664],[-4.288717292660194,55.8714579674259],[-4.288688810161527,55.87145443310125],[-4.288674257060018,55.871491543510096],[-4.2887020119036094,55.871494765982575],[-4.288695878810832,55.87151077439423],[-4.288666772607814,55.87150755192176],[-4.288653466915007,55.87154112800595],[-4.288681325709323,55.87154497418278],[-4.288675608419444,55.871560358890086],[-4.288646086413527,55.87155682456544],[-4.288632260967094,55.87159185595978],[-4.288657520993284,55.87159518238298],[-4.288652115555581,55.87160765646998],[-4.288626543677215,55.87160422609606],[-4.28862498441634,55.87160911178014],[-4.288615316998909,55.87160817622362],[-4.288603466616252,55.87160838412506],[-4.288593591297371,55.87160973548449],[-4.288584651535016,55.87161202240044],[-4.288575919674111,55.87161566067582],[-4.288568643123356,55.871620130557],[-4.288563861390004,55.871624600438174],[-4.288560223114627,55.87163000587588],[-4.288425814827123,55.87161129474537],[-4.288280179861312,55.87159102435398],[-4.288280803565662,55.87158509916265],[-4.288279348255512,55.871579277922045],[-4.28827685343811,55.871574911991594],[-4.2882727993598335,55.87157044211042],[-4.288268537380106,55.87156711568722],[-4.288261260829351,55.871563165559664],[-4.288252944771346,55.871559943087185],[-4.288239535127814,55.87155713641761],[-4.288240990437964,55.87155266653643],[-4.288213547446548,55.87154944406396],[-4.288218433130626,55.87153520281462],[-4.288247643284368,55.87153884108999],[-4.288260637125001,55.8715036017942],[-4.288233194133585,55.87150037932172],[-4.288238807472738,55.87148478671297],[-4.288268641330831,55.87148873684052],[-4.288282258875814,55.8714550568056],[-4.2882519052640955,55.87145069087515],[-4.28825835020905,55.87143437061132],[-4.288289223574393,55.87143904839394],[-4.288304192478801,55.871402977492345],[-4.2882738388670845,55.87139892341407],[-4.288280491713487,55.871383642657484],[-4.288311157177381,55.871388216489386],[-4.288324358919463,55.87135412065157],[-4.288295044814996,55.87134996262256],[-4.288301385809225,55.871334370013805],[-4.288331427568767,55.87133842409208],[-4.288344941163026,55.87130287294411],[-4.288315627058559,55.87129881886583],[-4.2883215522498865,55.871282394651274],[-4.2883518019108795,55.871286448729556],[-4.28835325722103,55.87128062748895],[-4.2883666668645635,55.871282602552725],[-4.288378205395046,55.87128270650345],[-4.2883871451574,55.87128177094692],[-4.288395253313955,55.87128021168604],[-4.28840377727341,55.87127740501647],[-4.288410430119814,55.87127418254399],[-4.288415731606793,55.87127085612079],[-4.28842186469957,55.87126472302801],[-4.288424151615522,55.871260980801914],[-4.288560742868252,55.87127979588315],[-4.288701388199259,55.87129923466873]]]}},{"type":"Feature","id":15,"properties":{"stop":"unitower","osmId":"way/533970268","name":"","height":11.1,"base":0,"fid":15},"geometry":{"type":"Polygon","coordinates":[[[-4.288052460714883,55.87180657627816],[-4.288075382904231,55.87180904324025],[-4.288072710361975,55.8718156218058],[-4.288098202303493,55.871819116668746],[-4.288100463685401,55.87181233252302],[-4.288119171481192,55.87181469669502],[-4.288133767673512,55.87181654691658],[-4.28813130071143,55.87182394780283],[-4.2881559703322525,55.87182713429552],[-4.288158745664595,55.87182014456962],[-4.2881822845944635,55.87182271432179],[-4.288169024673271,55.871855093199116],[-4.288209010017021,55.871860541073715],[-4.288205001203639,55.871862391295274],[-4.288202945401903,55.87186444709701],[-4.288200375649734,55.8718669140591],[-4.2882008896001675,55.87186979218152],[-4.288204487253204,55.871871436822914],[-4.288209318387282,55.87187246472378],[-4.288213532780839,55.87187267030396],[-4.288214355101534,55.8718808935109],[-4.288215280212314,55.87188726649627],[-4.28821764438431,55.87189384506183],[-4.288214663471794,55.8718955924933],[-4.288213738361013,55.871898881776076],[-4.288214766261881,55.871901965478685],[-4.288218363914917,55.871904226860586],[-4.288223606209343,55.87190474081102],[-4.28822843734342,55.871904432440765],[-4.28823224057663,55.87190854404423],[-4.288239127512443,55.87191378633866],[-4.288246631188777,55.87191851468265],[-4.288254546025457,55.87192262628612],[-4.288253929284936,55.87192735463011],[-4.28825382649485,55.87193064391289],[-4.28825639624702,55.87193300808488],[-4.288260713430663,55.87193383040558],[-4.288265544564741,55.87193331645515],[-4.288271198019513,55.871931569023666],[-4.288282299348883,55.8719336248254],[-4.288292578357559,55.87193475551636],[-4.288302754576149,55.87193537225688],[-4.288310052672309,55.87193557783705],[-4.288314164275779,55.87193896990992],[-4.288319714940465,55.871939792230606],[-4.288324957234889,55.87193814758922],[-4.288327629777145,55.87193506388662],[-4.288328143727579,55.871931877393926],[-4.288335647403913,55.87193064391289],[-4.288344384561288,55.87192858811115],[-4.2883519910277075,55.87192653230942],[-4.2883608309751695,55.87192324302664],[-4.288364839788554,55.87192499045811],[-4.288370801613585,55.8719259155689],[-4.288375632747663,55.87192529882837],[-4.288379847141221,55.87192242070594],[-4.288380669461914,55.87191923421325],[-4.288378922030439,55.87191645888092],[-4.288402358170221,55.87190093757781],[-4.288408011624993,55.87190052641746],[-4.288412739968985,55.871898676195904],[-4.28841541251124,55.87189569528339],[-4.2884157208815,55.87189158367991],[-4.288413356709505,55.871888088816966],[-4.288453136473081,55.87189199484027],[-4.288464751752886,55.8718614661845],[-4.288494046927613,55.87186537220779],[-4.28849096322501,55.8718722591436],[-4.288514810525139,55.87187513726604],[-4.288517380277308,55.871868969860834],[-4.28852714533555,55.87187030613195],[-4.288538041084747,55.87187174519317],[-4.288535882492925,55.87187811817855],[-4.2885565433003645,55.871880276770376],[-4.288558496312013,55.871874623315605],[-4.288592725410905,55.87187883770916],[-4.2886520352909665,55.87173729575969],[-4.288583268722923,55.87172722233118],[-4.28852303373208,55.87171848517381],[-4.288558290731839,55.87163388893241],[-4.288564972087479,55.87163378614232],[-4.288562916285743,55.87162885221815],[-4.288562299545223,55.87162319876338],[-4.288564046976698,55.871616825778005],[-4.288431139394515,55.87159832356239],[-4.288287130482961,55.871578279495466],[-4.288283327249751,55.87158537201145],[-4.288278598905761,55.87159020314553],[-4.28827253429064,55.871594314749004],[-4.288278187745413,55.8715951370697],[-4.2882434446960875,55.87168158353266],[-4.288178892521601,55.87167284637528],[-4.288110742694077,55.87166369805757],[-4.288052460714883,55.87180657627816]]]}},{"type":"Feature","id":16,"properties":{"stop":"unitower","osmId":"way/533970271","name":"","height":14.3,"base":0,"fid":16},"geometry":{"type":"Polygon","coordinates":[[[-4.288573263696674,55.871879436575334],[-4.288568826139402,55.871891407660065],[-4.288591323522777,55.87189429723224],[-4.28859545148303,55.87188439012763],[-4.288665523608312,55.871893471640185],[-4.2886609828520355,55.87190441073486],[-4.288682551444354,55.87190719710803],[-4.288686885802619,55.8718968772074],[-4.288756545131877,55.87190595871996],[-4.288752417171625,55.87191596902357],[-4.2887728505748735,55.87191865219773],[-4.288776772137113,55.871909261088156],[-4.288844883481277,55.871918136202694],[-4.288841065118043,55.87192742411327],[-4.288862014516323,55.871930107287426],[-4.288865832879558,55.87192081937686],[-4.288930848253531,55.87192928169538],[-4.2889270298902975,55.87193836320794],[-4.28895045606473,55.871941459178124],[-4.288954687223988,55.87193144887451],[-4.28902424335424,55.871940530387064],[-4.289020115393988,55.87195054069068],[-4.289043025573387,55.87195353346186],[-4.289046740737615,55.87194455514831],[-4.289116400066873,55.87195363666087],[-4.289112272106621,55.871963543765474],[-4.289135595082047,55.87196663973566],[-4.289139516644286,55.871957042228075],[-4.289213303933796,55.871966742934674],[-4.289209175973544,55.871976546840266],[-4.289230022172818,55.87197923001443],[-4.2892339437350575,55.87196983890486],[-4.289256647516446,55.87197283167604],[-4.289262323461793,55.8719591062082],[-4.289240858068481,55.87195631983503],[-4.289253964342282,55.87192474093911],[-4.289294727949773,55.8718265986841],[-4.289307318228543,55.871796258176246],[-4.289328577223843,55.87179904454942],[-4.289334665965215,55.871784596688535],[-4.289315677348054,55.87178211991238],[-4.289319598910294,55.8717725224048],[-4.28929483114878,55.8717693232356],[-4.289290909586541,55.87177881754418],[-4.289218051088087,55.87176922003659],[-4.289222282247345,55.87175910653398],[-4.28919978486397,55.8717562169618],[-4.289195450505705,55.871766433663424],[-4.289126100773466,55.87175745534987],[-4.289130538330737,55.87174672265322],[-4.289108247345375,55.87174383308104],[-4.289103809788103,55.8717545657777],[-4.289034356856858,55.87174558746415],[-4.289038484817111,55.871735577160536],[-4.289015471438704,55.871732584389356],[-4.289011240279446,55.87174259469297],[-4.288946121706465,55.87173413237445],[-4.288950559263736,55.8717233996778],[-4.288927133089304,55.87172040690661],[-4.288922901930046,55.87173041721022],[-4.288860260133217,55.87172216128972],[-4.288864697690488,55.871711428593066],[-4.288837556351829,55.87170791982685],[-4.288833531590583,55.87171772373245],[-4.288770373798722,55.87170946781195],[-4.2887747081569865,55.87169914791131],[-4.288752210773612,55.871696258339135],[-4.28874808281336,55.87170606224473],[-4.288677185096026,55.87169677433417],[-4.288681313056278,55.87168686722956],[-4.288656132498739,55.87168356486136],[-4.288652417334513,55.8716924399759],[-4.2886311583392125,55.87168965360273],[-4.288624966398834,55.87170461745864],[-4.288645296603076,55.8717071974338],[-4.288632809523314,55.87173733154364],[-4.288573263696674,55.871879436575334]]]}},{"type":"Feature","id":17,"properties":{"stop":"unitower","osmId":"way/533970275","name":"","height":11.1,"base":0,"fid":17},"geometry":{"type":"Polygon","coordinates":[[[-4.289235706794297,55.87192683946874],[-4.289309418419772,55.871936776887885],[-4.289386078510265,55.87194726031906],[-4.289437731249302,55.87182637325328],[-4.2893843312717355,55.871819165894344],[-4.289383130045247,55.8718252812292],[-4.289343161963878,55.87183161496887],[-4.289278841745501,55.871822987978625],[-4.289235706794297,55.87192683946874]]]}},{"type":"Feature","id":18,"properties":{"stop":"unitower","osmId":"way/533970277","name":"","height":14.3,"base":0,"fid":18},"geometry":{"type":"Polygon","coordinates":[[[-4.289383649297093,55.871794295555134],[-4.289673048356496,55.87183209333388],[-4.289665300335368,55.87185083516877],[-4.289670430781792,55.871851463386704],[-4.289667499098121,55.87185858318989],[-4.289676084743155,55.87185963021978],[-4.289670535484779,55.87187334631123],[-4.2896546206305715,55.87187125225147],[-4.289643940925775,55.87189753270151],[-4.289659646374005,55.871899522058285],[-4.289653573600689,55.87191418047664],[-4.2896357740926945,55.871911981713886],[-4.289625199090886,55.87193773864898],[-4.289641323351069,55.871939728005756],[-4.289636716419588,55.87195103592848],[-4.289619021614582,55.87194873246274],[-4.289607399582891,55.871977106972544],[-4.28962320973411,55.87197909632932],[-4.2896180792876875,55.871991765390895],[-4.289605619632091,55.87199019484608],[-4.289601012700611,55.87200118865983],[-4.289579339182051,55.871998466382145],[-4.289583841410544,55.87198747256838],[-4.289498508475156,55.87197647875462],[-4.289494006246664,55.87198747256838],[-4.289470971589258,55.87198454088471],[-4.289475578520739,55.87197333766497],[-4.28939087380328,55.87196234385121],[-4.289386371574787,55.87197333766497],[-4.289360614639689,55.871970091872335],[-4.289365535680134,55.87195815573168],[-4.289348783202022,55.87195595696893],[-4.28935349483649,55.87194454434321],[-4.289372655483333,55.87194695251195],[-4.289375063652061,55.871941089144606],[-4.289424588165483,55.87182518293666],[-4.2893733884042495,55.871818272539436],[-4.289383649297093,55.871794295555134]]]}},{"type":"Feature","id":19,"properties":{"stop":"unitower","osmId":"way/533970278","name":"","height":14.3,"base":0,"fid":19},"geometry":{"type":"Polygon","coordinates":[[[-4.289724865979854,55.87166830627507],[-4.289451678415654,55.871632632652954],[-4.289302159408146,55.87161174548869],[-4.289296782514378,55.871624567312296],[-4.2892695878401215,55.87162094824918],[-4.289276205555529,55.871602956335416],[-4.289264314348156,55.871597889647056],[-4.28919710317604,55.871588997091976],[-4.289199584819317,55.871583206591],[-4.289177870440635,55.8715803113405],[-4.289184281352436,55.871565214677226],[-4.2892047549094805,55.87156790312412],[-4.289213233857348,55.87154804997788],[-4.289198033792268,55.87154598194182],[-4.289205582123906,55.87152819683166],[-4.28922222981423,55.871530471671335],[-4.289231639378327,55.87150844708724],[-4.289209407990627,55.871505448434945],[-4.289214991688002,55.871492316405934],[-4.289235672048654,55.87149500485282],[-4.289238360495538,55.87148890414643],[-4.289305675069457,55.87149852051412],[-4.289321598947159,55.87149428104019],[-4.289327803055355,55.87148011499315],[-4.289356652158463,55.87148404426167],[-4.2893510684610865,55.871497383094294],[-4.289506584773183,55.871518166856745],[-4.289770879782303,55.87155342687166],[-4.289766433504764,55.871563870453784],[-4.289852774010481,55.871575451455755],[-4.289854945448349,55.87157038476739],[-4.289895582357029,55.871575865062965],[-4.289893514320963,55.871580828349515],[-4.289915228699647,55.871583827001814],[-4.289910368814894,55.871595304601975],[-4.2898871034091615,55.87159220254787],[-4.289874178183755,55.87162270607984],[-4.2899154355032545,55.87162818637541],[-4.2899102654130905,55.8716403877882],[-4.289866629852118,55.87163459728721],[-4.289852257001464,55.871668202873266],[-4.289878004050475,55.871671718534586],[-4.289873350969329,55.871682575723916],[-4.289853704626711,55.87167999067884],[-4.289851016179826,55.871686401590644],[-4.289806760208032,55.87168050768786],[-4.289809345253113,55.871674510383265],[-4.289725899997887,55.87166334298852],[-4.289724865979854,55.87166830627507]]]}},{"type":"Feature","id":20,"properties":{"stop":"unitower","osmId":"way/533970279","name":"","height":11.1,"base":0,"fid":20},"geometry":{"type":"Polygon","coordinates":[[[-4.289724486297735,55.87166119381989],[-4.289716931233593,55.87167955682301],[-4.289707382471969,55.87170253680978],[-4.289698673161916,55.871722158990266],[-4.289694580835505,55.871733176792134],[-4.289729208212824,55.87173768884433],[-4.289723122188932,55.87175237924683],[-4.289689963851862,55.871748077057525],[-4.289676427695274,55.87178050087447],[-4.289708956443665,55.87178469813233],[-4.289703080282665,55.871798654014704],[-4.289669502219811,55.871794246893955],[-4.289656070994668,55.87182656577945],[-4.289689649057523,55.8718309729002],[-4.2896848222109885,55.87184262029076],[-4.289670551534275,55.871840521661824],[-4.289380521016364,55.871802641409666],[-4.289362577739025,55.87180054278074],[-4.289367614448454,55.87178858059584],[-4.289386292245918,55.871790994019115],[-4.289419240720094,55.871707678450655],[-4.289441171392396,55.87165888532807],[-4.289433616328254,55.8716578360136],[-4.289447257416289,55.87162499247088],[-4.289724486297735,55.87166119381989]]]}},{"type":"Feature","id":21,"properties":{"stop":"unitower","osmId":"way/533970280","name":"","height":14.3,"base":0,"fid":21},"geometry":{"type":"Polygon","coordinates":[[[-4.289573276867949,55.87133989083826],[-4.2895673161460905,55.87135421748554],[-4.289853639943433,55.871392387020244],[-4.28986190129478,55.87137063561416],[-4.2898756004976475,55.871372204225175],[-4.28988051547883,55.87136321085535],[-4.289865770535285,55.87136164224434],[-4.289879365164085,55.8713300608759],[-4.289893378089157,55.87133162948691],[-4.289898293070338,55.87132075378387],[-4.289882920682387,55.871318976024725],[-4.289893064366953,55.87129199591526],[-4.289910632810326,55.871294087396606],[-4.289915234069304,55.871281015638154],[-4.289900175403556,55.871279237878994],[-4.289910214514054,55.871255394991564],[-4.289926214346412,55.87125748647292],[-4.2899313384757285,55.871244623862594],[-4.289918371291334,55.87124295067751],[-4.2899225542540425,55.87123019264126],[-4.289900489125759,55.87122653254888],[-4.289894842126103,55.871240022603615],[-4.289805849594497,55.87122736914142],[-4.28980888224246,55.87121931693821],[-4.289800202594842,55.87121816662347],[-4.289802294076196,55.87121105558686],[-4.289779810651642,55.871190245347385],[-4.289737039857956,55.87118480749587],[-4.2897030532859555,55.8712009119023],[-4.289685903138854,55.87119871584687],[-4.2896816156020785,55.871211473883136],[-4.289622740401968,55.871346688152656],[-4.289573276867949,55.87133989083826]]]}},{"type":"Feature","id":22,"properties":{"stop":"unitower","osmId":"way/533970281","name":"","height":11.1,"base":0,"fid":22},"geometry":{"type":"Polygon","coordinates":[[[-4.289762715219556,55.87155873975777],[-4.2897675206342605,55.87154703961762],[-4.289777967187968,55.87152165449211],[-4.289791338776712,55.87148895677901],[-4.289826230266092,55.871493239866034],[-4.2898337517847605,55.871476838776715],[-4.289798337967696,55.87147266015523],[-4.289812022953051,55.87144111156304],[-4.289846914442431,55.87144560358113],[-4.289852137719285,55.87143160519916],[-4.289817873023127,55.87142753104321],[-4.289831871405094,55.87139577351994],[-4.289867598618771,55.87139942981375],[-4.2898728218956235,55.871386789483765],[-4.289856107409694,55.87138428231088],[-4.289570080769206,55.87134615238985],[-4.2895099086198565,55.87148937464116],[-4.289495701306815,55.87152311700963],[-4.289762715219556,55.87155873975777]]]}},{"type":"Feature","id":23,"properties":{"stop":"unitower","osmId":"way/533970282","name":"","height":7.9,"base":0,"fid":23},"geometry":{"type":"Polygon","coordinates":[[[-4.2895909310650016,55.87134109987055],[-4.289598523468117,55.87132376046343],[-4.289243629922505,55.87127512804348],[-4.289097117062392,55.871255121035276],[-4.2890922948604135,55.871266304439864],[-4.289073211252583,55.87126363683876],[-4.2890771100541825,55.87125450543502],[-4.28883128035332,55.871220852621214],[-4.288878784172811,55.87111178877647],[-4.288957786205225,55.87112266438093],[-4.288961479806741,55.87111414857743],[-4.288983744015876,55.8711172265787],[-4.2889801530144025,55.87112553718211],[-4.289123074873042,55.871145133790144],[-4.289127076274684,55.87113589978635],[-4.2891459546824295,55.87113846478741],[-4.2891419532807875,55.87114759619115],[-4.289207822507813,55.87115662499486],[-4.289212131709582,55.87114667279078],[-4.28923213871779,55.87114944299191],[-4.289236447919558,55.871139490787826],[-4.289255428927347,55.87114215838893],[-4.289252966526336,55.87114759619115],[-4.289278000936608,55.87115108459259],[-4.2892759489357655,55.87115580419452],[-4.289297289744522,55.871158676995705],[-4.289317912352983,55.87116154979688],[-4.289319964353825,55.87115683019494],[-4.2893407921623705,55.871159702996124],[-4.289343459763465,55.87115375219368],[-4.289362851171421,55.87115641979477],[-4.289358541969653,55.87116637199886],[-4.2893765995770625,55.87116883439987],[-4.2893725981754205,55.87117806840365],[-4.289415997993227,55.8711840192061],[-4.289419691594742,55.87117550340261],[-4.289436312801562,55.87117776060353],[-4.289432516600005,55.87118658420715],[-4.289478173618737,55.87119284280972],[-4.289482380220464,55.87118330100581],[-4.289503208029009,55.87118617380698],[-4.289499001427283,55.87119592081098],[-4.289543119445384,55.87120197421346],[-4.289547223447069,55.87119253500959],[-4.289567640855446,55.871195407810774],[-4.289563639453804,55.871204641814565],[-4.289607347071737,55.871210592617],[-4.289611245873337,55.8712015638133],[-4.289629406080787,55.87120402621431],[-4.289625302079103,55.87121336281814],[-4.289673011098679,55.87121992922083],[-4.2896763969000675,55.87121223421768],[-4.289697224708613,55.871215107018855],[-4.289639460884913,55.871347768873285],[-4.2895909310650016,55.87134109987055]]]}},{"type":"Feature","id":24,"properties":{"stop":"byres","osmId":"way/582886192","name":"","height":11,"base":0,"fid":24},"geometry":{"type":"Polygon","coordinates":[[[-4.29439775948379,55.875033944119],[-4.294223136433568,55.87497329220173],[-4.294453173757074,55.874774575989214],[-4.2944955986732944,55.874774156977686],[-4.294653985027184,55.87485188361432],[-4.294646547572736,55.87485785452846],[-4.294530376629307,55.87494511367713],[-4.294506597725649,55.87493662869388],[-4.2944146246973975,55.875018650198584],[-4.29439775948379,55.875033944119]]]}},{"type":"Feature","id":25,"properties":{"stop":"byres","osmId":"way/847517613","name":"","height":11,"base":0,"fid":25},"geometry":{"type":"Polygon","coordinates":[[[-4.295428846525221,55.87436079836661],[-4.29542967850296,55.87435840643061],[-4.295476893239657,55.87423454574469],[-4.2954671175012225,55.87423360976974],[-4.29546441357357,55.87422872190052],[-4.295457029771136,55.87422300205356],[-4.295422190703308,55.87421915415652],[-4.295404407179133,55.87422466600904],[-4.295384647707828,55.87422206607861],[-4.295309041730782,55.87421197834852],[-4.295292922162086,55.87420937841809],[-4.295080767838601,55.874181819155474],[-4.294987690329033,55.87426470493774],[-4.295186429011474,55.87433573503722],[-4.295199324666431,55.87432398335166],[-4.295227611909562,55.87432637528766],[-4.295237387647997,55.87433885495374],[-4.295428846525221,55.87436079836661]]]}},{"type":"Feature","id":26,"properties":{"stop":"byres","osmId":"way/847517614","name":"","height":11,"base":0,"fid":26},"geometry":{"type":"Polygon","coordinates":[[[-4.2948053481324955,55.87442476939823],[-4.295000278385273,55.87425758003747],[-4.295203392732631,55.87433017401929],[-4.2950070807496,55.874499276545],[-4.2948053481324955,55.87442476939823]]]}},{"type":"Feature","id":27,"properties":{"stop":"byres","osmId":"way/847517615","name":"","height":11,"base":0,"fid":27},"geometry":{"type":"Polygon","coordinates":[[[-4.294960019091993,55.874713133651476],[-4.294947075694114,55.87470640308458],[-4.2949394132025684,55.87471044142472],[-4.294926262710321,55.87471085561345],[-4.294901618480758,55.87469998315923],[-4.294898097876533,55.87469118164867],[-4.2949019291223065,55.874685175912056],[-4.2948733500997855,55.874672025419805],[-4.2948034557512305,55.87463992579306],[-4.294782849861805,55.874630088810676],[-4.294647824335113,55.874564232802264],[-4.294813706922352,55.87441502131149],[-4.295010239475771,55.874487607886806],[-4.294968613508186,55.87452447068397],[-4.294951528222985,55.87451805075862],[-4.29492791946525,55.87453793181776],[-4.295091420467278,55.874612485789555],[-4.295084275711648,55.87461828443181],[-4.294960019091993,55.874713133651476]]]}},{"type":"Feature","id":28,"properties":{"stop":"byres","osmId":"way/857210957","name":"","height":11,"base":0,"fid":28},"geometry":{"type":"Polygon","coordinates":[[[-4.294042096548378,55.87473953628632],[-4.294127493346759,55.87466295932739],[-4.294133926641411,55.8746630630902],[-4.294218078285988,55.87458866515042],[-4.294221606221766,55.874583788298025],[-4.294217559471903,55.8745811942276],[-4.294229077144589,55.87456874268956],[-4.294233227657268,55.87456085671547],[-4.29424557543249,55.874538236421365],[-4.29424453780432,55.874500778044435],[-4.294193071447095,55.87445647132158],[-4.294197740773859,55.874454811116514],[-4.2941255218532355,55.87439753404153],[-4.294129776128732,55.87438798786237],[-4.294119296084217,55.874377507817854],[-4.294096987078564,55.87437377235644],[-4.29408297909827,55.87436152834404],[-4.293916854828274,55.87442596505338],[-4.294043134176548,55.87452796390249],[-4.294003081729191,55.87456210186928],[-4.2939470498080174,55.87454373585067],[-4.293916854828274,55.87456967655492],[-4.293863935791611,55.87455172558758],[-4.293829175247921,55.87458098670197],[-4.293789122800564,55.87456614861914],[-4.293748759064755,55.87459914519494],[-4.293809979126777,55.87462166172622],[-4.293786736255773,55.87464116913582],[-4.293870265323448,55.87467198669246],[-4.294042096548378,55.87473953628632]]]}},{"type":"Feature","id":29,"properties":{"stop":"byres","osmId":"way/857210964","name":"","height":11,"base":0,"fid":29},"geometry":{"type":"Polygon","coordinates":[[[-4.293873970127143,55.874899896559135],[-4.2938040042985355,55.87496086526909],[-4.293613794625301,55.87489470998485],[-4.2936560281587575,55.874858509813315],[-4.293495985295135,55.87480198673847],[-4.293529221709935,55.8747672684453],[-4.293687359301371,55.87482336812633],[-4.2936851364838216,55.874831095063534],[-4.293873970127143,55.874899896559135]]]}},{"type":"Feature","id":30,"properties":{"stop":"byres","osmId":"way/857210965","name":"","height":11,"base":0,"fid":30},"geometry":{"type":"Polygon","coordinates":[[[-4.2938656185632444,55.874904433390114],[-4.294054102302337,55.87473126329927],[-4.293880407771487,55.87466298121015],[-4.293847997378955,55.87469161563462],[-4.2938399210028235,55.874688259218566],[-4.293814223442402,55.8747022093228],[-4.293762198993548,55.87468343437048],[-4.293661716287899,55.874770491411915],[-4.29372391487292,55.87478905658822],[-4.293680701016211,55.87482859936487],[-4.293678498368175,55.874836256189],[-4.2938656185632444,55.874904433390114]]]}},{"type":"Feature","id":31,"properties":{"stop":"byres","osmId":"way/858709977","name":"","height":11,"base":0,"fid":31},"geometry":{"type":"Polygon","coordinates":[[[-4.295645907329536,55.87369348917838],[-4.295488425089316,55.87382877879938],[-4.295655189819306,55.87389023528337],[-4.295699468362457,55.87386932300757],[-4.295827609399385,55.87376017373131],[-4.295645907329536,55.87369348917838]]]}},{"type":"Feature","id":32,"properties":{"stop":"byres","osmId":"way/858709978","name":"","height":11,"base":0,"fid":32},"geometry":{"type":"Polygon","coordinates":[[[-4.295796341527353,55.87356482079357],[-4.295634969572475,55.87370318568759],[-4.295818058472647,55.873770379206434],[-4.295979430427525,55.87363201431242],[-4.295796341527353,55.87356482079357]]]}},{"type":"Feature","id":33,"properties":{"stop":"byres","osmId":"way/858709979","name":"","height":11,"base":0,"fid":33},"geometry":{"type":"Polygon","coordinates":[[[-4.296151247865047,55.87348727718047],[-4.295958967674081,55.87345769561263],[-4.295932027317655,55.87345494875276],[-4.295912165407819,55.87345727301881],[-4.295784647720734,55.87357369761795],[-4.29596456704228,55.87363972790331],[-4.296012108847739,55.87359641203611],[-4.296029435194617,55.873592291746306],[-4.296148184059806,55.87360771642097],[-4.296169736344947,55.87354950412139],[-4.296130012525275,55.8735448555893],[-4.296151247865047,55.87348727718047]]]}},{"type":"Feature","id":34,"properties":{"stop":"byres","osmId":"way/858709998","name":"","height":11,"base":0,"fid":34},"geometry":{"type":"Polygon","coordinates":[[[-4.29567149284872,55.87403450091085],[-4.295700610219098,55.873923728306146],[-4.295677189725533,55.87391771493618],[-4.295661681560874,55.873905055209924],[-4.295662420044906,55.87388205670724],[-4.295497527110474,55.87382129002122],[-4.295310057664226,55.87398523347619],[-4.295306576239507,55.87399388428912],[-4.295313644586664,55.87400063614313],[-4.29567149284872,55.87403450091085]]]}},{"type":"Feature","id":35,"properties":{"stop":"byres","osmId":"way/909332039","name":"","height":11,"base":0,"fid":35},"geometry":{"type":"Polygon","coordinates":[[[-4.297262859120666,55.87253653030185],[-4.297412702780597,55.8724218418525],[-4.297246800567684,55.87235283347617],[-4.297100537531052,55.872465894369476],[-4.297262859120666,55.87253653030185]]]}},{"type":"Feature","id":36,"properties":{"stop":"byres","osmId":"way/909332040","name":"","height":11,"base":0,"fid":36},"geometry":{"type":"Polygon","coordinates":[[[-4.297151281432724,55.87261695234989],[-4.297272768995189,55.872526965544765],[-4.297111932363819,55.87245697580746],[-4.296969910177965,55.87257072256948],[-4.2971087070303025,55.87263028372842],[-4.297151281432724,55.87261695234989]]]}},{"type":"Feature","id":37,"properties":{"stop":"byres","osmId":"way/909332041","name":"","height":11,"base":0,"fid":37},"geometry":{"type":"Polygon","coordinates":[[[-4.297172990483454,55.87272854955768],[-4.2969047561659535,55.87269694906086],[-4.296877171785784,55.87269071351132],[-4.296859099260846,55.87268215284161],[-4.296855188831474,55.87267581160479],[-4.296855505893315,55.87266291775659],[-4.2968647006867045,55.872652560403125],[-4.296980216884116,55.87256515702228],[-4.297116659163033,55.87262370777558],[-4.297158511326048,55.872610602552825],[-4.297215899519271,55.872617577913324],[-4.297172990483454,55.87272854955768]]]}},{"type":"Feature","id":38,"properties":{"stop":"byres","osmId":"way/909332053","name":"","height":11,"base":0,"fid":38},"geometry":{"type":"Polygon","coordinates":[[[-4.297471533460197,55.87243079399267],[-4.297515689783473,55.872317684199054],[-4.297357009794164,55.87229745494751],[-4.2973315600906,55.87229788998518],[-4.297306327905872,55.87230398051253],[-4.297235960563115,55.87236020913108],[-4.297402253711609,55.872429380120245],[-4.29741356469097,55.87242350711173],[-4.297471533460197,55.87243079399267]]]}},{"type":"Feature","id":39,"properties":{"stop":"byres","osmId":"way/909332062","name":"","height":11,"base":0,"fid":39},"geometry":{"type":"Polygon","coordinates":[[[-4.296516771800424,55.87293350716519],[-4.296572271919884,55.87288216955469],[-4.296584439253766,55.87287629934975],[-4.296608026804536,55.87287309741978],[-4.296716465499481,55.87288707918064],[-4.296834189791335,55.87290223498249],[-4.2967894695027695,55.87302006600535],[-4.29667238559691,55.87300576405149],[-4.2966738798308945,55.87299178229062],[-4.296516771800424,55.87293350716519]]]}},{"type":"Feature","id":40,"properties":{"stop":"byres","osmId":"way/909332063","name":"","height":11,"base":0,"fid":40},"geometry":{"type":"Polygon","coordinates":[[[-4.296386656375039,55.8730441276095],[-4.296523049129921,55.87292748014722],[-4.296681011470744,55.87298607215679],[-4.296679509111525,55.87300012994663],[-4.296561573912772,55.87310669013986],[-4.296386656375039,55.8730441276095]]]}},{"type":"Feature","id":41,"properties":{"stop":"byres","osmId":"way/909332064","name":"","height":11,"base":0,"fid":41},"geometry":{"type":"Polygon","coordinates":[[[-4.296268806178582,55.87314824187455],[-4.2963969079755415,55.87303485084555],[-4.296571933900977,55.87309745214281],[-4.296454569890853,55.87320579641199],[-4.296437282054047,55.8732081587251],[-4.296268806178582,55.87314824187455]]]}},{"type":"Feature","id":42,"properties":{"stop":"byres","osmId":"way/909332065","name":"","height":11,"base":0,"fid":42},"geometry":{"type":"Polygon","coordinates":[[[-4.296539942967413,55.87334431433017],[-4.2965382751684595,55.8733495262019],[-4.296125182215305,55.87329938799588],[-4.2961107974493355,55.873286775266294],[-4.296273720559551,55.87314334455635],[-4.296437269094373,55.87320150904483],[-4.296439353843064,55.87321328787493],[-4.296451966572645,55.87322350314352],[-4.29647677508207,55.87322996586446],[-4.296518991243066,55.87323090400137],[-4.29652389040249,55.87322246076918],[-4.29658403540223,55.87323132095111],[-4.296539942967413,55.87334431433017]]]}},{"type":"Feature","id":43,"properties":{"stop":"burghhall","osmId":"way/912100787","name":"","height":11,"base":0,"fid":43},"geometry":{"type":"Polygon","coordinates":[[[-4.308904736355878,55.871387166208194],[-4.308877557295969,55.87115496473033],[-4.308307617537803,55.871175990040825],[-4.308310079037569,55.87119732303879],[-4.308266079729263,55.871198861476145],[-4.308269977103891,55.87123270709792],[-4.3083171558493945,55.87123096353559],[-4.308321566036473,55.87126850140701],[-4.308244131356356,55.87127127059424],[-4.30825972085487,55.871404909519],[-4.308546280452551,55.871394448145004],[-4.308546998389982,55.87140029420694],[-4.308904736355878,55.871387166208194]]]}},{"type":"Feature","id":44,"properties":{"stop":"station","osmId":"way/1263355082","name":"","height":11,"base":0,"fid":44},"geometry":{"type":"Polygon","coordinates":[[[-4.309021011597961,55.86992353954448],[-4.308733196801319,55.870086532944114],[-4.308567889946984,55.86999504632625],[-4.308664424102378,55.8699380512149],[-4.308701754848746,55.869957400108795],[-4.308743817661553,55.86998053465584],[-4.308785985631395,55.87000356404585],[-4.308801969500262,55.87001197660841],[-4.3089830499094015,55.86990345455136],[-4.309021011597961,55.86992353954448]]]}},{"type":"Feature","id":45,"properties":{"stop":"byres","osmId":"way/1370683856","name":"","height":11,"base":0,"fid":45},"geometry":{"type":"Polygon","coordinates":[[[-4.295211393480344,55.87372575359916],[-4.295294432434456,55.87365537973752],[-4.295101482503948,55.873584565350924],[-4.2950167915812525,55.873656701312385],[-4.295211393480344,55.87372575359916]]]}},{"type":"Feature","id":46,"properties":{"stop":"byres","osmId":"way/1370683857","name":"","height":11,"base":0,"fid":46},"geometry":{"type":"Polygon","coordinates":[[[-4.29513614407104,55.873789638904164],[-4.2952190205707845,55.87371919938247],[-4.2950245414538575,55.87365019066356],[-4.294939793904319,55.8737221710498],[-4.29513614407104,55.873789638904164]]]}},{"type":"Feature","id":47,"properties":{"stop":"byres","osmId":"way/1370683858","name":"","height":11,"base":0,"fid":47},"geometry":{"type":"Polygon","coordinates":[[[-4.29506089397915,55.87385342127724],[-4.295143722499457,55.873783132532914],[-4.29494748600513,55.8737157037375],[-4.294862897516264,55.87378764245234],[-4.29506089397915,55.87385342127724]]]}},{"type":"Feature","id":48,"properties":{"stop":"byres","osmId":"way/1370683859","name":"","height":14.3,"base":0,"fid":48},"geometry":{"type":"Polygon","coordinates":[[[-4.295806834503941,55.872987808822415],[-4.2956469977180864,55.873123830999916],[-4.295836012762835,55.873192807545756],[-4.2960003550151376,55.87305335263192],[-4.295806834503941,55.872987808822415]]]}},{"type":"Feature","id":49,"properties":{"stop":"byres","osmId":"way/1370683860","name":"","height":14.3,"base":0,"fid":49},"geometry":{"type":"Polygon","coordinates":[[[-4.295658512344253,55.87311435805403],[-4.295481987443659,55.87326435072714],[-4.295670280670959,55.87333314194597],[-4.295847019541129,55.87318314927287],[-4.295658512344253,55.87311435805403]]]}},{"type":"Feature","id":50,"properties":{"stop":"byres","osmId":"way/1370683861","name":"","height":14.3,"base":0,"fid":50},"geometry":{"type":"Polygon","coordinates":[[[-4.295493793667847,55.873254572370065],[-4.295308900506536,55.873411816958175],[-4.295497529961522,55.87347949724932],[-4.295681675864097,55.87332321342244],[-4.295493793667847,55.873254572370065]]]}},{"type":"Feature","id":51,"properties":{"stop":"byres","osmId":"way/1370683862","name":"","height":14.3,"base":0,"fid":51},"geometry":{"type":"Polygon","coordinates":[[[-4.2953913972903095,55.873571360711715],[-4.295509711749148,55.87347106478514],[-4.29531791207138,55.873402247017346],[-4.295194278889163,55.87350742748579],[-4.2953913972903095,55.873571360711715]]]}},{"type":"Feature","id":52,"properties":{"stop":"byres","osmId":"way/1370683863","name":"","height":14.3,"base":0,"fid":52},"geometry":{"type":"Polygon","coordinates":[[[-4.295203346456852,55.873499408577025],[-4.295094176024646,55.87359214358026],[-4.295284870538332,55.87366213020828],[-4.29540100698017,55.87356351763442],[-4.295203346456852,55.873499408577025]]]}},{"type":"Feature","id":53,"properties":{"stop":"byres","osmId":"way/1370683864","name":"","height":14.3,"base":0,"fid":53},"geometry":{"type":"Polygon","coordinates":[[[-4.295991556348836,55.873060560756876],[-4.29580449143699,55.872997203405916],[-4.295779086279895,55.872988285677295],[-4.2955555208974445,55.87298310095136],[-4.295554898730332,55.872870281314945],[-4.295933694807368,55.872873184761474],[-4.295934109585443,55.87285586777684],[-4.2961391136490334,55.872857423194624],[-4.296138698870959,55.872874740179256],[-4.2961704293937,55.872908751981406],[-4.295991556348836,55.873060560756876]]]}},{"type":"Feature","id":54,"properties":{"stop":"station","osmId":"way/1442039354","name":"","height":4.7,"base":0,"fid":54},"geometry":{"type":"Polygon","coordinates":[[[-4.30894397500035,55.86979757210021],[-4.308967965153365,55.86978326218438],[-4.308641993688266,55.86962490613048],[-4.3086223175539935,55.86963679598702],[-4.308931348604026,55.869805463597906],[-4.30894397500035,55.86979757210021]]]}},{"type":"Feature","id":55,"properties":{"stop":"station","osmId":"way/1442039355","name":"","height":4.7,"base":0,"fid":55},"geometry":{"type":"Polygon","coordinates":[[[-4.308509062359282,55.869713555681486],[-4.308577716932289,55.869677624316175],[-4.308567964133133,55.86967095134833],[-4.308551795018743,55.869666459927664],[-4.308529466241727,55.86966607494875],[-4.308507522443626,55.86967210628507],[-4.30849725633925,55.86967916423183],[-4.30849096835032,55.86969007196773],[-4.308494048181633,55.869702391292975],[-4.308509062359282,55.869713555681486]]]}},{"type":"Feature","id":56,"properties":{"stop":"station","osmId":"way/1442039356","name":"","height":4.7,"base":0,"fid":56},"geometry":{"type":"Polygon","coordinates":[[[-4.308797324750083,55.87000503730952],[-4.308760829431856,55.8700263767647],[-4.308712088176284,55.87000042992715],[-4.308663346920711,55.8699743618427],[-4.308700205979652,55.86995180991848],[-4.308748704741414,55.86997848423746],[-4.308797324750083,55.87000503730952]]]}},{"type":"Feature","id":57,"properties":{"stop":"station","osmId":"way/1442039357","name":"","height":4.7,"base":0,"fid":57},"geometry":{"type":"Polygon","coordinates":[[[-4.3091602849046335,55.869974997286846],[-4.308784356528163,55.870055358025404],[-4.308778781764886,55.87004673291996],[-4.308777309185906,55.87004189444617],[-4.308777309185906,55.87003347970915],[-4.30878120100178,55.870024223498426],[-4.308785198001866,55.87001927984043],[-4.308795506054718,55.87001107547182],[-4.308976633269122,55.86990252536424],[-4.309014604769935,55.86992261554889],[-4.309090652955774,55.86996269073395],[-4.309113162377309,55.86994922715471],[-4.3091602849046335,55.869974997286846]]]}},{"type":"Feature","id":58,"properties":{"stop":"station","osmId":"way/1442039358","name":"","height":4.7,"base":0,"fid":58},"geometry":{"type":"Polygon","coordinates":[[[-4.309102426428533,55.86989345668375],[-4.309308918494666,55.86975164506551],[-4.3093443713992245,55.86973381309864],[-4.309336879862844,55.869728220825],[-4.30930638614434,55.86971070540192],[-4.309039117670392,55.869859058925165],[-4.309102426428533,55.86989345668375]]]}},{"type":"Feature","id":59,"properties":{"stop":"station","osmId":"way/1442039359","name":"","height":7.9,"base":0,"fid":59},"geometry":{"type":"Polygon","coordinates":[[[-4.309502509487019,55.87007670154305],[-4.309415685375585,55.87012914289825],[-4.30910613854352,55.86995253592188],[-4.309084304983183,55.86996559524769],[-4.309010540197559,55.869926723348215],[-4.308973708817739,55.86990723638548],[-4.308798020075215,55.87001252719982],[-4.308782512125817,55.87000436512119],[-4.30874159970668,55.86998202143094],[-4.308700789313528,55.8699595757147],[-4.308664570089605,55.869940802933854],[-4.308360532660615,55.86978276468637],[-4.308503981192548,55.869702674289805],[-4.3085585650933895,55.869674107014596],[-4.308626004268075,55.869636153348964],[-4.308925654579801,55.86979970099952],[-4.308937897697747,55.86979204905081],[-4.3090518607206265,55.86985397882242],[-4.309113076310356,55.86988723929284],[-4.309136338234453,55.86987183336942],[-4.309178168887435,55.86989529934549],[-4.309463841639506,55.87005507203468],[-4.309502509487019,55.87007670154305]]]}},{"type":"Feature","id":60,"properties":{"stop":"station","osmId":"way/1442039360","name":"","height":7.9,"base":0,"fid":60},"geometry":{"type":"Polygon","coordinates":[[[-4.309702371416803,55.86998429691232],[-4.309800584048348,55.86993231407595],[-4.309510466400355,55.86976280482695],[-4.309261133705001,55.86961702687281],[-4.309235142286821,55.86963151220863],[-4.309197028389015,55.86965339431168],[-4.309299864000076,55.869712773915275],[-4.309329553801872,55.86972982757305],[-4.3093368478362235,55.869735272415596],[-4.309302329589154,55.869752634272004],[-4.309326677281283,55.86976670867632],[-4.309665901245047,55.86996313393941],[-4.309702371416803,55.86998429691232]]]}},{"type":"Feature","id":61,"properties":{"stop":"riverside","osmId":"relation/13348001","name":"Riverside Museum","height":11,"base":0,"fid":61},"geometry":{"type":"Polygon","coordinates":[[[-4.30593104957517,55.865403376883485],[-4.305940623940233,55.865395616608645],[-4.305945663079742,55.86538694928869],[-4.305946368559272,55.86537747570642],[-4.305941631768135,55.865368909169256],[-4.305933166013763,55.86536135045999],[-4.305920668947785,55.865354497230264],[-4.305617514315024,55.865259962973106],[-4.305051921296722,55.86508369387314],[-4.305035392919137,55.86507633672946],[-4.305022190373629,55.86506948349973],[-4.305012112094613,55.86506172322488],[-4.305001630684439,55.86505023398681],[-4.304995482934239,55.86503955101106],[-4.304990242229152,55.865026953162285],[-4.3049887304873,55.86501778192838],[-4.304989738315201,55.86500730051821],[-4.304992459450535,55.864997121456405],[-4.304997196241672,55.864985531435536],[-4.305005359647674,55.8649736390663],[-4.305016042623429,55.86496184747985],[-4.305026927164765,55.86495136606968],[-4.305041137538176,55.864944008926],[-4.305055347911587,55.864937357261844],[-4.305072884117072,55.864930403249325],[-4.305092839109521,55.864924255499126],[-4.305113096450341,55.864920728101474],[-4.3051370827543955,55.8649194179252],[-4.305425523099795,55.86493937291765],[-4.305436709989501,55.86494007839718],[-4.305519654225791,55.864947838672016],[-4.305606831339269,55.86495368407385],[-4.3056861473951145,55.86495449033617],[-4.305761532922143,55.86495307937711],[-4.305786527054099,55.864951769200836],[-4.3058263362562075,55.86494955197945],[-4.305906861705535,55.86494169092182],[-4.3059887981139235,55.864928891507475],[-4.306046748218258,55.86491931714241],[-4.3061069155439755,55.864906416945274],[-4.306142592651688,55.864898152756474],[-4.306200845104392,55.86488444629702],[-4.306290239439252,55.86485844433716],[-4.306331963514372,55.86484463709491],[-4.306808766894557,55.86468711359392],[-4.307321247382451,55.86482276722945],[-4.307721657407704,55.86494007839718],[-4.307512230769779,55.8649695069719],[-4.307225201383442,55.86501012243634],[-4.307147296286659,55.865021208543254],[-4.306621210122094,55.86509568702517],[-4.306608511490535,55.86510032303351],[-4.306599441039421,55.865106067652555],[-4.306591579981791,55.86511241696833],[-4.306585533014382,55.8651188670669],[-4.306582005616726,55.86512441012036],[-4.306579284481393,55.865130356304974],[-4.306576563346058,55.8651383181454],[-4.306574850038626,55.86514728781372],[-4.306575857866528,55.86515595513368],[-4.3065813001371955,55.86516774672012],[-4.306590068239939,55.86517631325728],[-4.306600247301743,55.86518407353213],[-4.306614760023524,55.865192438503705],[-4.306629575093676,55.8651976792088],[-4.306637133802936,55.86519989643018],[-4.306649832434496,55.86520352461062],[-4.307015069265986,55.865267723247946],[-4.307030186684508,55.865270444383285],[-4.307044699406289,55.86527397178094],[-4.30705870821412,55.86528022031393],[-4.307069592755455,55.86528697276086],[-4.307074027198222,55.865293624425014],[-4.307076345202395,55.86530067922032],[-4.307077353030297,55.86530934654027],[-4.307073624067062,55.86531871933976],[-4.307064452833158,55.8653295030983],[-4.307055987078786,55.86533444145502],[-4.306665856898128,55.86556402465098],[-4.30659792929757,55.86560393463588],[-4.306335087780868,55.86575863621875],[-4.306151663102801,55.8656651097895],[-4.305788441927112,55.86546878491429],[-4.30582089398554,55.86545396984413],[-4.30593104957517,55.865403376883485]]]}}]}