{"type":"FeatureCollection","properties":{"meters":5610,"order":["riverside","glenlee","kelvingrove","kelvinhall","unitower","station","burghhall","byres"]},"features":[{"type":"Feature","properties":{"kind":"whole","meters":5610},"geometry":{"type":"LineString","coordinates":[[-4.3057294,55.8655725],[-4.3062697,55.8658549],[-4.3066695,55.8656415],[-4.306867,55.8655762],[-4.3069504,55.8655362],[-4.307159,55.8654346],[-4.3073903,55.8650952],[-4.307779,55.8649576],[-4.307842,55.8648975],[-4.307779,55.8649576],[-4.3073903,55.8650952],[-4.307159,55.8654346],[-4.3069504,55.8655362],[-4.306867,55.8655762],[-4.3066695,55.8656415],[-4.3062697,55.8658549],[-4.3059719,55.8659973],[-4.3059285,55.866011],[-4.3058728,55.8660249],[-4.3057949,55.8660321],[-4.305722,55.8660294],[-4.3055442,55.866004],[-4.3053116,55.8659659],[-4.3052894,55.8659628],[-4.305246,55.8660211],[-4.3051701,55.8660858],[-4.3051878,55.8661029],[-4.3051839,55.8661625],[-4.3051922,55.8663308],[-4.3051727,55.8663534],[-4.3052016,55.866385],[-4.3052091,55.8664165],[-4.3052112,55.8664403],[-4.3052019,55.8664669],[-4.3051735,55.8664957],[-4.3050186,55.8665931],[-4.304973,55.8666318],[-4.3049415,55.8666646],[-4.3049186,55.8666992],[-4.3049068,55.8667409],[-4.3049039,55.8667759],[-4.3049113,55.8668087],[-4.3049343,55.8668588],[-4.3049506,55.8669258],[-4.3049357,55.8669701],[-4.3048945,55.867028],[-4.3048404,55.8670719],[-4.3046362,55.8671958],[-4.3045464,55.8672344],[-4.3042953,55.8673825],[-4.3042455,55.8673977],[-4.3041629,55.8674114],[-4.3040731,55.8674099],[-4.3040062,55.8673954],[-4.3039537,55.8673723],[-4.3039095,55.867337],[-4.3038961,55.8672937],[-4.30389,55.8672301],[-4.3038963,55.8671858],[-4.3038196,55.8671737],[-4.3031844,55.8669665],[-4.303135,55.8669411],[-4.3030802,55.8668956],[-4.3027825,55.8670594],[-4.3023597,55.867286],[-4.3022361,55.867352],[-4.3019842,55.8674766],[-4.301713,55.8676161],[-4.3013419,55.8677994],[-4.3012582,55.8678385],[-4.3011776,55.8678227],[-4.3011179,55.8678266],[-4.30078,55.8679372],[-4.3003807,55.8679924],[-4.3002049,55.8680161],[-4.3001243,55.8680225],[-4.2996176,55.8680411],[-4.29843,55.8681015],[-4.2982183,55.8680867],[-4.2980779,55.868077],[-4.2971797,55.8680206],[-4.2967596,55.867986],[-4.2966738,55.8679791],[-4.2966357,55.8680265],[-4.296444,55.8680071],[-4.2955723,55.8679294],[-4.295229,55.8678719],[-4.2950364,55.8678263],[-4.2942657,55.8675909],[-4.2934899,55.8673719],[-4.2934009,55.867342],[-4.2932751,55.8672684],[-4.2932252,55.8672932],[-4.2932082,55.8673016],[-4.2931733,55.8673159],[-4.2931425,55.8673284],[-4.2931492,55.8673839],[-4.2931035,55.8674313],[-4.2920244,55.8680754],[-4.2918475,55.8681723],[-4.2916246,55.8682106],[-4.2914812,55.8682603],[-4.2912043,55.8683614],[-4.291175,55.8683713],[-4.2910953,55.8683987],[-4.2911302,55.8684305],[-4.2915692,55.8688488],[-4.2916004,55.8688766],[-4.2916677,55.8689365],[-4.2917314,55.8690085],[-4.2918189,55.8690645],[-4.2919577,55.8691805],[-4.2919695,55.8691912],[-4.2920031,55.8692338],[-4.2920287,55.8692876],[-4.2921678,55.8692758],[-4.2923102,55.8692647],[-4.2924998,55.8692821],[-4.2926419,55.869304],[-4.2931154,55.8693973],[-4.2931996,55.869416],[-4.2932307,55.8694229],[-4.2932749,55.8694341],[-4.2933085,55.8694447],[-4.2933567,55.8694172],[-4.2934696,55.8693499],[-4.2936455,55.8694175],[-4.2937904,55.8693872],[-4.2945093,55.8692111],[-4.294665,55.8691664],[-4.2948618,55.8690979],[-4.294665,55.8691664],[-4.2945093,55.8692111],[-4.2937904,55.8693872],[-4.2936455,55.8694175],[-4.2934696,55.8693499],[-4.2933567,55.8694172],[-4.2933085,55.8694447],[-4.2933299,55.8694537],[-4.2933527,55.8694672],[-4.2933728,55.8694846],[-4.2933889,55.8695004],[-4.2936968,55.8699258],[-4.2937462,55.8700671],[-4.2938106,55.8701577],[-4.2938942,55.8702497],[-4.2939713,55.8703454],[-4.2937,55.8704396],[-4.2934864,55.870604],[-4.2932608,55.870815],[-4.2931286,55.870932],[-4.292893,55.8710698],[-4.2926314,55.8711501],[-4.2922585,55.8711864],[-4.2918505,55.8712039],[-4.2915712,55.8712221],[-4.2913175,55.8712103],[-4.2910646,55.8711985],[-4.2910286,55.8711944],[-4.290756,55.8711645],[-4.2906651,55.8711546],[-4.2901226,55.8710841],[-4.2893803,55.8709844],[-4.2887311,55.8708922],[-4.2886844,55.8709905],[-4.2886581,55.8710442],[-4.2886844,55.8709905],[-4.2887311,55.8708922],[-4.2893803,55.8709844],[-4.2901226,55.8710841],[-4.2906651,55.8711546],[-4.290756,55.8711645],[-4.2910286,55.8711944],[-4.2910646,55.8711985],[-4.2913175,55.8712103],[-4.2915712,55.8712221],[-4.2918505,55.8712039],[-4.2922585,55.8711864],[-4.2926314,55.8711501],[-4.292893,55.8710698],[-4.293219,55.8711021],[-4.293309,55.8711056],[-4.2935364,55.8711145],[-4.2936996,55.8711131],[-4.2946281,55.8711219],[-4.2946349,55.871122],[-4.2946746,55.8711226],[-4.2948654,55.8711263],[-4.2953279,55.8711374],[-4.2954853,55.8711236],[-4.2956577,55.871104],[-4.296246,55.8710236],[-4.2963454,55.8710111],[-4.29701,55.8710398],[-4.2972125,55.8710475],[-4.2972323,55.8709142],[-4.2973015,55.8709177],[-4.2985722,55.8709828],[-4.2986603,55.8710124],[-4.298731,55.8710361],[-4.2993582,55.8705532],[-4.2994231,55.8705101],[-4.2995015,55.8704718],[-4.2997669,55.8705456],[-4.2998443,55.8705651],[-4.3001956,55.870652],[-4.3003016,55.8706793],[-4.3007844,55.8708049],[-4.3008883,55.8708233],[-4.3009987,55.8708385],[-4.3010969,55.8708427],[-4.3014662,55.8708409],[-4.3017895,55.87084],[-4.3021705,55.8708397],[-4.3022309,55.8708396],[-4.3022909,55.8708398],[-4.3027387,55.8708413],[-4.3041299,55.870826],[-4.3044838,55.8708219],[-4.3048669,55.8708194],[-4.3049317,55.8708183],[-4.304989,55.8708181],[-4.3052953,55.8708147],[-4.3057989,55.8708087],[-4.3067582,55.8707978],[-4.307494,55.8707894],[-4.3080875,55.8707861],[-4.3087066,55.8707825],[-4.3087558,55.8707822],[-4.3088133,55.8707816],[-4.3091013,55.8707791],[-4.309425,55.8707748],[-4.309593,55.870772],[-4.3096709,55.8707707],[-4.3097357,55.8707702],[-4.3108631,55.8707539],[-4.3108599,55.8706961],[-4.3108268,55.8700925],[-4.3105779,55.8700982],[-4.3102453,55.8701073],[-4.3102324,55.8698977],[-4.3102228,55.8697412],[-4.3097732,55.8697431],[-4.3102228,55.8697412],[-4.3102324,55.8698977],[-4.3102453,55.8701073],[-4.3105779,55.8700982],[-4.3108268,55.8700925],[-4.3108599,55.8706961],[-4.3108631,55.8707539],[-4.3097357,55.8707702],[-4.3096709,55.8707707],[-4.309593,55.870772],[-4.309425,55.8707748],[-4.3094341,55.8708278],[-4.3095695,55.8711098],[-4.3096204,55.8712068],[-4.3097503,55.871442],[-4.3092357,55.8714654],[-4.3090204,55.8714825],[-4.3083472,55.8715106],[-4.307576,55.8715308],[-4.3075412,55.8712287],[-4.3075382,55.8711974],[-4.3075004,55.8708484],[-4.307494,55.8707894],[-4.3067582,55.8707978],[-4.3057989,55.8708087],[-4.3052953,55.8708147],[-4.304989,55.8708181],[-4.3049317,55.8708183],[-4.3048669,55.8708194],[-4.3044838,55.8708219],[-4.3041299,55.870826],[-4.3027387,55.8708413],[-4.3022909,55.8708398],[-4.3022309,55.8708396],[-4.3021705,55.8708397],[-4.3017895,55.87084],[-4.3014662,55.8708409],[-4.3010969,55.8708427],[-4.3009987,55.8708385],[-4.3008883,55.8708233],[-4.3007844,55.8708049],[-4.3003016,55.8706793],[-4.3001956,55.870652],[-4.2998443,55.8705651],[-4.2997669,55.8705456],[-4.2995015,55.8704718],[-4.2994231,55.8705101],[-4.2993582,55.8705532],[-4.298731,55.8710361],[-4.2985829,55.8711569],[-4.2983698,55.8713307],[-4.2979518,55.871659],[-4.29748,55.8720204],[-4.2973376,55.8721363],[-4.2972481,55.872207],[-4.2971409,55.8722923],[-4.297012,55.8723904],[-4.2969666,55.872425],[-4.2967315,55.872604],[-4.2965767,55.8727218],[-4.2965245,55.8727615],[-4.2964386,55.8728354],[-4.2958403,55.8733504]]}},{"type":"Feature","properties":{"kind":"leg","from":"riverside","to":"glenlee","meters":196},"geometry":{"type":"LineString","coordinates":[[-4.3057294,55.8655725],[-4.3062697,55.8658549],[-4.3066695,55.8656415],[-4.306867,55.8655762],[-4.3069504,55.8655362],[-4.307159,55.8654346],[-4.3073903,55.8650952],[-4.307779,55.8649576],[-4.307842,55.8648975]]}},{"type":"Feature","properties":{"kind":"leg","from":"glenlee","to":"kelvingrove","meters":1385},"geometry":{"type":"LineString","coordinates":[[-4.307842,55.8648975],[-4.307779,55.8649576],[-4.3073903,55.8650952],[-4.307159,55.8654346],[-4.3069504,55.8655362],[-4.306867,55.8655762],[-4.3066695,55.8656415],[-4.3062697,55.8658549],[-4.3059719,55.8659973],[-4.3059285,55.866011],[-4.3058728,55.8660249],[-4.3057949,55.8660321],[-4.305722,55.8660294],[-4.3055442,55.866004],[-4.3053116,55.8659659],[-4.3052894,55.8659628],[-4.305246,55.8660211],[-4.3051701,55.8660858],[-4.3051878,55.8661029],[-4.3051839,55.8661625],[-4.3051922,55.8663308],[-4.3051727,55.8663534],[-4.3052016,55.866385],[-4.3052091,55.8664165],[-4.3052112,55.8664403],[-4.3052019,55.8664669],[-4.3051735,55.8664957],[-4.3050186,55.8665931],[-4.304973,55.8666318],[-4.3049415,55.8666646],[-4.3049186,55.8666992],[-4.3049068,55.8667409],[-4.3049039,55.8667759],[-4.3049113,55.8668087],[-4.3049343,55.8668588],[-4.3049506,55.8669258],[-4.3049357,55.8669701],[-4.3048945,55.867028],[-4.3048404,55.8670719],[-4.3046362,55.8671958],[-4.3045464,55.8672344],[-4.3042953,55.8673825],[-4.3042455,55.8673977],[-4.3041629,55.8674114],[-4.3040731,55.8674099],[-4.3040062,55.8673954],[-4.3039537,55.8673723],[-4.3039095,55.867337],[-4.3038961,55.8672937],[-4.30389,55.8672301],[-4.3038963,55.8671858],[-4.3038196,55.8671737],[-4.3031844,55.8669665],[-4.303135,55.8669411],[-4.3030802,55.8668956],[-4.3027825,55.8670594],[-4.3023597,55.867286],[-4.3022361,55.867352],[-4.3019842,55.8674766],[-4.301713,55.8676161],[-4.3013419,55.8677994],[-4.3012582,55.8678385],[-4.3011776,55.8678227],[-4.3011179,55.8678266],[-4.30078,55.8679372],[-4.3003807,55.8679924],[-4.3002049,55.8680161],[-4.3001243,55.8680225],[-4.2996176,55.8680411],[-4.29843,55.8681015],[-4.2982183,55.8680867],[-4.2980779,55.868077],[-4.2971797,55.8680206],[-4.2967596,55.867986],[-4.2966738,55.8679791],[-4.2966357,55.8680265],[-4.296444,55.8680071],[-4.2955723,55.8679294],[-4.295229,55.8678719],[-4.2950364,55.8678263],[-4.2942657,55.8675909],[-4.2934899,55.8673719],[-4.2934009,55.867342],[-4.2932751,55.8672684],[-4.2932252,55.8672932],[-4.2932082,55.8673016],[-4.2931733,55.8673159],[-4.2931425,55.8673284],[-4.2931492,55.8673839],[-4.2931035,55.8674313],[-4.2920244,55.8680754],[-4.2918475,55.8681723],[-4.2916246,55.8682106],[-4.2914812,55.8682603],[-4.2912043,55.8683614],[-4.291175,55.8683713],[-4.2910953,55.8683987],[-4.2911302,55.8684305]]}},{"type":"Feature","properties":{"kind":"leg","from":"kelvingrove","to":"kelvinhall","meters":307},"geometry":{"type":"LineString","coordinates":[[-4.2911302,55.8684305],[-4.2915692,55.8688488],[-4.2916004,55.8688766],[-4.2916677,55.8689365],[-4.2917314,55.8690085],[-4.2918189,55.8690645],[-4.2919577,55.8691805],[-4.2919695,55.8691912],[-4.2920031,55.8692338],[-4.2920287,55.8692876],[-4.2921678,55.8692758],[-4.2923102,55.8692647],[-4.2924998,55.8692821],[-4.2926419,55.869304],[-4.2931154,55.8693973],[-4.2931996,55.869416],[-4.2932307,55.8694229],[-4.2932749,55.8694341],[-4.2933085,55.8694447],[-4.2933567,55.8694172],[-4.2934696,55.8693499],[-4.2936455,55.8694175],[-4.2937904,55.8693872],[-4.2945093,55.8692111],[-4.294665,55.8691664],[-4.2948618,55.8690979]]}},{"type":"Feature","properties":{"kind":"leg","from":"kelvinhall","to":"unitower","meters":612},"geometry":{"type":"LineString","coordinates":[[-4.2948618,55.8690979],[-4.294665,55.8691664],[-4.2945093,55.8692111],[-4.2937904,55.8693872],[-4.2936455,55.8694175],[-4.2934696,55.8693499],[-4.2933567,55.8694172],[-4.2933085,55.8694447],[-4.2933299,55.8694537],[-4.2933527,55.8694672],[-4.2933728,55.8694846],[-4.2933889,55.8695004],[-4.2936968,55.8699258],[-4.2937462,55.8700671],[-4.2938106,55.8701577],[-4.2938942,55.8702497],[-4.2939713,55.8703454],[-4.2937,55.8704396],[-4.2934864,55.870604],[-4.2932608,55.870815],[-4.2931286,55.870932],[-4.292893,55.8710698],[-4.2926314,55.8711501],[-4.2922585,55.8711864],[-4.2918505,55.8712039],[-4.2915712,55.8712221],[-4.2913175,55.8712103],[-4.2910646,55.8711985],[-4.2910286,55.8711944],[-4.290756,55.8711645],[-4.2906651,55.8711546],[-4.2901226,55.8710841],[-4.2893803,55.8709844],[-4.2887311,55.8708922],[-4.2886844,55.8709905],[-4.2886581,55.8710442]]}},{"type":"Feature","properties":{"kind":"leg","from":"unitower","to":"station","meters":1643},"geometry":{"type":"LineString","coordinates":[[-4.2886581,55.8710442],[-4.2886844,55.8709905],[-4.2887311,55.8708922],[-4.2893803,55.8709844],[-4.2901226,55.8710841],[-4.2906651,55.8711546],[-4.290756,55.8711645],[-4.2910286,55.8711944],[-4.2910646,55.8711985],[-4.2913175,55.8712103],[-4.2915712,55.8712221],[-4.2918505,55.8712039],[-4.2922585,55.8711864],[-4.2926314,55.8711501],[-4.292893,55.8710698],[-4.293219,55.8711021],[-4.293309,55.8711056],[-4.2935364,55.8711145],[-4.2936996,55.8711131],[-4.2946281,55.8711219],[-4.2946349,55.871122],[-4.2946746,55.8711226],[-4.2948654,55.8711263],[-4.2953279,55.8711374],[-4.2954853,55.8711236],[-4.2956577,55.871104],[-4.296246,55.8710236],[-4.2963454,55.8710111],[-4.29701,55.8710398],[-4.2972125,55.8710475],[-4.2972323,55.8709142],[-4.2973015,55.8709177],[-4.2985722,55.8709828],[-4.2986603,55.8710124],[-4.298731,55.8710361],[-4.2993582,55.8705532],[-4.2994231,55.8705101],[-4.2995015,55.8704718],[-4.2997669,55.8705456],[-4.2998443,55.8705651],[-4.3001956,55.870652],[-4.3003016,55.8706793],[-4.3007844,55.8708049],[-4.3008883,55.8708233],[-4.3009987,55.8708385],[-4.3010969,55.8708427],[-4.3014662,55.8708409],[-4.3017895,55.87084],[-4.3021705,55.8708397],[-4.3022309,55.8708396],[-4.3022909,55.8708398],[-4.3027387,55.8708413],[-4.3041299,55.870826],[-4.3044838,55.8708219],[-4.3048669,55.8708194],[-4.3049317,55.8708183],[-4.304989,55.8708181],[-4.3052953,55.8708147],[-4.3057989,55.8708087],[-4.3067582,55.8707978],[-4.307494,55.8707894],[-4.3080875,55.8707861],[-4.3087066,55.8707825],[-4.3087558,55.8707822],[-4.3088133,55.8707816],[-4.3091013,55.8707791],[-4.309425,55.8707748],[-4.309593,55.870772],[-4.3096709,55.8707707],[-4.3097357,55.8707702],[-4.3108631,55.8707539],[-4.3108599,55.8706961],[-4.3108268,55.8700925],[-4.3105779,55.8700982],[-4.3102453,55.8701073],[-4.3102324,55.8698977],[-4.3102228,55.8697412],[-4.3097732,55.8697431]]}},{"type":"Feature","properties":{"kind":"leg","from":"station","to":"burghhall","meters":434},"geometry":{"type":"LineString","coordinates":[[-4.3097732,55.8697431],[-4.3102228,55.8697412],[-4.3102324,55.8698977],[-4.3102453,55.8701073],[-4.3105779,55.8700982],[-4.3108268,55.8700925],[-4.3108599,55.8706961],[-4.3108631,55.8707539],[-4.3097357,55.8707702],[-4.3096709,55.8707707],[-4.309593,55.870772],[-4.309425,55.8707748],[-4.3094341,55.8708278],[-4.3095695,55.8711098],[-4.3096204,55.8712068],[-4.3097503,55.871442],[-4.3092357,55.8714654],[-4.3090204,55.8714825],[-4.3083472,55.8715106]]}},{"type":"Feature","properties":{"kind":"leg","from":"burghhall","to":"byres","meters":1033},"geometry":{"type":"LineString","coordinates":[[-4.3083472,55.8715106],[-4.307576,55.8715308],[-4.3075412,55.8712287],[-4.3075382,55.8711974],[-4.3075004,55.8708484],[-4.307494,55.8707894],[-4.3067582,55.8707978],[-4.3057989,55.8708087],[-4.3052953,55.8708147],[-4.304989,55.8708181],[-4.3049317,55.8708183],[-4.3048669,55.8708194],[-4.3044838,55.8708219],[-4.3041299,55.870826],[-4.3027387,55.8708413],[-4.3022909,55.8708398],[-4.3022309,55.8708396],[-4.3021705,55.8708397],[-4.3017895,55.87084],[-4.3014662,55.8708409],[-4.3010969,55.8708427],[-4.3009987,55.8708385],[-4.3008883,55.8708233],[-4.3007844,55.8708049],[-4.3003016,55.8706793],[-4.3001956,55.870652],[-4.2998443,55.8705651],[-4.2997669,55.8705456],[-4.2995015,55.8704718],[-4.2994231,55.8705101],[-4.2993582,55.8705532],[-4.298731,55.8710361],[-4.2985829,55.8711569],[-4.2983698,55.8713307],[-4.2979518,55.871659],[-4.29748,55.8720204],[-4.2973376,55.8721363],[-4.2972481,55.872207],[-4.2971409,55.8722923],[-4.297012,55.8723904],[-4.2969666,55.872425],[-4.2967315,55.872604],[-4.2965767,55.8727218],[-4.2965245,55.8727615],[-4.2964386,55.8728354],[-4.2958403,55.8733504]]}}]}