{"type":"FeatureCollection","features":[{"type":"Feature","id":900001,"properties":{"kind":"slab","stop":"botanic","level":0,"osmId":"way/43059928","name":"基座","note":"锻铁环梁落在矮石基座上，整座壳子的重量全压在这一圈。","base":0,"top":2},"geometry":{"type":"Polygon","coordinates":[[[-4.289064805666856,55.879008874961094],[-4.2890704085624405,55.87900897683192],[-4.289070001079125,55.8790050038696],[-4.289064092571054,55.87900510574043],[-4.289063175733594,55.87899196440351],[-4.289068982370837,55.87899196440351],[-4.289068982370837,55.878988398924506],[-4.289062870121108,55.878988398924506],[-4.289062360766964,55.87897617442504],[-4.289068269275035,55.87897617442504],[-4.289068167404206,55.87897209959189],[-4.289061647671162,55.87897199772107],[-4.28906093457536,55.87895844890083],[-4.289066435600117,55.878958550771664],[-4.28906623185846,55.878954781550995],[-4.289060119608731,55.87895498529265],[-4.289059100900443,55.87894225143905],[-4.289065213150171,55.87894225143905],[-4.289065111279342,55.87893909344336],[-4.289058387804641,55.87893929718502],[-4.289057776579668,55.87892513713982],[-4.289062666379451,55.878925239010634],[-4.289062666379451,55.8789215716608],[-4.2890568597422085,55.87892136791915],[-4.2890560447755774,55.87890639290731],[-4.28906185141282,55.87890618916565],[-4.289061953283649,55.878902827428305],[-4.289054516713145,55.87890262368664],[-4.289054211100659,55.87888601874155],[-4.2891004604569405,55.87888591687072],[-4.289093023886437,55.87881297735729],[-4.289046876400985,55.87881358858226],[-4.28904565395104,55.878794131253954],[-4.2890518680715966,55.878794233124786],[-4.289051969942426,55.878789445195835],[-4.289044940855238,55.87878964893749],[-4.2890440240177785,55.878774470184],[-4.289049830655021,55.87877457205483],[-4.2890497287841916,55.87877049722167],[-4.289043718405292,55.87877049722167],[-4.289042903438661,55.878757559626415],[-4.289048200721759,55.878757559626415],[-4.289047793238444,55.878753688534914],[-4.289041680988715,55.8787535866641],[-4.289041375376229,55.87874024158552],[-4.289046672659326,55.87874013971469],[-4.289046672659326,55.87873555552739],[-4.289040866022084,55.87873545365657],[-4.289039847313797,55.878724044123736],[-4.289045755821868,55.878724044123736],[-4.289045755821868,55.87872047864473],[-4.289039439830482,55.878720580515555],[-4.28903872673468,55.878706216728695],[-4.289044431501093,55.87870631859953],[-4.289044227759436,55.878702141895545],[-4.289038115509707,55.87870224376638],[-4.289036689318103,55.8786903248794],[-4.289042903438661,55.8786903248794],[-4.289042699697004,55.878686351917075],[-4.2890360780931305,55.878686351917075],[-4.289034346289041,55.87867484051342],[-4.289039439830482,55.87867433115928],[-4.289038217380536,55.87867137690524],[-4.289032818226608,55.87867178438856],[-4.2890275209435105,55.87866465343054],[-4.289019575018862,55.87865833743915],[-4.289023751722844,55.87865640189341],[-4.289020186243835,55.87865365138103],[-4.289015907669026,55.87865579066844],[-4.289008369227694,55.87865202144777],[-4.289001238269677,55.87864978028953],[-4.2890039887820555,55.87864723351881],[-4.288999506465587,55.878645603585554],[-4.288996450340723,55.87864794661461],[-4.288987180095301,55.87864550171472],[-4.288978113591537,55.878644584877264],[-4.288978113591537,55.87864173249405],[-4.28897179760015,55.878641834364885],[-4.288972205083465,55.87864468674809],[-4.288954785171739,55.87864468674809],[-4.288954275817595,55.8786422418482],[-4.288948571051181,55.8786422418482],[-4.288949284146983,55.87864509423141],[-4.28893919893493,55.87864723351881],[-4.288931354881112,55.878650798997825],[-4.288928502497906,55.8786482522271],[-4.288924733277239,55.87864998403119],[-4.288927280047959,55.87865232706025],[-4.2889189266399965,55.87865630002258],[-4.288912203165295,55.878660069243246],[-4.28890843394463,55.8786588467933],[-4.2889053778197646,55.87866210665982],[-4.288909860136232,55.878663430980595],[-4.2889053778197646,55.8786677095554],[-4.288902321694901,55.878673006838504],[-4.288896718799315,55.87867290496767],[-4.288896209445172,55.87867647044668],[-4.288901608599099,55.87867677605917],[-4.28890150672827,55.87869368661675],[-4.288895190736884,55.87869378848758],[-4.288895190736884,55.87869786332073],[-4.288901608599099,55.87869755770824],[-4.288902321694901,55.87871090278682],[-4.2888968206701445,55.87871110652848],[-4.288896718799315,55.878715385103284],[-4.288902627307388,55.878715486974116],[-4.28890405349899,55.878727405861085],[-4.288897839378433,55.878727405861085],[-4.288898246861748,55.87873158256507],[-4.288904562853134,55.87873137882341],[-4.288905581561423,55.878744927643645],[-4.288899774924181,55.878744927643645],[-4.288899978665838,55.87874910434763],[-4.2889060909155665,55.878749002476795],[-4.288906396528053,55.87876051388045],[-4.288901608599099,55.87876051388045],[-4.28890150672827,55.87876469058443],[-4.288907313365512,55.87876489432609],[-4.288907822719657,55.87878109178787],[-4.288898246861748,55.878781193658696],[-4.28888867100384,55.87878211049616],[-4.2888882635205245,55.87877915624212],[-4.288882049399968,55.878779563725445],[-4.28888266062494,55.87878292546279],[-4.288873492250347,55.87878414791273],[-4.288866157550673,55.878785675975166],[-4.2888632032966365,55.87878302733362],[-4.288856174209449,55.87878516662103],[-4.288859230334313,55.87878801900423],[-4.28885006195972,55.87879087138744],[-4.288842625389217,55.87879402938313],[-4.288837837460263,55.87879097325826],[-4.288832438306335,55.878793214416504],[-4.288836207527002,55.87879596492888],[-4.2888261223149495,55.878800345374515],[-4.288817667036158,55.878805846399274],[-4.288812879107204,55.8788038089827],[-4.288808396790736,55.87880686510756],[-4.2888132865905195,55.878808902524135],[-4.2888053406658715,55.87881450541972],[-4.288799126545315,55.87882102515277],[-4.288624927428046,55.878824896244254],[-4.2886203432407495,55.87881206051983],[-4.288607100033004,55.87878954706667],[-4.2885831603882325,55.8787624494262],[-4.288588253929673,55.87876071762211],[-4.288584382838178,55.87875766149725],[-4.288579085555081,55.878759698913825],[-4.288565740476506,55.87874757628519],[-4.2885703246638025,55.87874574261027],[-4.2885660460889925,55.87874258461458],[-4.288561563772524,55.87874441828949],[-4.2885539234603645,55.878738102298115],[-4.288545570052401,55.87873280501501],[-4.288550154239697,55.878730767598434],[-4.2885452644399145,55.87872760960275],[-4.288540782123446,55.87872974889015],[-4.2885317156196825,55.87872414599457],[-4.288522649115919,55.87871945993644],[-4.2885268258199,55.87871701503655],[-4.28852254724509,55.87871497761997],[-4.288518472411937,55.87871701503655],[-4.288508896554029,55.8787112083993],[-4.288497894504517,55.87870642047035],[-4.2885023768209845,55.87870336434549],[-4.288496875796229,55.87870112318725],[-4.288492087867275,55.878703873699635],[-4.288479965238646,55.878698270804044],[-4.2884717137015125,55.87869501093753],[-4.288475177309692,55.878691751071],[-4.2884695744141075,55.878689815525256],[-4.288466212676756,55.87869297352095],[-4.28844706096094,55.87868523133796],[-4.288412628620802,55.87867524799673],[-4.288384002917905,55.87866893200535],[-4.288359961402306,55.87866516278468],[-4.288359961402306,55.87866088420987],[-4.288354358506721,55.87866078233904],[-4.288354154765064,55.878664042205564],[-4.288348653740308,55.878663430980595],[-4.288349774319424,55.878617487236795],[-4.288198598009467,55.878614431111934],[-4.288196560592891,55.878659356147445],[-4.28815978522369,55.87866312536811],[-4.28812637159184,55.87866984884281],[-4.288100496401322,55.87867585922171],[-4.288077982948154,55.87868268456724],[-4.288048236666141,55.87869297352095],[-4.288022157733965,55.87870407744129],[-4.2880001536349415,55.878715181361635],[-4.287974380315252,55.87873005450264],[-4.287957062274354,55.878742788356234],[-4.287950950024626,55.87874024158552],[-4.287945448999869,55.87874462203116],[-4.287952681828715,55.87874757628519],[-4.287942087262519,55.878755827822324],[-4.287935363787818,55.87876194007205],[-4.287928945925603,55.87875949517216],[-4.287924361738306,55.87876306065117],[-4.287931085213008,55.87876570929272],[-4.287924463609135,55.87877202528411],[-4.287919879421838,55.878778137533835],[-4.287914174655424,55.87877650760058],[-4.287910609176416,55.878780480562895],[-4.28791712890946,55.87878200862533],[-4.287911526013875,55.878788426487546],[-4.2879073493098945,55.87879514996225],[-4.287900523964364,55.878794131253954],[-4.287898180935301,55.87879912292457],[-4.287904293185029,55.878800039762034],[-4.2879002183518775,55.87880706884921],[-4.287896958485356,55.87881379232392],[-4.28789135558977,55.87881328296977],[-4.287889318173194,55.87881684844878],[-4.28789573603541,55.87881756154459],[-4.287892068685572,55.87882448876094],[-4.287889623785682,55.878831517848134],[-4.28788361340678,55.878831110364814],[-4.2878831040526375,55.87883498145631],[-4.28788891068988,55.8788352870688],[-4.287886771402474,55.87884160306019],[-4.287885548952528,55.87884781718074],[-4.287879946056943,55.87884771530992],[-4.287879742315286,55.87885229949721],[-4.287885345210871,55.878852095755555],[-4.287884122760925,55.87886106038849],[-4.287884632115069,55.87887012689225],[-4.287885752694186,55.87888876925392],[-4.287890438752311,55.87890730974477],[-4.287884122760925,55.87890792096974],[-4.287884835856726,55.87891219954456],[-4.287892068685572,55.87891169019041],[-4.287894717327122,55.87891841366511],[-4.287897467839499,55.8789247296565],[-4.287890846235626,55.878925239010634],[-4.287892170556401,55.87892931384379],[-4.287899199643589,55.87892870261882],[-4.287902663251769,55.87893532422269],[-4.287907247439065,55.87894153834325],[-4.287901440801823,55.87894245518071],[-4.2879034782184,55.8789463262722],[-4.287909081113984,55.87894530756392],[-4.287913359688794,55.878951827296966],[-4.287918351359405,55.878958143288344],[-4.28791285033465,55.87895916199663],[-4.2879159064595145,55.87896242186315],[-4.287921203742613,55.878960995671555],[-4.287925482317422,55.878966802308796],[-4.287930983342179,55.87897199772107],[-4.287925482317422,55.87897332204184],[-4.287929047796431,55.87897719313334],[-4.287934854433673,55.878975665070904],[-4.28794117042506,55.878981471708144],[-4.287948199512248,55.87898717647455],[-4.287942189133348,55.87898901014948],[-4.287945958354014,55.87899206627434],[-4.28795145937877,55.878990028857764],[-4.287958590336787,55.87899573362418],[-4.287966434390604,55.87900062342396],[-4.287960627753362,55.879002660840534],[-4.287965313811489,55.87900581883623],[-4.287971120448731,55.879003577678],[-4.287978557019234,55.879009282444414],[-4.287986095460565,55.879013968502534],[-4.287980696306638,55.87901620966077],[-4.287985586106422,55.87901936765647],[-4.287990781518691,55.87901661714408],[-4.287998727443338,55.87902130320221],[-4.288006775238814,55.879025378035365],[-4.28800198730986,55.87902802667691],[-4.288006978980472,55.87903057344763],[-4.288011868780256,55.87902792480608],[-4.2880209352840195,55.87903301834752],[-4.288031733591874,55.879036889439014],[-4.288026640050433,55.879039741822226],[-4.288031326108558,55.87904157549715],[-4.288036012166684,55.87903882498477],[-4.288045689895421,55.87904340917206],[-4.288055775107473,55.87904677090941],[-4.288051700274321,55.87904982703427],[-4.288057506911563,55.87905196632168],[-4.288061479873886,55.87904891019682],[-4.288071972569254,55.87905257754666],[-4.2880830764895945,55.87905573554235],[-4.28808002036473,55.879058995408876],[-4.288086845710261,55.879060930954616],[-4.288089901835125,55.87905787482975],[-4.288101005755466,55.879061236567104],[-4.28811353586741,55.879063987079476],[-4.288110581613374,55.87906734881683],[-4.288117814442219,55.87906897875009],[-4.288120157471282,55.879065820754406],[-4.288129937070848,55.879068163783465],[-4.288139309187099,55.879069895587556],[-4.288137271770522,55.87907315545408],[-4.288145828920142,55.87907447977485],[-4.288147356982575,55.879071525520814],[-4.2881594796112035,55.87907376667905],[-4.288170685402373,55.879074581645675],[-4.288169361081598,55.879078350866344],[-4.28817700139376,55.879079063962145],[-4.288177918231218,55.87907560035397],[-4.2881923838889096,55.87907753589972],[-4.288206238321628,55.879078452737176],[-4.2882059327091415,55.879082120087006],[-4.288213267408816,55.8790824256995],[-4.2882137767629604,55.879079063962145],[-4.288227936808165,55.879079777057946],[-4.288242606207514,55.87907987892878],[-4.288242809949172,55.87908344440778],[-4.288249940907189,55.879083546278615],[-4.288250144648846,55.879079777057946],[-4.288278974093401,55.879079777057946],[-4.288279177835058,55.87908375002027],[-4.288286308793075,55.879083546278615],[-4.288286308793075,55.87907967518712],[-4.28829965387165,55.87907947144546],[-4.28831157275862,55.879078554608],[-4.288312998950223,55.87908222195784],[-4.288319518683267,55.879081916345356],[-4.288318601845808,55.87907804525386],[-4.288332761891013,55.879076720933085],[-4.2883452920029566,55.87907478538734],[-4.288347329419533,55.879078350866344],[-4.288352932315118,55.879077332158055],[-4.288351098640199,55.87907386854988],[-4.288376871959888,55.87907020120004],[-4.288379113118122,55.87907305358325],[-4.288385530980337,55.87907162739164],[-4.28838278046796,55.87906857126678],[-4.288404886437812,55.87906429269197],[-4.288407738821019,55.87906755255849],[-4.288412934233288,55.87906612636689],[-4.288410285591739,55.879063070242026],[-4.288436364523915,55.87905573554235],[-4.28843931877795,55.879058893538044],[-4.288444310448562,55.87905705986312],[-4.288441356194526,55.879054105609086],[-4.2884617303602885,55.87904677090941],[-4.288465295839297,55.879049725163455],[-4.288470389380738,55.87904738213438],[-4.28846682390173,55.87904473349284],[-4.288489744838212,55.87903546324742],[-4.288494023413022,55.87903831563062],[-4.288497894504517,55.87903638008488],[-4.288493514058878,55.87903373144332],[-4.288504719850048,55.87902894351437],[-4.288515008803757,55.879023646231275],[-4.288518574282766,55.8790258873895],[-4.2885231584700625,55.879023646231275],[-4.288518981766082,55.87902109946055],[-4.2885288632364755,55.879016107789944],[-4.288537420386096,55.879010606765185],[-4.288541800831735,55.879012644181756],[-4.288545570052401,55.879009995540216],[-4.288541087735933,55.87900816186529],[-4.288558405776832,55.87899614110749],[-4.28856451802656,55.87899838226572],[-4.288567472280596,55.87899583549501],[-4.288562174997497,55.87899379807843],[-4.288576640655188,55.878980860483175],[-4.288582854775746,55.8789831016414],[-4.288584994063151,55.878980147387374],[-4.288579900521711,55.878978823066596],[-4.288592736246141,55.87896537611719],[-4.288598644754212,55.87896670043797],[-4.288601089654104,55.87896344057145],[-4.288595588629347,55.87896242186315],[-4.288603534553995,55.878952438521935],[-4.2886139253785345,55.87893919531419],[-4.2886217694323525,55.878925035268985],[-4.288626862973794,55.87891077335295],[-4.288630937806945,55.878896613307745],[-4.288803303249296,55.87889325157039],[-4.2888174632945,55.878904151749076],[-4.288812980978033,55.87890649477814],[-4.288818074519473,55.87890904154886],[-4.2888234736734,55.878906800390624],[-4.2888295859231285,55.87891169019041],[-4.288839467393524,55.878915357540244],[-4.288836207527002,55.87891810805262],[-4.288842727260045,55.8789201454692],[-4.288846190868226,55.87891719121516],[-4.288857396659394,55.87892177540246],[-4.288869926771338,55.878924627785665],[-4.288867278129789,55.87892778578136],[-4.288874612829464,55.87892890636048],[-4.2888767521168685,55.8789261558481],[-4.288888161649696,55.87892798952302],[-4.288900080536667,55.8789290082313],[-4.288900080536667,55.878932573710316],[-4.288907415236341,55.87893236996866],[-4.288907313365512,55.87892890636048],[-4.288922797731492,55.87892849887716],[-4.288923510827293,55.87894225143905],[-4.288917194835907,55.87894245518071],[-4.288917194835907,55.87894653001386],[-4.288923816439779,55.87894642814303],[-4.288924223923095,55.878959263867465],[-4.2889182135441954,55.87895936573829],[-4.288918519156682,55.878963644313096],[-4.288924835148068,55.87896354244228],[-4.288925751985527,55.87897597068339],[-4.2889204547024296,55.87897597068339],[-4.288920760314916,55.87897984177488],[-4.288925853856356,55.87897984177488],[-4.2889263632105,55.87899145504937],[-4.288920964056573,55.87899145504937],[-4.288921167798231,55.87899603923666],[-4.288927789402104,55.87899603923666],[-4.288927891272933,55.87900877309027],[-4.28892300147315,55.87900877309027],[-4.288923205214807,55.87901284792342],[-4.2889290118520496,55.87901284792342],[-4.288930132431167,55.87901977513978],[-4.28893329042686,55.87902486868122],[-4.288927789402104,55.87902649861448],[-4.288930845526967,55.87902935099768],[-4.288935939068409,55.87902782293526],[-4.288941949447309,55.87903352770167],[-4.288948163567866,55.87903739879316],[-4.288944190605542,55.87903994556388],[-4.2889489785344965,55.87904228859295],[-4.288953053367649,55.87904014930554],[-4.288960591808981,55.879043816655376],[-4.288969862054403,55.87904666903858],[-4.2889689452169435,55.87904911393847],[-4.288975770562474,55.87905013264677],[-4.288976279916619,55.87904799335936],[-4.288985957645355,55.8790492158093],[-4.288997876532327,55.8790492158093],[-4.288997978403155,55.879052373804996],[-4.289004600007028,55.879052373804996],[-4.289004498136199,55.87904911393847],[-4.289013157156647,55.87904860458433],[-4.289019880631349,55.879046567167755],[-4.289022936756214,55.87904982703427],[-4.289028335910141,55.87904860458433],[-4.289025789139421,55.879045446588634],[-4.289038217380536,55.879041371755484],[-4.289046265176013,55.87903811188896],[-4.28905074749248,55.8790403530472],[-4.289054618583974,55.879038010018135],[-4.289050340009164,55.87903587073073],[-4.289056554129722,55.87903108280178],[-4.2890604252212166,55.879025581777015],[-4.289065722504315,55.87902619300199],[-4.2890669449542616,55.87902313687712],[-4.289062157025306,55.879022525652154],[-4.289065111279342,55.879016820885745],[-4.289064805666856,55.879008874961094]]]}},{"type":"Feature","properties":{"kind":"label","stop":"botanic","level":0,"name":"基座","top":2},"geometry":{"type":"Point","coordinates":[-4.288490101386113,55.878849090566106]}},{"type":"Feature","id":900002,"properties":{"kind":"slab","stop":"botanic","level":1,"osmId":"way/43059928","name":"地面 · 树蕨","note":"澳洲与新西兰树蕨，最老的几株比这座温室搬来得还早。","base":2.9,"top":8.6},"geometry":{"type":"Polygon","coordinates":[[[-4.288992656051363,55.879037413683726],[-4.288998258946948,55.87903751555455],[-4.288997851463632,55.87903354259223],[-4.288991942955561,55.879033644463064],[-4.288991026118102,55.87902050312614],[-4.288996832755344,55.87902050312614],[-4.288996832755344,55.87901693764714],[-4.288990720505615,55.87901693764714],[-4.2889902111514715,55.87900471314767],[-4.288996119659542,55.87900471314767],[-4.288996017788714,55.87900063831452],[-4.2889894980556695,55.8790005364437],[-4.288988784959868,55.87898698762346],[-4.288994285984624,55.878987089494295],[-4.288994082242967,55.878983320273626],[-4.288987969993238,55.87898352401528],[-4.28898695128495,55.87897079016168],[-4.2889930635346785,55.87897079016168],[-4.288992961663849,55.87896763216599],[-4.288986238189148,55.87896783590765],[-4.288985626964175,55.87895367586245],[-4.288990516763958,55.878953777733265],[-4.288990516763958,55.87895011038343],[-4.288984710126716,55.87894990664178],[-4.288983895160085,55.87893493162994],[-4.288989701797327,55.87893472788828],[-4.288989803668156,55.87893136615094],[-4.288982367097653,55.87893116240927],[-4.288982061485166,55.87891455746418],[-4.289028310841448,55.87891445559335],[-4.289020874270944,55.87884151607992],[-4.288974726785492,55.87884212730489],[-4.288973504335547,55.878822669976586],[-4.288979718456104,55.87882277184742],[-4.288979820326933,55.878817983918466],[-4.288972791239745,55.87881818766012],[-4.288971874402286,55.87880300890663],[-4.288977681039528,55.87880311077746],[-4.288977579168699,55.878799035944304],[-4.288971568789799,55.878799035944304],[-4.288970753823168,55.878786098349046],[-4.288976051106267,55.878786098349046],[-4.288975643622951,55.878782227257545],[-4.288969531373223,55.87878212538673],[-4.288969225760736,55.87876878030815],[-4.288974523043834,55.87876867843732],[-4.288974523043834,55.87876409425002],[-4.2889687164065915,55.8787639923792],[-4.288967697698304,55.87875258284637],[-4.288973606206375,55.87875258284637],[-4.288973606206375,55.87874901736736],[-4.288967290214989,55.878749119238186],[-4.288966577119187,55.878734755451326],[-4.2889722818856,55.87873485732216],[-4.288972078143943,55.878730680618176],[-4.2889659658942145,55.87873078248901],[-4.288964539702611,55.87871886360203],[-4.288970753823168,55.87871886360203],[-4.288970550081511,55.878714890639706],[-4.288963928477638,55.878714890639706],[-4.288962196673548,55.87870337923605],[-4.288967290214989,55.87870286988191],[-4.288966067765044,55.87869991562787],[-4.288960668611115,55.87870032311119],[-4.288955371328018,55.87869319215317],[-4.28894742540337,55.87868687616178],[-4.2889516021073515,55.87868494061604],[-4.288948036628343,55.87868219010366],[-4.2889437580535335,55.87868432939107],[-4.288936219612201,55.8786805601704],[-4.288929088654184,55.87867831901216],[-4.288931839166563,55.878675772241444],[-4.2889273568500945,55.878674142308185],[-4.28892430072523,55.878676485337245],[-4.288915030479808,55.87867404043735],[-4.2889059639760445,55.878673123599896],[-4.2889059639760445,55.878670271216684],[-4.288899647984657,55.878670373087516],[-4.288900055467972,55.87867322547072],[-4.288882635556246,55.87867322547072],[-4.288882126202102,55.87867078057083],[-4.288876421435688,55.87867078057083],[-4.28887713453149,55.87867363295404],[-4.288867049319437,55.878675772241444],[-4.288859205265619,55.878679337720456],[-4.288856352882413,55.87867679094973],[-4.288852583661746,55.87867852275382],[-4.2888551304324665,55.87868086578288],[-4.288846777024504,55.87868483874521],[-4.288840053549802,55.87868860796588],[-4.288836284329137,55.87868738551593],[-4.288833228204272,55.87869064538245],[-4.288837710520739,55.878691969703226],[-4.288833228204272,55.87869624827803],[-4.288830172079408,55.878701545561135],[-4.288824569183823,55.878701443690304],[-4.288824059829679,55.87870500916931],[-4.2888294589836065,55.878705314781804],[-4.288829357112777,55.87872222533938],[-4.2888230411213915,55.87872232721021],[-4.2888230411213915,55.87872640204336],[-4.2888294589836065,55.878726096430874],[-4.288830172079408,55.87873944150945],[-4.288824671054652,55.87873964525111],[-4.288824569183823,55.878743923825915],[-4.288830477691895,55.87874402569675],[-4.288831903883497,55.878755944583716],[-4.28882568976294,55.878755944583716],[-4.288826097246255,55.8787601212877],[-4.288832413237642,55.87875991754604],[-4.28883343194593,55.878773466366276],[-4.288827625308688,55.878773466366276],[-4.288827829050345,55.87877764307026],[-4.288833941300074,55.878777541199426],[-4.28883424691256,55.87878905260308],[-4.2888294589836065,55.87878905260308],[-4.288829357112777,55.878793229307064],[-4.2888351637500195,55.87879343304872],[-4.288835673104164,55.8788096305105],[-4.288826097246255,55.87880973238133],[-4.288816521388347,55.87881064921879],[-4.288816113905032,55.87880769496475],[-4.288809899784475,55.878808102448076],[-4.288810511009447,55.87881146418542],[-4.288801342634854,55.878812686635364],[-4.28879400793518,55.8788142146978],[-4.288791053681144,55.87881156605625],[-4.288784024593956,55.87881370534366],[-4.28878708071882,55.878816557726864],[-4.288777912344227,55.87881941011007],[-4.288770475773724,55.87882256810576],[-4.28876568784477,55.87881951198089],[-4.288760288690843,55.878821753139135],[-4.288764057911509,55.87882450365151],[-4.288753972699457,55.878828884097146],[-4.288745517420665,55.878834385121905],[-4.288740729491711,55.878832347705334],[-4.288736247175243,55.878835403830195],[-4.288741136975027,55.878837441246766],[-4.288733191050379,55.87884304414235],[-4.288726976929822,55.8788495638754],[-4.288552777812553,55.878853434966885],[-4.288548193625257,55.87884059924246],[-4.288534950417511,55.8788180857893],[-4.28851101077274,55.87879098814883],[-4.28851610431418,55.87878925634474],[-4.2885122332226855,55.87878620021988],[-4.288506935939588,55.878788237636456],[-4.288493590861013,55.878776115007824],[-4.28849817504831,55.8787742813329],[-4.2884938964735,55.87877112333721],[-4.2884894141570316,55.878772957012124],[-4.288481773844872,55.878766641020746],[-4.288473420436908,55.878761343737644],[-4.288478004624205,55.878759306321065],[-4.288473114824422,55.87875614832538],[-4.2884686325079535,55.87875828761278],[-4.28845956600419,55.8787526847172],[-4.288450499500426,55.87874799865907],[-4.288454676204407,55.87874555375918],[-4.288450397629597,55.8787435163426],[-4.288446322796444,55.87874555375918],[-4.288436746938536,55.878739747121934],[-4.288425744889024,55.87873495919298],[-4.288430227205492,55.87873190306812],[-4.288424726180736,55.87872966190988],[-4.288419938251782,55.878732412422266],[-4.288407815623153,55.878726809526675],[-4.28839956408602,55.87872354966016],[-4.2884030276942,55.878720289793634],[-4.288397424798615,55.87871835424789],[-4.288394063061263,55.87872151224358],[-4.288374911345447,55.87871377006059],[-4.288340479005309,55.87870378671936],[-4.288311853302412,55.87869747072798],[-4.288287811786813,55.87869370150731],[-4.288287811786813,55.8786894229325],[-4.2882822088912285,55.87868932106167],[-4.288282005149571,55.878692580928195],[-4.288276504124815,55.878691969703226],[-4.288277624703931,55.878646025959426],[-4.2881264483939745,55.878642969834566],[-4.288124410977399,55.878687894870076],[-4.288087635608197,55.87869166409074],[-4.288054221976347,55.87869838756544],[-4.288028346785829,55.87870439794434],[-4.288005833332662,55.87871122328987],[-4.287976087050648,55.87872151224358],[-4.2879500081184725,55.87873261616392],[-4.287928004019449,55.878743720084266],[-4.28790223069976,55.87875859322527],[-4.287884912658861,55.878771327078866],[-4.287878800409133,55.87876878030815],[-4.287873299384376,55.87877316075379],[-4.287880532213222,55.878776115007824],[-4.287869937647026,55.878784366544956],[-4.287863214172325,55.878790478794684],[-4.28785679631011,55.87878803389479],[-4.2878522121228135,55.8787915993738],[-4.287858935597515,55.87879424801535],[-4.287852313993643,55.87880056400674],[-4.287847729806345,55.87880667625647],[-4.287842025039931,55.87880504632321],[-4.287838459560923,55.87880901928553],[-4.2878449792939675,55.87881054734796],[-4.287839376398383,55.87881696521018],[-4.287835199694402,55.87882368868488],[-4.287828374348871,55.878822669976586],[-4.287826031319808,55.8788276616472],[-4.287832143569537,55.878828578484665],[-4.287828068736385,55.878835607571844],[-4.287824808869863,55.87884233104655],[-4.2878192059742775,55.878841821692404],[-4.287817168557702,55.87884538717141],[-4.2878235864199175,55.87884610026722],[-4.287819919070079,55.87885302748357],[-4.287817474170189,55.878860056570765],[-4.287811463791288,55.878859649087445],[-4.287810954437145,55.87886352017894],[-4.287816761074387,55.878863825791434],[-4.287814621786981,55.87887014178282],[-4.287813399337035,55.87887635590337],[-4.2878077964414505,55.87887625403255],[-4.287807592699793,55.87888083821984],[-4.287813195595378,55.878880634478186],[-4.287811973145432,55.87888959911112],[-4.287812482499576,55.878898665614884],[-4.2878136030786935,55.87891730797655],[-4.287818289136818,55.8789358484674],[-4.287811973145432,55.87893645969237],[-4.287812686241233,55.87894073826719],[-4.287819919070079,55.87894022891304],[-4.287822567711629,55.87894695238774],[-4.287825318224006,55.87895326837913],[-4.287818696620134,55.878953777733265],[-4.2878200209409085,55.87895785256642],[-4.287827050028096,55.87895724134145],[-4.287830513636276,55.87896386294532],[-4.287835097823573,55.87897007706588],[-4.2878292911863305,55.878970993903344],[-4.287831328602907,55.87897486499483],[-4.287836931498491,55.87897384628655],[-4.287841210073301,55.8789803660196],[-4.287846201743912,55.878986682010975],[-4.2878407007191575,55.878987700719264],[-4.287843756844022,55.87899096058578],[-4.28784905412712,55.87898953439419],[-4.287853332701929,55.87899534103143],[-4.287858833726686,55.8790005364437],[-4.287853332701929,55.87900186076447],[-4.287856898180938,55.87900573185597],[-4.28786270481818,55.879004203793535],[-4.287869020809567,55.879010010430775],[-4.287876049896755,55.879015715197184],[-4.2878700395178555,55.87901754887211],[-4.287873808738521,55.879020604996974],[-4.2878793097632775,55.879018567580395],[-4.287886440721294,55.87902427234681],[-4.287894284775112,55.879029162146594],[-4.287888478137869,55.879031199563165],[-4.287893164195996,55.87903435755886],[-4.287898970833238,55.87903211640063],[-4.287906407403741,55.879037821167046],[-4.287913945845072,55.879042507225165],[-4.2879085466911455,55.8790447483834],[-4.287913436490929,55.8790479063791],[-4.2879186319031986,55.87904515586671],[-4.287926577827846,55.87904984192484],[-4.287934625623321,55.879053916758],[-4.287929837694367,55.879056565399544],[-4.287934829364979,55.87905911217026],[-4.287939719164763,55.87905646352871],[-4.287948785668527,55.87906155707015],[-4.287959583976381,55.879065428161645],[-4.287954490434941,55.87906828054486],[-4.287959176493065,55.87907011421978],[-4.287963862551191,55.8790673637074],[-4.287973540279928,55.879071947894694],[-4.2879836254919805,55.87907530963204],[-4.287979550658828,55.879078365756904],[-4.28798535729607,55.879080505044314],[-4.287989330258394,55.87907744891945],[-4.287999822953761,55.87908111626929],[-4.288010926874102,55.87908427426498],[-4.2880078707492375,55.87908753413151],[-4.288014696094768,55.87908946967725],[-4.288017752219632,55.87908641355238],[-4.288028856139973,55.879089775289735],[-4.288041386251917,55.87909252580211],[-4.288038431997881,55.879095887539464],[-4.2880456648267264,55.87909751747272],[-4.28804800785579,55.87909435947704],[-4.288057787455355,55.8790967025061],[-4.2880671595716064,55.87909843431019],[-4.28806512215503,55.87910169417671],[-4.28807367930465,55.87910301849748],[-4.288075207367083,55.879100064243445],[-4.288087329995711,55.87910230540168],[-4.28809853578688,55.879103120368306],[-4.288097211466106,55.879106889588975],[-4.288104851778267,55.879107602684776],[-4.288105768615726,55.8791041390766],[-4.288120234273417,55.87910607462235],[-4.288134088706135,55.87910699145981],[-4.288133783093649,55.87911065880964],[-4.288141117793323,55.87911096442213],[-4.288141627147468,55.879107602684776],[-4.2881557871926725,55.87910831578058],[-4.288170456592021,55.87910841765141],[-4.288170660333679,55.879111983130414],[-4.288177791291696,55.879112085001246],[-4.288177995033354,55.87910831578058],[-4.288206824477908,55.87910831578058],[-4.288207028219565,55.8791122887429],[-4.288214159177582,55.879112085001246],[-4.288214159177582,55.87910821390975],[-4.288227504256157,55.87910801016809],[-4.288239423143128,55.87910709333063],[-4.288240849334731,55.87911076068047],[-4.288247369067775,55.87911045506799],[-4.288246452230315,55.879106583976494],[-4.28826061227552,55.87910525965572],[-4.288273142387464,55.87910332410997],[-4.288275179804041,55.879106889588975],[-4.288280782699625,55.879105870880686],[-4.288278949024706,55.87910240727251],[-4.288304722344395,55.87909873992267],[-4.288306963502629,55.87910159230588],[-4.288313381364844,55.87910016611427],[-4.288310630852467,55.87909710998941],[-4.288332736822319,55.8790928314146],[-4.288335589205526,55.87909609128112],[-4.288340784617795,55.87909466508952],[-4.288338135976247,55.87909160896466],[-4.288364214908422,55.87908427426498],[-4.288367169162457,55.879087432260675],[-4.288372160833069,55.87908559858575],[-4.288369206579033,55.87908264433172],[-4.288389580744796,55.87907530963204],[-4.288393146223804,55.879078263886086],[-4.288398239765245,55.87907592085701],[-4.288394674286237,55.87907327221547],[-4.288417595222719,55.87906400197005],[-4.288421873797529,55.879066854353255],[-4.288425744889024,55.87906491880751],[-4.288421364443385,55.87906227016595],[-4.288432570234555,55.879057482237],[-4.288442859188264,55.879052184953906],[-4.288446424667273,55.879054426112134],[-4.28845100885457,55.879052184953906],[-4.288446832150589,55.87904963818318],[-4.288456713620983,55.879044646512575],[-4.288465270770604,55.879039145487816],[-4.288469651216242,55.87904118290439],[-4.288473420436908,55.87903853426285],[-4.28846893812044,55.879036700587925],[-4.288486256161339,55.879024679830124],[-4.288492368411068,55.87902692098835],[-4.288495322665104,55.87902437421764],[-4.288490025382004,55.879022336801064],[-4.288504491039696,55.879009399205806],[-4.288510705160253,55.879011640364034],[-4.288512844447658,55.879008686110005],[-4.288507750906218,55.87900736178923],[-4.288520586630648,55.878993914839825],[-4.288526495138719,55.8789952391606],[-4.288528940038611,55.87899197929408],[-4.288523439013854,55.87899096058578],[-4.288531384938502,55.87898097724457],[-4.288541775763042,55.87896773403682],[-4.28854961981686,55.878953573991616],[-4.288554713358301,55.87893931207558],[-4.288558788191453,55.87892515203038],[-4.288731153633803,55.87892179029302],[-4.288745313679008,55.87893269047171],[-4.28874083136254,55.878935033500774],[-4.2887459249039805,55.87893758027149],[-4.288751324057907,55.878935339113255],[-4.288757436307636,55.87894022891304],[-4.288767317778031,55.878943896262875],[-4.288764057911509,55.878946646775255],[-4.288770577644552,55.87894868419183],[-4.288774041252733,55.87894572993779],[-4.288785247043902,55.87895031412509],[-4.288797777155845,55.878953166508296],[-4.2887951285142965,55.87895632450399],[-4.288802463213972,55.87895744508311],[-4.288804602501376,55.87895469457073],[-4.288816012034204,55.87895652824565],[-4.288827930921174,55.878957546953934],[-4.288827930921174,55.87896111243295],[-4.288835265620849,55.87896090869129],[-4.2888351637500195,55.87895744508311],[-4.288850648115999,55.87895703759979],[-4.2888513612118,55.87897079016168],[-4.288845045220414,55.878970993903344],[-4.288845045220414,55.878975068736494],[-4.288851666824287,55.87897496686566],[-4.288852074307602,55.878987802590096],[-4.288846063928703,55.87898790446092],[-4.288846369541189,55.87899218303573],[-4.288852685532575,55.87899208116491],[-4.288853602370034,55.87900450940602],[-4.288848305086937,55.87900450940602],[-4.288848610699423,55.87900838049751],[-4.288853704240863,55.87900838049751],[-4.288854213595007,55.879019993772005],[-4.288848814441081,55.879019993772005],[-4.288849018182738,55.87902457795929],[-4.288855639786611,55.87902457795929],[-4.28885574165744,55.8790373118129],[-4.288850851857657,55.8790373118129],[-4.288851055599315,55.87904138664605],[-4.288856862236557,55.87904138664605],[-4.288857982815674,55.87904831386241],[-4.288861140811367,55.87905340740385],[-4.288855639786611,55.87905503733711],[-4.2888586959114745,55.879057889720315],[-4.2888637894529165,55.87905636165789],[-4.288869799831816,55.879062066424304],[-4.288876013952374,55.87906593751579],[-4.288872040990049,55.87906848428651],[-4.288876828919004,55.87907082731558],[-4.2888809037521565,55.87906868802817],[-4.288888442193488,55.87907235537801],[-4.28889771243891,55.87907520776121],[-4.288896795601451,55.8790776526611],[-4.288903620946981,55.8790786713694],[-4.288904130301126,55.87907653208199],[-4.2889138080298626,55.879077754531934],[-4.288925726916834,55.879077754531934],[-4.288925828787662,55.87908091252763],[-4.288932450391536,55.87908091252763],[-4.2889323485207065,55.8790776526611],[-4.288941007541155,55.87907714330696],[-4.288947731015856,55.87907510589039],[-4.288950787140721,55.879078365756904],[-4.288956186294648,55.87907714330696],[-4.288953639523928,55.879073985311265],[-4.288966067765044,55.879069910478115],[-4.28897411556052,55.87906665061159],[-4.288978597876987,55.87906889176983],[-4.288982468968482,55.87906654874077],[-4.288978190393672,55.87906440945336],[-4.288984404514229,55.87905962152441],[-4.288988275605724,55.879054120499646],[-4.288993572888822,55.87905473172462],[-4.288994795338769,55.879051675599754],[-4.288990007409813,55.879051064374785],[-4.288992961663849,55.87904535960838],[-4.288992656051363,55.879037413683726]]]}},{"type":"Feature","properties":{"kind":"label","stop":"botanic","level":1,"name":"地面 · 树蕨","top":8.6},"geometry":{"type":"Point","coordinates":[-4.2884179517706205,55.87887762928874]}},{"type":"Feature","id":900003,"properties":{"kind":"slab","stop":"botanic","level":2,"osmId":"way/43059928","name":"雕像环廊","note":"环着中央水池一圈的维多利亚大理石像，走道贴着玻璃走。","base":11,"top":15.4},"geometry":{"type":"Polygon","coordinates":[[[-4.288920506435871,55.879065952406364],[-4.288926109331456,55.87906605427719],[-4.28892570184814,55.87906208131487],[-4.288919793340069,55.8790621831857],[-4.28891887650261,55.87904904184878],[-4.288924683139852,55.87904904184878],[-4.288924683139852,55.879045476369775],[-4.288918570890123,55.879045476369775],[-4.28891806153598,55.87903325187031],[-4.28892397004405,55.87903325187031],[-4.288923868173222,55.87902917703716],[-4.288917348440178,55.879029075166336],[-4.288916635344376,55.8790155263461],[-4.288922136369132,55.87901562821693],[-4.288921932627475,55.879011858996265],[-4.288915820377746,55.87901206273792],[-4.288914801669458,55.87899932888432],[-4.288920913919187,55.87899932888432],[-4.2889208120483575,55.87899617088863],[-4.288914088573656,55.87899637463029],[-4.288913477348683,55.878982214585086],[-4.288918367148466,55.878982316455904],[-4.288918367148466,55.87897864910607],[-4.288912560511224,55.87897844536442],[-4.288911745544593,55.87896347035258],[-4.288917552181835,55.87896326661092],[-4.288917654052664,55.878959904873575],[-4.288910217482161,55.87895970113191],[-4.288909911869674,55.878943096186816],[-4.288956161225956,55.87894299431599],[-4.2889487246554525,55.87887005480256],[-4.28890257717,55.87887066602753],[-4.288901354720055,55.878851208699224],[-4.288907568840612,55.878851310570056],[-4.288907670711441,55.878846522641105],[-4.288900641624253,55.87884672638276],[-4.288899724786794,55.87883154762927],[-4.288905531424036,55.8788316495001],[-4.288905429553207,55.87882757466694],[-4.2888994191743075,55.87882757466694],[-4.288898604207676,55.878814637071685],[-4.288903901490775,55.878814637071685],[-4.288903494007459,55.878810765980184],[-4.288897381757731,55.878810664109366],[-4.288897076145244,55.87879731903079],[-4.288902373428342,55.878797217159956],[-4.288902373428342,55.87879263297266],[-4.2888965667911,55.87879253110184],[-4.288895548082812,55.878781121569006],[-4.288901456590883,55.878781121569006],[-4.288901456590883,55.87877755609],[-4.2888951405994975,55.878777657960825],[-4.2888944275036955,55.878763294173964],[-4.288900132270109,55.878763396044796],[-4.288899928528451,55.878759219340814],[-4.288893816278723,55.878759321211646],[-4.288892390087119,55.87874740232467],[-4.288898604207676,55.87874740232467],[-4.288898400466019,55.878743429362345],[-4.288891778862146,55.878743429362345],[-4.288890047058056,55.87873191795869],[-4.2888951405994975,55.87873140860455],[-4.288893918149552,55.87872845435051],[-4.288888518995623,55.87872886183383],[-4.288883221712526,55.87872173087581],[-4.288875275787878,55.87871541488442],[-4.28887945249186,55.87871347933868],[-4.288875887012851,55.8787107288263],[-4.288871608438042,55.87871286811371],[-4.288864069996709,55.87870909889304],[-4.288856939038692,55.8787068577348],[-4.288859689551071,55.87870431096408],[-4.288855207234603,55.87870268103082],[-4.288852151109738,55.87870502405988],[-4.288842880864316,55.87870257915999],[-4.288833814360553,55.878701662322534],[-4.288833814360553,55.87869880993932],[-4.288827498369165,55.878698911810154],[-4.2888279058524805,55.87870176419336],[-4.288810485940754,55.87870176419336],[-4.28880997658661,55.87869931929347],[-4.288804271820196,55.87869931929347],[-4.288804984915998,55.87870217167668],[-4.288794899703945,55.87870431096408],[-4.288787055650127,55.878707876443094],[-4.288784203266921,55.87870532967237],[-4.288780434046254,55.87870706147646],[-4.288782980816975,55.87870940450552],[-4.288774627409012,55.87871337746785],[-4.2887679039343105,55.878717146688516],[-4.288764134713645,55.87871592423857],[-4.28876107858878,55.87871918410509],[-4.288765560905247,55.878720508425864],[-4.28876107858878,55.87872478700067],[-4.288758022463917,55.878730084283774],[-4.288752419568331,55.87872998241294],[-4.288751910214187,55.87873354789195],[-4.288757309368115,55.87873385350444],[-4.2887572074972855,55.87875076406202],[-4.2887508915059,55.87875086593285],[-4.2887508915059,55.878754940766],[-4.288757309368115,55.87875463515351],[-4.288758022463917,55.87876798023209],[-4.28875252143916,55.87876818397375],[-4.288752419568331,55.878772462548554],[-4.288758328076403,55.878772564419386],[-4.288759754268005,55.878784483306355],[-4.288753540147448,55.878784483306355],[-4.288753947630763,55.878788660010336],[-4.28876026362215,55.87878845626868],[-4.288761282330438,55.878802005088914],[-4.288755475693196,55.878802005088914],[-4.288755679434853,55.878806181792896],[-4.288761791684582,55.878806079922064],[-4.288762097297068,55.87881759132572],[-4.288757309368115,55.87881759132572],[-4.2887572074972855,55.8788217680297],[-4.288763014134528,55.87882197177136],[-4.288763523488672,55.87883816923314],[-4.288753947630763,55.878838271103966],[-4.2887443717728555,55.87883918794143],[-4.28874396428954,55.87883623368739],[-4.288737750168983,55.878836641170714],[-4.288738361393955,55.878840002908056],[-4.288729193019362,55.878841225358],[-4.288721858319688,55.878842753420436],[-4.288718904065652,55.87884010477889],[-4.288711874978464,55.8788422440663],[-4.288714931103328,55.8788450964495],[-4.2887057627287355,55.87884794883271],[-4.288698326158232,55.8788511068284],[-4.288693538229278,55.87884805070353],[-4.288688139075351,55.878850291861774],[-4.288691908296017,55.878853042374146],[-4.288681823083965,55.878857422819785],[-4.288673367805173,55.878862923844544],[-4.288668579876219,55.87886088642797],[-4.288664097559751,55.87886394255283],[-4.288668987359535,55.878865979969405],[-4.288661041434887,55.87887158286499],[-4.28865482731433,55.87887810259804],[-4.288480628197061,55.87888197368952],[-4.288476044009765,55.8788691379651],[-4.288462800802019,55.87884662451194],[-4.288438861157248,55.87881952687147],[-4.288443954698688,55.87881779506738],[-4.288440083607194,55.878814738942516],[-4.288434786324096,55.878816776359095],[-4.2884214412455215,55.87880465373046],[-4.288426025432818,55.87880282005554],[-4.288421746858008,55.87879966205985],[-4.28841726454154,55.87880149573476],[-4.28840962422938,55.878795179743385],[-4.288401270821416,55.87878988246028],[-4.288405855008713,55.8787878450437],[-4.28840096520893,55.87878468704802],[-4.288396482892462,55.87878682633542],[-4.288387416388698,55.87878122343984],[-4.288378349884934,55.87877653738171],[-4.288382526588915,55.87877409248182],[-4.288378248014105,55.87877205506524],[-4.288374173180952,55.87877409248182],[-4.288364597323044,55.87876828584457],[-4.2883535952735325,55.87876349791562],[-4.28835807759,55.87876044179076],[-4.288352576565244,55.87875820063252],[-4.28834778863629,55.878760951144905],[-4.2883356660076615,55.878755348249314],[-4.288327414470528,55.8787520883828],[-4.288330878078708,55.87874882851627],[-4.288325275183123,55.878746892970526],[-4.288321913445771,55.87875005096622],[-4.288302761729955,55.87874230878323],[-4.288268329389817,55.878732325442],[-4.28823970368692,55.87872600945062],[-4.288215662171321,55.87872224022995],[-4.288215662171321,55.87871796165514],[-4.288210059275737,55.87871785978431],[-4.288209855534079,55.878721119650834],[-4.288204354509324,55.878720508425864],[-4.288205475088439,55.878674564682065],[-4.288054298778483,55.878671508557204],[-4.288052261361907,55.878716433592714],[-4.288015485992705,55.878720202813376],[-4.2879820723608555,55.87872692628808],[-4.287956197170337,55.87873293666698],[-4.28793368371717,55.87873976201251],[-4.287903937435156,55.87875005096622],[-4.287877858502981,55.87876115488656],[-4.287855854403957,55.878772258806904],[-4.287830081084268,55.87878713194791],[-4.28781276304337,55.878799865801504],[-4.287806650793641,55.87879731903079],[-4.287801149768884,55.878801699476426],[-4.2878083825977304,55.87880465373046],[-4.2877977880315346,55.878812905267594],[-4.287791064556833,55.87881901751732],[-4.287784646694618,55.87881657261743],[-4.287780062507322,55.87882013809644],[-4.287786785982023,55.87882278673799],[-4.287780164378151,55.87882910272938],[-4.2877755801908535,55.878835214979105],[-4.2877698754244395,55.87883358504585],[-4.2877663099454315,55.878837558008165],[-4.287772829678476,55.8788390860706],[-4.287767226782891,55.878845503932816],[-4.28776305007891,55.87885222740752],[-4.287756224733379,55.878851208699224],[-4.287753881704316,55.87885620036984],[-4.287759993954045,55.8788571172073],[-4.287755919120893,55.87886414629448],[-4.287752659254371,55.87887086976919],[-4.287747056358786,55.87887036041504],[-4.28774501894221,55.87887392589405],[-4.287751436804426,55.878874638989856],[-4.287747769454588,55.87888156620621],[-4.287745324554697,55.878888595293404],[-4.287739314175796,55.878888187810084],[-4.287738804821653,55.87889205890158],[-4.287744611458895,55.87889236451407],[-4.287742472171489,55.87889868050546],[-4.2877412497215435,55.87890489462601],[-4.287735646825959,55.878904792755186],[-4.287735443084301,55.87890937694248],[-4.287741045979886,55.878909173200825],[-4.28773982352994,55.87891813783376],[-4.287740332884084,55.87892720433752],[-4.287741453463202,55.87894584669919],[-4.287746139521326,55.87896438719004],[-4.28773982352994,55.87896499841501],[-4.2877405366257415,55.87896927698983],[-4.287747769454588,55.878968767635676],[-4.287750418096137,55.87897549111038],[-4.287753168608514,55.878981807101766],[-4.287746547004642,55.878982316455904],[-4.287747871325417,55.87898639128906],[-4.2877549004126045,55.87898578006409],[-4.287758364020784,55.87899240166796],[-4.287762948208081,55.87899861578852],[-4.287757141570839,55.87899953262598],[-4.287759178987415,55.87900340371747],[-4.287764781882999,55.87900238500919],[-4.287769060457809,55.879008904742236],[-4.28777405212842,55.87901522073361],[-4.287768551103666,55.8790162394419],[-4.28777160722853,55.87901949930842],[-4.287776904511628,55.879018073116825],[-4.287781183086437,55.879023879754065],[-4.287786684111194,55.879029075166336],[-4.287781183086437,55.87903039948711],[-4.287784748565446,55.87903427057861],[-4.2877905552026885,55.87903274251617],[-4.287796871194075,55.879038549153414],[-4.287803900281263,55.87904425391982],[-4.287797889902364,55.87904608759475],[-4.287801659123029,55.87904914371961],[-4.287807160147786,55.879047106303034],[-4.287814291105803,55.87905281106945],[-4.28782213515962,55.87905770086923],[-4.287816328522378,55.879059738285804],[-4.287821014580504,55.879062896281496],[-4.287826821217746,55.87906065512327],[-4.28783425778825,55.879066359889684],[-4.28784179622958,55.8790710459478],[-4.287836397075654,55.87907328710604],[-4.287841286875437,55.87907644510174],[-4.287846482287707,55.87907369458935],[-4.287854428212354,55.87907838064748],[-4.287862476007829,55.879082455480635],[-4.2878576880788755,55.87908510412218],[-4.287862679749487,55.8790876508929],[-4.287867569549271,55.87908500225135],[-4.287876636053035,55.87909009579279],[-4.287887434360889,55.879093966884284],[-4.287882340819449,55.879096819267495],[-4.2878870268775735,55.87909865294242],[-4.287891712935699,55.87909590243004],[-4.2879013906644365,55.87910048661733],[-4.287911475876489,55.87910384835468],[-4.287907401043336,55.87910690447954],[-4.287913207680578,55.87910904376695],[-4.287917180642902,55.87910598764209],[-4.287927673338269,55.87910965499193],[-4.28793877725861,55.87911281298762],[-4.287935721133746,55.879116072854146],[-4.287942546479276,55.879118008399885],[-4.2879456026041405,55.87911495227502],[-4.287956706524481,55.87911831401237],[-4.2879692366364255,55.879121064524746],[-4.287966282382389,55.8791244262621],[-4.287973515211235,55.87912605619536],[-4.287975858240298,55.879122898199675],[-4.2879856378398635,55.879125241228735],[-4.287995009956115,55.879126973032825],[-4.287992972539538,55.87913023289935],[-4.288001529689158,55.87913155722012],[-4.288003057751591,55.879128602966084],[-4.288015180380219,55.87913084412432],[-4.2880263861713885,55.879131659090945],[-4.288025061850614,55.87913542831161],[-4.288032702162775,55.879136141407415],[-4.288033619000234,55.87913267779924],[-4.288048084657925,55.87913461334499],[-4.288061939090643,55.879135530182445],[-4.288061633478157,55.879139197532275],[-4.288068968177831,55.87913950314477],[-4.288069477531976,55.879136141407415],[-4.288083637577181,55.879136854503216],[-4.288098306976529,55.87913695637405],[-4.2880985107181875,55.87914052185305],[-4.2881056416762044,55.879140623723885],[-4.288105845417862,55.879136854503216],[-4.288134674862416,55.879136854503216],[-4.288134878604073,55.87914082746554],[-4.28814200956209,55.879140623723885],[-4.28814200956209,55.87913675263239],[-4.288155354640665,55.87913654889073],[-4.288167273527636,55.87913563205327],[-4.288168699719239,55.87913929940311],[-4.288175219452283,55.879138993790626],[-4.288174302614824,55.87913512269913],[-4.288188462660028,55.879133798378355],[-4.288200992771972,55.87913186283261],[-4.288203030188549,55.87913542831161],[-4.288208633084134,55.879134409603324],[-4.288206799409214,55.87913094599515],[-4.288232572728903,55.879127278645306],[-4.288234813887137,55.87913013102852],[-4.288241231749352,55.87912870483691],[-4.288238481236975,55.87912564871205],[-4.288260587206827,55.87912137013724],[-4.288263439590034,55.87912463000376],[-4.288268635002304,55.879123203812156],[-4.288265986360755,55.879120147687296],[-4.28829206529293,55.87911281298762],[-4.288295019546966,55.879115970983314],[-4.2883000112175775,55.87911413730839],[-4.2882970569635415,55.879111183054356],[-4.288317431129304,55.87910384835468],[-4.288320996608312,55.879106802608725],[-4.288326090149753,55.87910445957965],[-4.288322524670745,55.87910181093811],[-4.288345445607227,55.87909254069269],[-4.288349724182037,55.87909539307589],[-4.2883535952735325,55.879093457530146],[-4.288349214827893,55.87909080888859],[-4.288360420619063,55.87908602095964],[-4.2883707095727726,55.879080723676545],[-4.2883742750517815,55.87908296483477],[-4.288378859239078,55.879080723676545],[-4.288374682535097,55.87907817690582],[-4.288384564005491,55.879073185235214],[-4.288393121155112,55.879067684210455],[-4.28839750160075,55.879069721627026],[-4.288401270821416,55.879067072985485],[-4.288396788504948,55.87906523931056],[-4.288414106545847,55.87905321855276],[-4.288420218795576,55.87905545971099],[-4.288423173049612,55.87905291294028],[-4.288417875766513,55.8790508755237],[-4.288432341424204,55.879037937928445],[-4.2884385555447615,55.87904017908667],[-4.2884406948321665,55.87903722483264],[-4.288435601290726,55.879035900511866],[-4.288448437015156,55.87902245356246],[-4.288454345523228,55.87902377788324],[-4.288456790423119,55.879020518016716],[-4.288451289398362,55.87901949930842],[-4.28845923532301,55.879009515967205],[-4.28846962614755,55.87899627275946],[-4.288477470201368,55.878982112714255],[-4.288482563742809,55.87896785079822],[-4.288486638575961,55.878953690753015],[-4.288659004018311,55.87895032901566],[-4.288673164063516,55.878961229194346],[-4.2886686817470485,55.87896357222341],[-4.288673775288489,55.87896611899413],[-4.288679174442415,55.87896387783589],[-4.288685286692144,55.878968767635676],[-4.28869516816254,55.87897243498551],[-4.288691908296017,55.87897518549789],[-4.28869842802906,55.87897722291447],[-4.288701891637241,55.87897426866043],[-4.28871309742841,55.87897885284773],[-4.288725627540353,55.878981705230935],[-4.288722978898805,55.87898486322663],[-4.28873031359848,55.87898598380575],[-4.288732452885884,55.87898323329337],[-4.288743862418712,55.87898506696829],[-4.2887557813056825,55.87898608567657],[-4.2887557813056825,55.878989651155585],[-4.288763116005357,55.87898944741393],[-4.288763014134528,55.87898598380575],[-4.288778498500507,55.87898557632243],[-4.288779211596308,55.87899932888432],[-4.2887728956049225,55.87899953262598],[-4.2887728956049225,55.87900360745913],[-4.288779517208795,55.8790035055883],[-4.28877992469211,55.879016341312735],[-4.288773914313211,55.87901644318356],[-4.288774219925697,55.879020721758366],[-4.288780535917083,55.87902061988755],[-4.2887814527545425,55.87903304812866],[-4.288776155471445,55.87903304812866],[-4.288776461083931,55.87903691922015],[-4.288781554625372,55.87903691922015],[-4.288782063979515,55.87904853249464],[-4.288776664825589,55.87904853249464],[-4.288776868567246,55.87905311668193],[-4.288783490171119,55.87905311668193],[-4.288783592041948,55.87906585053554],[-4.2887787022421655,55.87906585053554],[-4.288778905983823,55.87906992536869],[-4.288784712621065,55.87906992536869],[-4.2887858332001825,55.87907685258505],[-4.288788991195875,55.87908194612649],[-4.288783490171119,55.87908357605975],[-4.288786546295983,55.87908642844295],[-4.288791639837425,55.879084900380526],[-4.288797650216324,55.87909060514694],[-4.288803864336882,55.87909447623843],[-4.288799891374557,55.87909702300915],[-4.288804679303512,55.87909936603822],[-4.288808754136665,55.87909722675081],[-4.288816292577996,55.879100894100645],[-4.288825562823418,55.87910374648385],[-4.288824645985959,55.87910619138374],[-4.2888314713314895,55.87910721009204],[-4.288831980685634,55.87910507080463],[-4.288841658414371,55.87910629325457],[-4.288853577301342,55.87910629325457],[-4.2888536791721705,55.879109451250265],[-4.288860300776044,55.879109451250265],[-4.288860198905215,55.87910619138374],[-4.288868857925663,55.879105682029596],[-4.288875581400364,55.879103644613025],[-4.2888786375252295,55.87910690447954],[-4.288884036679156,55.879105682029596],[-4.288881489908436,55.879102524033904],[-4.288893918149552,55.879098449200754],[-4.288901965945028,55.87909518933423],[-4.288906448261495,55.87909743049247],[-4.28891031935299,55.879095087463405],[-4.28890604077818,55.879092948176],[-4.2889122548987375,55.87908816024705],[-4.288916125990232,55.879082659222284],[-4.28892142327333,55.87908327044726],[-4.288922645723277,55.87908021432239],[-4.288917857794321,55.87907960309742],[-4.2889208120483575,55.879073898331015],[-4.288920506435871,55.879065952406364]]]}},{"type":"Feature","properties":{"kind":"label","stop":"botanic","level":2,"name":"雕像环廊","top":15.4},"geometry":{"type":"Point","coordinates":[-4.288345802155129,55.87890616801137]}},{"type":"Feature","id":900004,"properties":{"kind":"slab","stop":"botanic","level":3,"osmId":"way/43059928","name":"穹顶起拱","note":"铸铁肋从这里开始收，采光全靠这一段的侧向玻璃。","base":17.3,"top":24},"geometry":{"type":"Polygon","coordinates":[[[-4.288848356820378,55.879094491128996],[-4.288853959715963,55.87909459299982],[-4.288853552232648,55.8790906200375],[-4.288847643724576,55.879090721908334],[-4.288846726887117,55.87907758057141],[-4.288852533524359,55.87907758057141],[-4.288852533524359,55.87907401509241],[-4.288846421274631,55.87907401509241],[-4.288845911920487,55.87906179059294],[-4.288851820428557,55.87906179059294],[-4.288851718557729,55.87905771575979],[-4.288845198824685,55.87905761388897],[-4.288844485728883,55.87904406506873],[-4.28884998675364,55.879044166939565],[-4.288849783011982,55.879040397718896],[-4.288843670762254,55.87904060146055],[-4.288842652053965,55.87902786760695],[-4.288848764303694,55.87902786760695],[-4.288848662432865,55.87902470961126],[-4.288841938958163,55.87902491335292],[-4.2888413277331905,55.87901075330772],[-4.288846217532973,55.879010855178535],[-4.288846217532973,55.8790071878287],[-4.288840410895731,55.87900698408705],[-4.2888395959291,55.87899200907521],[-4.288845402566342,55.87899180533355],[-4.288845504437171,55.87898844359621],[-4.288838067866668,55.87898823985454],[-4.288837762254182,55.87897163490945],[-4.288884011610463,55.87897153303862],[-4.28887657503996,55.87889859352519],[-4.288830427554507,55.87889920475016],[-4.2888292051045624,55.878879747421855],[-4.288835419225119,55.87887984929269],[-4.288835521095948,55.878875061363736],[-4.2888284920087605,55.87887526510539],[-4.288827575171301,55.8788600863519],[-4.288833381808543,55.87886018822273],[-4.288833279937714,55.878856113389574],[-4.288827269558815,55.878856113389574],[-4.288826454592184,55.878843175794316],[-4.288831751875282,55.878843175794316],[-4.288831344391967,55.878839304702815],[-4.288825232142238,55.878839202832],[-4.288824926529752,55.87882585775342],[-4.288830223812849,55.87882575588259],[-4.288830223812849,55.87882117169529],[-4.288824417175607,55.87882106982447],[-4.288823398467319,55.87880966029164],[-4.288829306975391,55.87880966029164],[-4.288829306975391,55.87880609481263],[-4.288822990984005,55.878806196683456],[-4.288822277888203,55.878791832896596],[-4.288827982654616,55.87879193476743],[-4.2888277789129585,55.878787758063446],[-4.28882166666323,55.87878785993428],[-4.288820240471626,55.8787759410473],[-4.288826454592184,55.8787759410473],[-4.288826250850526,55.878771968084976],[-4.288819629246653,55.878771968084976],[-4.288817897442564,55.87876045668132],[-4.288822990984005,55.87875994732718],[-4.288821768534059,55.87875699307314],[-4.288816369380131,55.87875740055646],[-4.288811072097033,55.87875026959844],[-4.288803126172385,55.87874395360705],[-4.288807302876367,55.87874201806131],[-4.288803737397358,55.87873926754893],[-4.288799458822549,55.87874140683634],[-4.288791920381216,55.87873763761567],[-4.288784789423199,55.87873539645743],[-4.288787539935578,55.87873284968671],[-4.28878305761911,55.878731219753455],[-4.288780001494246,55.878733562782514],[-4.288770731248824,55.87873111788262],[-4.28876166474506,55.878730201045165],[-4.28876166474506,55.878727348661954],[-4.288755348753672,55.878727450532786],[-4.288755756236988,55.87873030291599],[-4.288738336325261,55.87873030291599],[-4.288737826971118,55.8787278580161],[-4.288732122204704,55.8787278580161],[-4.288732835300506,55.87873071039931],[-4.288722750088453,55.87873284968671],[-4.288714906034635,55.878736415165726],[-4.2887120536514285,55.878733868395],[-4.288708284430761,55.87873560019909],[-4.288710831201482,55.87873794322815],[-4.288702477793519,55.87874191619048],[-4.288695754318818,55.87874568541115],[-4.288691985098152,55.8787444629612],[-4.288688928973287,55.87874772282772],[-4.288693411289755,55.878749047148496],[-4.288688928973287,55.8787533257233],[-4.288685872848424,55.878758623006405],[-4.288680269952838,55.87875852113557],[-4.288679760598694,55.87876208661458],[-4.288685159752622,55.878762392227074],[-4.288685057881793,55.87877930278465],[-4.288678741890407,55.87877940465548],[-4.288678741890407,55.87878347948863],[-4.288685159752622,55.878783173876144],[-4.288685872848424,55.87879651895472],[-4.288680371823667,55.87879672269638],[-4.288680269952838,55.878801001271185],[-4.28868617846091,55.87880110314202],[-4.288687604652512,55.878813022028986],[-4.288681390531956,55.878813022028986],[-4.28868179801527,55.87881719873297],[-4.288688114006657,55.87881699499131],[-4.2886891327149455,55.878830543811546],[-4.288683326077703,55.878830543811546],[-4.288683529819361,55.87883472051553],[-4.288689642069089,55.878834618644696],[-4.288689947681576,55.87884613004835],[-4.288685159752622,55.87884613004835],[-4.288685057881793,55.878850306752334],[-4.288690864519035,55.87885051049399],[-4.28869137387318,55.87886670795577],[-4.28868179801527,55.8788668098266],[-4.288672222157363,55.87886772666406],[-4.288671814674047,55.87886477241002],[-4.28866560055349,55.878865179893346],[-4.288666211778462,55.87886854163069],[-4.2886570434038696,55.87886976408063],[-4.288649708704195,55.87887129214307],[-4.288646754450159,55.87886864350152],[-4.288639725362971,55.87887078278893],[-4.288642781487836,55.878873635172134],[-4.288633613113243,55.87887648755534],[-4.288626176542739,55.87887964555103],[-4.288621388613786,55.87887658942616],[-4.288615989459858,55.878878830584405],[-4.288619758680524,55.87888158109678],[-4.288609673468472,55.878885961542416],[-4.28860121818968,55.878891462567175],[-4.288596430260727,55.878889425150604],[-4.2885919479442585,55.878892481275464],[-4.288596837744042,55.878894518692036],[-4.288588891819394,55.87890012158762],[-4.288582677698837,55.87890664132067],[-4.288408478581569,55.878910512412155],[-4.288403894394272,55.87889767668773],[-4.288390651186527,55.87887516323457],[-4.288366711541755,55.8788480655941],[-4.288371805083195,55.87884633379001],[-4.288367933991701,55.87884327766515],[-4.288362636708603,55.878845315081726],[-4.288349291630029,55.878833192453094],[-4.288353875817325,55.87883135877817],[-4.288349597242515,55.87882820078248],[-4.288345114926047,55.878830034457394],[-4.288337474613887,55.878823718466016],[-4.288329121205924,55.87881842118291],[-4.28833370539322,55.878816383766335],[-4.288328815593437,55.87881322577065],[-4.288324333276969,55.87881536505805],[-4.288315266773205,55.87880976216247],[-4.288306200269441,55.87880507610434],[-4.288310376973422,55.87880263120445],[-4.288306098398612,55.87880059378787],[-4.28830202356546,55.87880263120445],[-4.288292447707551,55.8787968245672],[-4.28828144565804,55.87879203663825],[-4.288285927974507,55.87878898051339],[-4.288280426949751,55.87878673935515],[-4.288275639020798,55.878789489867536],[-4.288263516392169,55.878783886971945],[-4.288255264855035,55.87878062710543],[-4.288258728463215,55.878777367238904],[-4.28825312556763,55.87877543169316],[-4.288249763830279,55.87877858968885],[-4.288230612114463,55.87877084750586],[-4.288196179774324,55.87876086416463],[-4.2881675540714275,55.87875454817325],[-4.288143512555829,55.87875077895258],[-4.288143512555829,55.87874650037777],[-4.288137909660244,55.87874639850694],[-4.288137705918587,55.878749658373465],[-4.288132204893831,55.878749047148496],[-4.288133325472947,55.878703103404696],[-4.28798214916299,55.878700047279835],[-4.287980111746414,55.878744972315346],[-4.287943336377213,55.87874874153601],[-4.287909922745363,55.87875546501071],[-4.2878840475548445,55.87876147538961],[-4.287861534101677,55.87876830073514],[-4.2878317878196635,55.87877858968885],[-4.287805708887488,55.87878969360919],[-4.287783704788464,55.878800797529536],[-4.287757931468775,55.87881567067054],[-4.287740613427877,55.878828404524135],[-4.287734501178148,55.87882585775342],[-4.287729000153392,55.87883023819906],[-4.287736232982238,55.878833192453094],[-4.287725638416042,55.878841443990225],[-4.28771891494134,55.878847556239954],[-4.287712497079125,55.87884511134006],[-4.287707912891829,55.87884867681907],[-4.28771463636653,55.87885132546062],[-4.287708014762658,55.87885764145201],[-4.287703430575361,55.87886375370174],[-4.287697725808947,55.87886212376848],[-4.287694160329939,55.878866096730796],[-4.287700680062983,55.87886762479323],[-4.287695077167398,55.87887404265545],[-4.287690900463417,55.87888076613015],[-4.287684075117887,55.878879747421855],[-4.287681732088823,55.87888473909247],[-4.287687844338552,55.878885655929935],[-4.2876837695054,55.878892685017114],[-4.287680509638879,55.87889940849182],[-4.287674906743293,55.878898899137674],[-4.287672869326717,55.87890246461668],[-4.287679287188933,55.87890317771249],[-4.287675619839095,55.87891010492884],[-4.287673174939204,55.878917134016035],[-4.287667164560303,55.878916726532715],[-4.28766665520616,55.87892059762421],[-4.287672461843402,55.878920903236704],[-4.2876703225559964,55.87892721922809],[-4.287669100106051,55.87893343334864],[-4.287663497210466,55.87893333147782],[-4.287663293468809,55.87893791566511],[-4.287668896364393,55.878937711923456],[-4.287667673914448,55.87894667655639],[-4.2876681832685914,55.87895574306015],[-4.287669303847709,55.87897438542182],[-4.287673989905834,55.87899292591267],[-4.287667673914448,55.87899353713764],[-4.287668387010249,55.87899781571246],[-4.287675619839095,55.87899730635831],[-4.2876782684806445,55.87900402983301],[-4.2876810189930215,55.8790103458244],[-4.287674397389149,55.879010855178535],[-4.287675721709924,55.87901493001169],[-4.287682750797112,55.87901431878672],[-4.287686214405292,55.87902094039059],[-4.287690798592588,55.87902715451115],[-4.287684991955346,55.879028071348614],[-4.287687029371923,55.8790319424401],[-4.287692632267507,55.87903092373182],[-4.287696910842317,55.87903744346487],[-4.287701902512928,55.879043759456245],[-4.287696401488173,55.879044778164534],[-4.287699457613037,55.87904803803105],[-4.287704754896136,55.879046611839456],[-4.287709033470945,55.8790524184767],[-4.287714534495701,55.87905761388897],[-4.287709033470945,55.87905893820974],[-4.287712598949954,55.87906280930124],[-4.287718405587196,55.879061281238805],[-4.2877247215785825,55.879067087876045],[-4.28773175066577,55.879072792642454],[-4.287725740286871,55.87907462631738],[-4.287729509507536,55.879077682442244],[-4.287735010532293,55.879075645025665],[-4.28774214149031,55.87908134979208],[-4.287749985544127,55.879086239591864],[-4.287744178906885,55.879088277008435],[-4.287748864965011,55.87909143500413],[-4.287754671602253,55.8790891938459],[-4.287762108172757,55.879094898612315],[-4.2877696466140875,55.879099584670435],[-4.287764247460161,55.87910182582867],[-4.287769137259945,55.87910498382437],[-4.287774332672214,55.87910223331198],[-4.287782278596861,55.87910691937011],[-4.2877903263923365,55.879110994203266],[-4.287785538463383,55.879113642844814],[-4.287790530133995,55.87911618961553],[-4.287795419933778,55.87911354097398],[-4.287804486437542,55.87911863451542],[-4.287815284745396,55.879122505606915],[-4.287810191203956,55.87912535799013],[-4.287814877262081,55.87912719166505],[-4.287819563320206,55.87912444115267],[-4.287829241048944,55.879129025339964],[-4.287839326260996,55.87913238707731],[-4.287835251427843,55.87913544320217],[-4.287841058065085,55.879137582489584],[-4.287845031027409,55.87913452636472],[-4.287855523722777,55.87913819371456],[-4.287866627643117,55.87914135171025],[-4.287863571518253,55.87914461157678],[-4.2878703968637835,55.87914654712252],[-4.287873452988648,55.87914349099765],[-4.287884556908988,55.879146852735005],[-4.287897087020933,55.87914960324738],[-4.287894132766897,55.87915296498473],[-4.287901365595742,55.87915459491799],[-4.287903708624805,55.87915143692231],[-4.287913488224371,55.879153779951366],[-4.287922860340622,55.87915551175546],[-4.287920822924045,55.87915877162198],[-4.287929380073665,55.87916009594275],[-4.287930908136098,55.879157141688715],[-4.287943030764726,55.87915938284695],[-4.287954236555896,55.879160197813576],[-4.287952912235121,55.879163967034245],[-4.287960552547283,55.879164680130046],[-4.287961469384741,55.87916121652187],[-4.287975935042432,55.87916315206762],[-4.287989789475151,55.87916406890508],[-4.287989483862664,55.87916773625491],[-4.2879968185623385,55.8791680418674],[-4.287997327916483,55.879164680130046],[-4.288011487961688,55.87916539322585],[-4.2880261573610365,55.87916549509668],[-4.288026361102695,55.879169060575684],[-4.288033492060712,55.879169162446516],[-4.288033695802369,55.87916539322585],[-4.288062525246923,55.87916539322585],[-4.288062728988581,55.87916936618817],[-4.288069859946598,55.879169162446516],[-4.288069859946598,55.87916529135502],[-4.288083205025172,55.87916508761336],[-4.288095123912143,55.8791641707759],[-4.288096550103746,55.87916783812574],[-4.28810306983679,55.87916753251326],[-4.288102152999331,55.879163661421764],[-4.288116313044536,55.879162337100986],[-4.288128843156479,55.87916040155524],[-4.288130880573056,55.879163967034245],[-4.288136483468641,55.879162948325956],[-4.288134649793721,55.87915948471778],[-4.2881604231134105,55.87915581736794],[-4.288162664271645,55.87915866975115],[-4.28816908213386,55.87915724355954],[-4.288166331621483,55.87915418743468],[-4.288188437591335,55.87914990885987],[-4.288191289974542,55.87915316872639],[-4.288196485386811,55.87915174253479],[-4.288193836745262,55.87914868640993],[-4.288219915677438,55.87914135171025],[-4.288222869931473,55.879144509705945],[-4.288227861602085,55.87914267603102],[-4.288224907348049,55.87913972177699],[-4.288245281513811,55.87913238707731],[-4.288248846992819,55.879135341331356],[-4.28825394053426,55.87913299830228],[-4.288250375055252,55.87913034966074],[-4.2882732959917345,55.87912107941532],[-4.2882775745665445,55.879123931798524],[-4.28828144565804,55.87912199625278],[-4.288277065212401,55.87911934761122],[-4.28828827100357,55.87911455968227],[-4.28829855995728,55.879109262399176],[-4.288302125436289,55.879111503557404],[-4.288306709623585,55.879109262399176],[-4.288302532919604,55.87910671562845],[-4.288312414389998,55.879101723957845],[-4.288320971539619,55.879096222933086],[-4.288325351985257,55.87909826034966],[-4.288329121205924,55.87909561170812],[-4.288324638889455,55.879093778033194],[-4.2883419569303545,55.879081757275394],[-4.288348069180083,55.87908399843362],[-4.288351023434119,55.87908145166291],[-4.28834572615102,55.879079414246334],[-4.288360191808711,55.879066476651076],[-4.288366405929269,55.879068717809304],[-4.288368545216674,55.879065763555275],[-4.288363451675234,55.8790644392345],[-4.288376287399664,55.879050992285094],[-4.288382195907735,55.87905231660587],[-4.288384640807626,55.87904905673935],[-4.28837913978287,55.87904803803105],[-4.288387085707518,55.879038054689836],[-4.288397476532057,55.87902481148209],[-4.288405320585875,55.879010651436886],[-4.288410414127316,55.87899638952085],[-4.288414488960468,55.878982229475646],[-4.288586854402818,55.87897886773829],[-4.288601014448023,55.87898976791698],[-4.288596532131556,55.878992110946044],[-4.288601625672996,55.87899465771676],[-4.288607024826923,55.878992416558525],[-4.288613137076651,55.87899730635831],[-4.288623018547047,55.879000973708145],[-4.288619758680524,55.879003724220524],[-4.288626278413568,55.8790057616371],[-4.288629742021748,55.87900280738306],[-4.288640947812917,55.87900739157036],[-4.288653477924861,55.879010243953566],[-4.288650829283312,55.87901340194926],[-4.288658163982987,55.87901452252838],[-4.288660303270391,55.879011772016],[-4.288671712803219,55.87901360569092],[-4.28868363169019,55.879014624399204],[-4.28868363169019,55.87901818987822],[-4.288690966389864,55.87901798613656],[-4.288690864519035,55.87901452252838],[-4.288706348885015,55.87901411504506],[-4.288707061980816,55.87902786760695],[-4.28870074598943,55.879028071348614],[-4.28870074598943,55.879032146181764],[-4.288707367593302,55.87903204431093],[-4.288707775076618,55.879044880035366],[-4.288701764697718,55.87904498190619],[-4.288702070310205,55.879049260481],[-4.2887083863015905,55.87904915861018],[-4.28870930313905,55.87906158685129],[-4.288704005855952,55.87906158685129],[-4.288704311468439,55.87906545794278],[-4.288709405009879,55.87906545794278],[-4.288709914364023,55.879077071217274],[-4.288704515210096,55.879077071217274],[-4.288704718951753,55.87908165540456],[-4.2887113405556265,55.87908165540456],[-4.288711442426456,55.87909438925817],[-4.288706552626673,55.87909438925817],[-4.28870675636833,55.87909846409132],[-4.288712563005572,55.87909846409132],[-4.28871368358469,55.87910539130768],[-4.288716841580382,55.87911048484912],[-4.2887113405556265,55.87911211478238],[-4.28871439668049,55.879114967165584],[-4.288719490221932,55.87911343910316],[-4.288725500600831,55.87911914386957],[-4.288731714721389,55.87912301496106],[-4.288727741759065,55.87912556173178],[-4.288732529688019,55.87912790476085],[-4.288736604521172,55.87912576547344],[-4.2887441429625035,55.87912943282328],[-4.2887534132079255,55.87913228520648],[-4.288752496370466,55.87913473010637],[-4.288759321715997,55.87913574881467],[-4.288759831070141,55.87913360952726],[-4.288769508798878,55.879134831977204],[-4.28878142768585,55.879134831977204],[-4.288781529556678,55.8791379899729],[-4.288788151160551,55.8791379899729],[-4.288788049289722,55.87913473010637],[-4.28879670831017,55.87913422075223],[-4.288803431784872,55.879132183335656],[-4.288806487909737,55.87913544320217],[-4.288811887063663,55.87913422075223],[-4.288809340292944,55.879131062756535],[-4.288821768534059,55.879126987923385],[-4.288829816329535,55.87912372805686],[-4.288834298646003,55.8791259692151],[-4.288838169737497,55.879123626186036],[-4.288833891162687,55.87912148689863],[-4.288840105283245,55.87911669896968],[-4.288843976374739,55.879111197944916],[-4.288849273657838,55.87911180916989],[-4.288850496107784,55.879108753045024],[-4.288845708178829,55.879108141820055],[-4.288848662432865,55.879102437053646],[-4.288848356820378,55.879094491128996]]]}},{"type":"Feature","properties":{"kind":"label","stop":"botanic","level":3,"name":"穹顶起拱","top":24},"geometry":{"type":"Point","coordinates":[-4.288273652539636,55.878934706734]}},{"type":"Feature","id":900005,"properties":{"kind":"slab","stop":"botanic","level":4,"osmId":"way/43059928","name":"顶灯","note":"穹顶正中的通风口，晴天从下往上看是一圈亮环。","base":26.9,"top":31.9},"geometry":{"type":"Polygon","coordinates":[[[-4.2887762072048865,55.87912302985163],[-4.288781810100471,55.87912313172245],[-4.288781402617156,55.87911915876013],[-4.2887754941090845,55.879119260630965],[-4.288774577271625,55.87910611929404],[-4.288780383908867,55.87910611929404],[-4.288780383908867,55.87910255381504],[-4.288774271659139,55.87910255381504],[-4.288773762304995,55.879090329315574],[-4.288779670813065,55.879090329315574],[-4.288779568942237,55.879086254482424],[-4.288773049209193,55.8790861526116],[-4.288772336113391,55.879072603791364],[-4.288777837138148,55.879072705662196],[-4.28877763339649,55.87906893644153],[-4.288771521146762,55.879069140183184],[-4.2887705024384735,55.87905640632958],[-4.288776614688202,55.87905640632958],[-4.288776512817373,55.87905324833389],[-4.2887697893426715,55.87905345207555],[-4.288769178117699,55.87903929203035],[-4.2887740679174815,55.87903939390117],[-4.2887740679174815,55.87903572655133],[-4.288768261280239,55.87903552280968],[-4.288767446313608,55.87902054779784],[-4.28877325295085,55.87902034405618],[-4.2887733548216795,55.87901698231884],[-4.288765918251176,55.879016778577174],[-4.28876561263869,55.87900017363208],[-4.288811861994971,55.879000071761254],[-4.288804425424468,55.878927132247824],[-4.288758277939015,55.878927743472794],[-4.288757055489071,55.87890828614449],[-4.288763269609627,55.87890838801532],[-4.2887633714804565,55.87890360008637],[-4.288756342393269,55.878903803828024],[-4.288755425555809,55.87888862507453],[-4.2887612321930515,55.87888872694536],[-4.288761130322222,55.878884652112205],[-4.288755119943323,55.878884652112205],[-4.288754304976692,55.87887171451695],[-4.28875960225979,55.87887171451695],[-4.288759194776475,55.878867843425446],[-4.288753082526746,55.87886774155463],[-4.28875277691426,55.87885439647605],[-4.288758074197357,55.87885429460522],[-4.288758074197357,55.878849710417924],[-4.288752267560115,55.8788496085471],[-4.288751248851828,55.87883819901427],[-4.288757157359899,55.87883819901427],[-4.288757157359899,55.87883463353526],[-4.288750841368513,55.87883473540609],[-4.288750128272711,55.87882037161923],[-4.288755833039124,55.87882047349006],[-4.288755629297467,55.87881629678608],[-4.288749517047738,55.87881639865691],[-4.288748090856134,55.87880447976993],[-4.288754304976692,55.87880447976993],[-4.2887541012350345,55.87880050680761],[-4.288747479631161,55.87880050680761],[-4.288745747827072,55.87878899540395],[-4.288750841368513,55.878788486049814],[-4.288749618918567,55.87878553179577],[-4.288744219764639,55.87878593927909],[-4.288738922481541,55.87877880832107],[-4.288730976556893,55.87877249232968],[-4.288735153260875,55.87877055678394],[-4.288731587781866,55.87876780627156],[-4.288727309207057,55.87876994555897],[-4.2887197707657245,55.8787661763383],[-4.288712639807708,55.87876393518006],[-4.288715390320086,55.878761388409345],[-4.288710908003618,55.878759758476086],[-4.288707851878754,55.878762101505146],[-4.288698581633332,55.878759656605254],[-4.288689515129568,55.8787587397678],[-4.288689515129568,55.878755887384585],[-4.28868319913818,55.87875598925542],[-4.288683606621496,55.87875884163862],[-4.2886661867097695,55.87875884163862],[-4.288665677355626,55.87875639673873],[-4.288659972589212,55.87875639673873],[-4.288660685685014,55.87875924912194],[-4.288650600472961,55.878761388409345],[-4.288642756419143,55.87876495388836],[-4.288639904035937,55.878762407117634],[-4.2886361348152695,55.878764138921724],[-4.28863868158599,55.878766481950784],[-4.288630328178027,55.87877045491311],[-4.288623604703326,55.87877422413378],[-4.288619835482661,55.87877300168383],[-4.288616779357795,55.87877626155035],[-4.288621261674263,55.87877758587113],[-4.288616779357795,55.87878186444593],[-4.288613723232932,55.878787161729036],[-4.288608120337346,55.878787059858205],[-4.2886076109832025,55.87879062533721],[-4.28861301013713,55.878790930949705],[-4.288612908266301,55.87880784150728],[-4.288606592274915,55.87880794337811],[-4.288606592274915,55.87881201821126],[-4.28861301013713,55.878811712598775],[-4.288613723232932,55.87882505767735],[-4.288608222208175,55.87882526141901],[-4.288608120337346,55.878829539993816],[-4.288614028845418,55.87882964186465],[-4.288615455037021,55.87884156075162],[-4.288609240916464,55.87884156075162],[-4.288609648399778,55.8788457374556],[-4.288615964391165,55.87884553371394],[-4.288616983099454,55.87885908253418],[-4.2886111764622115,55.87885908253418],[-4.288611380203869,55.87886325923816],[-4.288617492453597,55.87886315736733],[-4.288617798066084,55.87887466877098],[-4.28861301013713,55.87887466877098],[-4.288612908266301,55.878878845474965],[-4.288618714903543,55.87887904921662],[-4.288619224257688,55.878895246678404],[-4.288609648399778,55.87889534854923],[-4.288600072541871,55.87889626538669],[-4.288599665058555,55.87889331113265],[-4.288593450937999,55.87889371861598],[-4.288594062162971,55.87889708035332],[-4.288584893788378,55.878898302803265],[-4.288577559088703,55.8788998308657],[-4.288574604834667,55.87889718222415],[-4.2885675757474795,55.87889932151156],[-4.288570631872344,55.878902173894765],[-4.288561463497751,55.87890502627797],[-4.2885540269272475,55.87890818427366],[-4.288549238998294,55.878905128148794],[-4.288543839844366,55.878907369307036],[-4.2885476090650325,55.87891011981941],[-4.28853752385298,55.87891450026505],[-4.288529068574189,55.878920001289806],[-4.288524280645235,55.878917963873235],[-4.288519798328767,55.878921019998096],[-4.28852468812855,55.87892305741467],[-4.288516742203902,55.87892866031025],[-4.2885105280833455,55.8789351800433],[-4.288336328966077,55.878939051134786],[-4.28833174477878,55.87892621541036],[-4.288318501571035,55.8789037019572],[-4.288294561926263,55.87887660431673],[-4.2882996554677035,55.87887487251264],[-4.288295784376209,55.87887181638778],[-4.288290487093112,55.87887385380436],[-4.288277142014537,55.878861731175725],[-4.288281726201833,55.8788598975008],[-4.288277447627023,55.87885673950511],[-4.288272965310555,55.878858573180025],[-4.288265324998395,55.87885225718865],[-4.288256971590432,55.878846959905545],[-4.288261555777728,55.878844922488966],[-4.288256665977945,55.87884176449328],[-4.288252183661477,55.878843903780684],[-4.288243117157713,55.8788383008851],[-4.28823405065395,55.87883361482697],[-4.2882382273579305,55.87883116992708],[-4.2882339487831205,55.8788291325105],[-4.288229873949968,55.87883116992708],[-4.288220298092059,55.878825363289835],[-4.288209296042548,55.87882057536088],[-4.288213778359015,55.87881751923602],[-4.28820827733426,55.87881527807778],[-4.288203489405306,55.87881802859017],[-4.288191366776677,55.878812425694576],[-4.288183115239543,55.87880916582806],[-4.288186578847723,55.878805905961535],[-4.288180975952138,55.87880397041579],[-4.288177614214787,55.87880712841148],[-4.288158462498971,55.87879938622849],[-4.288124030158833,55.878789402887264],[-4.288095404455936,55.87878308689588],[-4.288071362940337,55.87877931767521],[-4.288071362940337,55.878775039100404],[-4.288065760044752,55.87877493722957],[-4.288065556303095,55.878778197096096],[-4.288060055278339,55.87877758587113],[-4.288061175857455,55.87873164212733],[-4.287909999547498,55.87872858600247],[-4.287907962130922,55.87877351103798],[-4.287871186761721,55.87877728025864],[-4.287837773129871,55.878784003733344],[-4.287811897939353,55.87879001411224],[-4.287789384486185,55.87879683945777],[-4.287759638204172,55.87880712841148],[-4.287733559271996,55.878818232331824],[-4.287711555172972,55.87882933625217],[-4.287685781853283,55.87884420939317],[-4.287668463812385,55.87885694324677],[-4.287662351562656,55.87885439647605],[-4.2876568505379,55.87885877692169],[-4.287664083366746,55.878861731175725],[-4.28765348880055,55.87886998271286],[-4.2876467653258485,55.878876094962585],[-4.2876403474636335,55.878873650062694],[-4.287635763276337,55.8788772155417],[-4.2876424867510385,55.878879864183254],[-4.287635865147166,55.87888618017464],[-4.287631280959869,55.87889229242437],[-4.287625576193455,55.87889066249111],[-4.287622010714447,55.87889463545343],[-4.287628530447491,55.87889616351586],[-4.287622927551906,55.87890258137808],[-4.287618750847925,55.87890930485278],[-4.287611925502395,55.87890828614449],[-4.287609582473332,55.8789132778151],[-4.28761569472306,55.878914194652566],[-4.287611619889908,55.878921223739745],[-4.287608360023387,55.87892794721445],[-4.287602757127801,55.878927437860305],[-4.287600719711225,55.87893100333931],[-4.287607137573441,55.87893171643512],[-4.287603470223603,55.87893864365147],[-4.2876010253237125,55.878945672738666],[-4.287595014944811,55.878945265255346],[-4.287594505590668,55.87894913634684],[-4.2876003122279105,55.878949441959335],[-4.287598172940505,55.87895575795072],[-4.287596950490559,55.878961972071274],[-4.287591347594974,55.87896187020045],[-4.287591143853317,55.878966454387744],[-4.287596746748902,55.87896625064609],[-4.287595524298956,55.87897521527902],[-4.2875960336531,55.878984281782785],[-4.287597154232217,55.87900292414445],[-4.287601840290342,55.8790214646353],[-4.287595524298956,55.87902207586027],[-4.287596237394757,55.87902635443509],[-4.287603470223603,55.87902584508094],[-4.287606118865153,55.879032568555644],[-4.28760886937753,55.87903888454703],[-4.287602247773657,55.87903939390117],[-4.287603572094432,55.879043468734324],[-4.28761060118162,55.879042857509354],[-4.2876140647898,55.87904947911322],[-4.287618648977096,55.87905569323378],[-4.287612842339854,55.879056610071245],[-4.287614879756431,55.87906048116273],[-4.287620482652015,55.87905946245445],[-4.287624761226825,55.8790659821875],[-4.287629752897436,55.879072298178876],[-4.287624251872681,55.879073316887165],[-4.287627307997545,55.87907657675368],[-4.287632605280644,55.87907515056209],[-4.287636883855453,55.87908095719933],[-4.287642384880209,55.8790861526116],[-4.287636883855453,55.87908747693237],[-4.287640449334462,55.87909134802387],[-4.287646255971704,55.879089819961436],[-4.287652571963091,55.87909562659868],[-4.2876596010502785,55.879101331365085],[-4.287653590671379,55.879103165040014],[-4.287657359892044,55.879106221164875],[-4.287662860916801,55.8791041837483],[-4.287669991874818,55.87910988851471],[-4.287677835928635,55.879114778314495],[-4.287672029291393,55.87911681573107],[-4.287676715349519,55.87911997372676],[-4.287682521986762,55.87911773256853],[-4.287689958557265,55.87912343733495],[-4.287697496998596,55.879128123393066],[-4.287692097844669,55.8791303645513],[-4.287696987644453,55.879133522547],[-4.287702183056722,55.879130772034614],[-4.287710128981369,55.87913545809274],[-4.287718176776845,55.8791395329259],[-4.287713388847891,55.879142181567445],[-4.287718380518503,55.87914472833816],[-4.287723270318287,55.879142079696614],[-4.28773233682205,55.87914717323805],[-4.2877431351299045,55.87915104432955],[-4.287738041588464,55.87915389671276],[-4.287742727646589,55.87915573038768],[-4.2877474137047145,55.8791529798753],[-4.287757091433452,55.879157564062595],[-4.287767176645504,55.879160925799944],[-4.287763101812351,55.879163981924805],[-4.287768908449594,55.879166121212215],[-4.287772881411917,55.879163065087354],[-4.287783374107285,55.87916673243719],[-4.287794478027625,55.879169890432884],[-4.287791421902761,55.87917315029941],[-4.287798247248292,55.87917508584515],[-4.287801303373156,55.87917202972028],[-4.287812407293496,55.879175391457636],[-4.287824937405441,55.87917814197001],[-4.287821983151405,55.879181503707365],[-4.28782921598025,55.87918313364062],[-4.287831559009313,55.87917997564494],[-4.287841338608879,55.879182318674],[-4.28785071072513,55.87918405047809],[-4.287848673308553,55.87918731034461],[-4.287857230458173,55.87918863466538],[-4.287858758520606,55.87918568041135],[-4.287870881149234,55.87918792156958],[-4.287882086940404,55.87918873653621],[-4.287880762619629,55.879192505756876],[-4.287888402931791,55.87919321885268],[-4.287889319769249,55.879189755244504],[-4.28790378542694,55.87919169079025],[-4.287917639859659,55.87919260762771],[-4.287917334247172,55.87919627497754],[-4.287924668946847,55.87919658059003],[-4.287925178300991,55.87919321885268],[-4.287939338346196,55.87919393194848],[-4.287954007745545,55.87919403381931],[-4.287954211487203,55.879197599298315],[-4.28796134244522,55.87919770116915],[-4.287961546186877,55.87919393194848],[-4.2879903756314315,55.87919393194848],[-4.287990579373089,55.879197904910804],[-4.287997710331106,55.87919770116915],[-4.287997710331106,55.879193830077654],[-4.28801105540968,55.87919362633599],[-4.288022974296651,55.87919270949853],[-4.288024400488254,55.87919637684837],[-4.288030920221298,55.87919607123589],[-4.288030003383839,55.879192200144395],[-4.288044163429044,55.87919087582362],[-4.288056693540987,55.87918894027787],[-4.288058730957564,55.879192505756876],[-4.288064333853149,55.87919148704859],[-4.2880625001782295,55.87918802344041],[-4.288088273497919,55.87918435609057],[-4.288090514656153,55.87918720847378],[-4.288096932518368,55.87918578228217],[-4.288094182005991,55.87918272615731],[-4.288116287975843,55.879178447582504],[-4.28811914035905,55.87918170744902],[-4.288124335771319,55.87918028125742],[-4.28812168712977,55.87917722513256],[-4.288147766061946,55.879169890432884],[-4.288150720315981,55.87917304842858],[-4.288155711986593,55.879171214753654],[-4.288152757732557,55.87916826049962],[-4.288173131898319,55.879160925799944],[-4.288176697377327,55.87916388005399],[-4.2881817909187685,55.87916153702491],[-4.2881782254397605,55.87915888838337],[-4.288201146376243,55.87914961813795],[-4.288205424951053,55.879152470521156],[-4.288209296042548,55.87915053497541],[-4.288204915596909,55.879147886333854],[-4.2882161213880785,55.8791430984049],[-4.288226410341788,55.87913780112181],[-4.288229975820797,55.879140042280035],[-4.288234560008093,55.87913780112181],[-4.288230383304112,55.879135254351084],[-4.288240264774506,55.87913026268048],[-4.288248821924127,55.87912476165572],[-4.2882532023697655,55.87912679907229],[-4.288256971590432,55.87912415043075],[-4.2882524892739635,55.879122316755826],[-4.288269807314863,55.879110295998025],[-4.288275919564591,55.87911253715625],[-4.288278873818627,55.879109990385544],[-4.288273576535528,55.879107952968965],[-4.288288042193219,55.87909501537371],[-4.288294256313777,55.879097256531935],[-4.288296395601182,55.879094302277906],[-4.288291302059742,55.87909297795713],[-4.288304137784172,55.879079531007726],[-4.288310046292243,55.8790808553285],[-4.288312491192134,55.87907759546198],[-4.288306990167378,55.87907657675368],[-4.288314936092026,55.87906659341247],[-4.288325326916565,55.87905335020472],[-4.288333170970383,55.87903919015952],[-4.288338264511824,55.87902492824348],[-4.288342339344976,55.87901076819828],[-4.288514704787326,55.87900740646092],[-4.288528864832531,55.87901830663961],[-4.288524382516064,55.879020649668675],[-4.288529476057504,55.87902319643939],[-4.288534875211431,55.879020955281156],[-4.288540987461159,55.87902584508094],[-4.288550868931555,55.879029512430776],[-4.2885476090650325,55.879032262943156],[-4.288554128798076,55.879034300359734],[-4.2885575924062564,55.87903134610569],[-4.288568798197425,55.87903593029299],[-4.288581328309369,55.8790387826762],[-4.28857867966782,55.87904194067189],[-4.288586014367495,55.87904306125101],[-4.288588153654899,55.87904031073863],[-4.288599563187727,55.87904214441355],[-4.288611482074698,55.879043163121835],[-4.288611482074698,55.87904672860085],[-4.288618816774372,55.87904652485919],[-4.288618714903543,55.87904306125101],[-4.288634199269523,55.87904265376769],[-4.288634912365324,55.87905640632958],[-4.288628596373938,55.879056610071245],[-4.288628596373938,55.879060684904395],[-4.28863521797781,55.879060583033564],[-4.288635625461126,55.879073418758],[-4.288629615082226,55.87907352062882],[-4.288629920694713,55.87907779920363],[-4.288636236686099,55.87907769733281],[-4.288637153523558,55.879090125573924],[-4.28863185624046,55.879090125573924],[-4.288632161852947,55.87909399666541],[-4.288637255394387,55.87909399666541],[-4.288637764748531,55.879105609939906],[-4.288632365594604,55.879105609939906],[-4.2886325693362615,55.87911019412719],[-4.288639190940135,55.87911019412719],[-4.288639292810964,55.8791229279808],[-4.288634403011181,55.8791229279808],[-4.288634606752838,55.87912700281395],[-4.28864041339008,55.87912700281395],[-4.288641533969198,55.879133930030314],[-4.28864469196489,55.87913902357175],[-4.288639190940135,55.87914065350501],[-4.288642247064998,55.879143505888216],[-4.28864734060644,55.87914197782579],[-4.2886533509853395,55.879147682592205],[-4.288659565105897,55.87915155368369],[-4.288655592143573,55.879154100454414],[-4.288660380072527,55.87915644348348],[-4.28866445490568,55.87915430419607],[-4.288671993347012,55.87915797154591],[-4.288681263592434,55.87916082392911],[-4.288680346754974,55.879163268829004],[-4.288687172100505,55.8791642875373],[-4.2886876814546495,55.87916214824989],[-4.288697359183386,55.879163370699835],[-4.288709278070358,55.879163370699835],[-4.288709379941186,55.87916652869553],[-4.288716001545059,55.87916652869553],[-4.28871589967423,55.879163268829004],[-4.288724558694678,55.87916275947486],[-4.28873128216938,55.87916072205829],[-4.288734338294245,55.879163981924805],[-4.2887397374481715,55.87916275947486],[-4.288737190677452,55.87915960147917],[-4.288749618918567,55.87915552664602],[-4.2887576667140435,55.87915226677949],[-4.288762149030511,55.879154507937734],[-4.288766020122005,55.87915216490867],[-4.288761741547195,55.879150025621264],[-4.288767955667753,55.87914523769231],[-4.288771826759247,55.87913973666755],[-4.288777124042346,55.87914034789252],[-4.288778346492292,55.879137291767655],[-4.288773558563337,55.879136680542686],[-4.288776512817373,55.87913097577628],[-4.2887762072048865,55.87912302985163]]]}},{"type":"Feature","properties":{"kind":"label","stop":"botanic","level":4,"name":"顶灯","top":31.9},"geometry":{"type":"Point","coordinates":[-4.288201502924144,55.87896324545663]}}]}