{"type":"FeatureCollection","features":[{"type":"Feature","id":1,"properties":{"fid":1,"stop":"trinity","osmId":"way/51795705","name":"Partick Trinity Parish Church","height":11,"base":0},"geometry":{"type":"Polygon","coordinates":[[[-4.299056838168132,55.87317646122287],[-4.298917106387224,55.87316086661909],[-4.298915040876788,55.87315229475079],[-4.298904610049093,55.87314454908665],[-4.29888839579218,55.87314258685174],[-4.298872388086311,55.873143929433525],[-4.298860304850268,55.87315012596483],[-4.298805981925835,55.87314568511739],[-4.298808357262835,55.87313556411627],[-4.298785843199096,55.873133705156874],[-4.298783054760008,55.873142173749656],[-4.298719437038619,55.873135977218354],[-4.298721502549054,55.873127198799004],[-4.29870280967962,55.87312564966618],[-4.298700640893663,55.87313329205479],[-4.298638365754056,55.8731266824214],[-4.298652514500534,55.87309032943775],[-4.298545934162101,55.87307814292618],[-4.2985119565154495,55.873171503997824],[-4.298526208537449,55.87317315640618],[-4.298462280989495,55.87333942999617],[-4.2986789530340985,55.87336659145839],[-4.298837377684442,55.873386420358564],[-4.29884853144079,55.873373924020434],[-4.29886340311592,55.87336700456048],[-4.298883128740572,55.873365455427646],[-4.2988925268130505,55.87333581535292],[-4.2990031348968305,55.87334789858895],[-4.29902275724596,55.87330266391043],[-4.2990088150505255,55.873301321328654],[-4.299056838168132,55.87317646122287]]]}},{"type":"Feature","id":2,"properties":{"fid":2,"stop":"botanic","osmId":"way/28264007","name":"Glasshouse","height":7,"base":0},"geometry":{"type":"Polygon","coordinates":[[[-4.290855066367746,55.879756577623084],[-4.290697810039538,55.87972794864661],[-4.290746946297028,55.879650081891455],[-4.290775473752307,55.87965617316304],[-4.290848365968997,55.879541961820735],[-4.290804102728778,55.87953241882858],[-4.290808062055311,55.87952551538744],[-4.2905964918887625,55.8794831810499],[-4.290593040168195,55.87948967840626],[-4.290375074166477,55.8794461258144],[-4.2903226892308055,55.87952896710801],[-4.290083809863296,55.879480947583644],[-4.290136194798968,55.87939952758673],[-4.289926655056281,55.879356787164404],[-4.289929294607303,55.87935028980805],[-4.289716912271209,55.87930633113141],[-4.28971214077513,55.879314046742095],[-4.289669197310423,55.879305214398286],[-4.289595086839414,55.87941901965582],[-4.289618944319807,55.879423994194276],[-4.289570518710669,55.879496175762625],[-4.289428896646208,55.879464907235125],[-4.289475291831484,55.879393030230375],[-4.2894964082396605,55.87939729412049],[-4.289571940007373,55.87928572232919],[-4.289523615919429,55.879275874773455],[-4.2895365091109605,55.87925485988647],[-4.289522905271077,55.879252118814264],[-4.289545341454765,55.8792158757483],[-4.289559655943002,55.8792189213841],[-4.2895760008551,55.879194454776545],[-4.289635898359066,55.87920826165882],[-4.289641380503497,55.87919912475143],[-4.289658436063947,55.87920237342961],[-4.289686861998033,55.879157602583426],[-4.289721379203708,55.87916511515172],[-4.289691735015305,55.8792099875191],[-4.289713562071834,55.879214149888014],[-4.289708790575756,55.87922237310466],[-4.289762596808132,55.87923343891472],[-4.289758434439212,55.87924186517375],[-4.289966755927581,55.879283488862946],[-4.289970816775306,55.87927617933704],[-4.290185128014071,55.87932054409845],[-4.290218528486622,55.87926551961176],[-4.290460859574698,55.879312930008965],[-4.290427662144534,55.87936825905924],[-4.290644815976708,55.87941140556633],[-4.290642785552844,55.87941790292269],[-4.2908490766173495,55.87945993269666],[-4.290855167888939,55.87945221708598],[-4.2909137456173925,55.879463688980806],[-4.290918720155858,55.87945566880655],[-4.290936689407047,55.87945871444234],[-4.290965622947099,55.879411507087525],[-4.29100612990317,55.879419730304164],[-4.29097465833329,55.87946714070138],[-4.290990597160616,55.879470795464336],[-4.290986434791697,55.879478206511436],[-4.291042677532708,55.87948988144865],[-4.291029276735211,55.87951353588665],[-4.291043388181061,55.87951617543767],[-4.291021256560952,55.87954947438903],[-4.291005926860784,55.87954642875324],[-4.290991206287775,55.87956906797931],[-4.290946333920398,55.879560134114314],[-4.290872121928197,55.879677594134805],[-4.290897299184102,55.8796820610673],[-4.290855066367746,55.879756577623084]]]}},{"type":"Feature","id":3,"properties":{"fid":3,"stop":"botanic","osmId":"way/43059928","name":"Kibble Palace","height":7,"base":0},"geometry":{"type":"Polygon","coordinates":[[[-4.289064805666856,55.879008874961094],[-4.2890704085624405,55.87900897683192],[-4.289070001079125,55.8790050038696],[-4.289064092571054,55.87900510574043],[-4.289063175733594,55.87899196440351],[-4.289068982370837,55.87899196440351],[-4.289068982370837,55.878988398924506],[-4.289062870121108,55.878988398924506],[-4.289062360766964,55.87897617442504],[-4.289068269275035,55.87897617442504],[-4.289068167404206,55.87897209959189],[-4.289061647671162,55.87897199772107],[-4.28906093457536,55.87895844890083],[-4.289066435600117,55.878958550771664],[-4.28906623185846,55.878954781550995],[-4.289060119608731,55.87895498529265],[-4.289059100900443,55.87894225143905],[-4.289065213150171,55.87894225143905],[-4.289065111279342,55.87893909344336],[-4.289058387804641,55.87893929718502],[-4.289057776579668,55.87892513713982],[-4.289062666379451,55.878925239010634],[-4.289062666379451,55.8789215716608],[-4.2890568597422085,55.87892136791915],[-4.2890560447755774,55.87890639290731],[-4.28906185141282,55.87890618916565],[-4.289061953283649,55.878902827428305],[-4.289054516713145,55.87890262368664],[-4.289054211100659,55.87888601874155],[-4.2891004604569405,55.87888591687072],[-4.289093023886437,55.87881297735729],[-4.289046876400985,55.87881358858226],[-4.28904565395104,55.878794131253954],[-4.2890518680715966,55.878794233124786],[-4.289051969942426,55.878789445195835],[-4.289044940855238,55.87878964893749],[-4.2890440240177785,55.878774470184],[-4.289049830655021,55.87877457205483],[-4.2890497287841916,55.87877049722167],[-4.289043718405292,55.87877049722167],[-4.289042903438661,55.878757559626415],[-4.289048200721759,55.878757559626415],[-4.289047793238444,55.878753688534914],[-4.289041680988715,55.8787535866641],[-4.289041375376229,55.87874024158552],[-4.289046672659326,55.87874013971469],[-4.289046672659326,55.87873555552739],[-4.289040866022084,55.87873545365657],[-4.289039847313797,55.878724044123736],[-4.289045755821868,55.878724044123736],[-4.289045755821868,55.87872047864473],[-4.289039439830482,55.878720580515555],[-4.28903872673468,55.878706216728695],[-4.289044431501093,55.87870631859953],[-4.289044227759436,55.878702141895545],[-4.289038115509707,55.87870224376638],[-4.289036689318103,55.8786903248794],[-4.289042903438661,55.8786903248794],[-4.289042699697004,55.878686351917075],[-4.2890360780931305,55.878686351917075],[-4.289034346289041,55.87867484051342],[-4.289039439830482,55.87867433115928],[-4.289038217380536,55.87867137690524],[-4.289032818226608,55.87867178438856],[-4.2890275209435105,55.87866465343054],[-4.289019575018862,55.87865833743915],[-4.289023751722844,55.87865640189341],[-4.289020186243835,55.87865365138103],[-4.289015907669026,55.87865579066844],[-4.289008369227694,55.87865202144777],[-4.289001238269677,55.87864978028953],[-4.2890039887820555,55.87864723351881],[-4.288999506465587,55.878645603585554],[-4.288996450340723,55.87864794661461],[-4.288987180095301,55.87864550171472],[-4.288978113591537,55.878644584877264],[-4.288978113591537,55.87864173249405],[-4.28897179760015,55.878641834364885],[-4.288972205083465,55.87864468674809],[-4.288954785171739,55.87864468674809],[-4.288954275817595,55.8786422418482],[-4.288948571051181,55.8786422418482],[-4.288949284146983,55.87864509423141],[-4.28893919893493,55.87864723351881],[-4.288931354881112,55.878650798997825],[-4.288928502497906,55.8786482522271],[-4.288924733277239,55.87864998403119],[-4.288927280047959,55.87865232706025],[-4.2889189266399965,55.87865630002258],[-4.288912203165295,55.878660069243246],[-4.28890843394463,55.8786588467933],[-4.2889053778197646,55.87866210665982],[-4.288909860136232,55.878663430980595],[-4.2889053778197646,55.8786677095554],[-4.288902321694901,55.878673006838504],[-4.288896718799315,55.87867290496767],[-4.288896209445172,55.87867647044668],[-4.288901608599099,55.87867677605917],[-4.28890150672827,55.87869368661675],[-4.288895190736884,55.87869378848758],[-4.288895190736884,55.87869786332073],[-4.288901608599099,55.87869755770824],[-4.288902321694901,55.87871090278682],[-4.2888968206701445,55.87871110652848],[-4.288896718799315,55.878715385103284],[-4.288902627307388,55.878715486974116],[-4.28890405349899,55.878727405861085],[-4.288897839378433,55.878727405861085],[-4.288898246861748,55.87873158256507],[-4.288904562853134,55.87873137882341],[-4.288905581561423,55.878744927643645],[-4.288899774924181,55.878744927643645],[-4.288899978665838,55.87874910434763],[-4.2889060909155665,55.878749002476795],[-4.288906396528053,55.87876051388045],[-4.288901608599099,55.87876051388045],[-4.28890150672827,55.87876469058443],[-4.288907313365512,55.87876489432609],[-4.288907822719657,55.87878109178787],[-4.288898246861748,55.878781193658696],[-4.28888867100384,55.87878211049616],[-4.2888882635205245,55.87877915624212],[-4.288882049399968,55.878779563725445],[-4.28888266062494,55.87878292546279],[-4.288873492250347,55.87878414791273],[-4.288866157550673,55.878785675975166],[-4.2888632032966365,55.87878302733362],[-4.288856174209449,55.87878516662103],[-4.288859230334313,55.87878801900423],[-4.28885006195972,55.87879087138744],[-4.288842625389217,55.87879402938313],[-4.288837837460263,55.87879097325826],[-4.288832438306335,55.878793214416504],[-4.288836207527002,55.87879596492888],[-4.2888261223149495,55.878800345374515],[-4.288817667036158,55.878805846399274],[-4.288812879107204,55.8788038089827],[-4.288808396790736,55.87880686510756],[-4.2888132865905195,55.878808902524135],[-4.2888053406658715,55.87881450541972],[-4.288799126545315,55.87882102515277],[-4.288624927428046,55.878824896244254],[-4.2886203432407495,55.87881206051983],[-4.288607100033004,55.87878954706667],[-4.2885831603882325,55.8787624494262],[-4.288588253929673,55.87876071762211],[-4.288584382838178,55.87875766149725],[-4.288579085555081,55.878759698913825],[-4.288565740476506,55.87874757628519],[-4.2885703246638025,55.87874574261027],[-4.2885660460889925,55.87874258461458],[-4.288561563772524,55.87874441828949],[-4.2885539234603645,55.878738102298115],[-4.288545570052401,55.87873280501501],[-4.288550154239697,55.878730767598434],[-4.2885452644399145,55.87872760960275],[-4.288540782123446,55.87872974889015],[-4.2885317156196825,55.87872414599457],[-4.288522649115919,55.87871945993644],[-4.2885268258199,55.87871701503655],[-4.28852254724509,55.87871497761997],[-4.288518472411937,55.87871701503655],[-4.288508896554029,55.8787112083993],[-4.288497894504517,55.87870642047035],[-4.2885023768209845,55.87870336434549],[-4.288496875796229,55.87870112318725],[-4.288492087867275,55.878703873699635],[-4.288479965238646,55.878698270804044],[-4.2884717137015125,55.87869501093753],[-4.288475177309692,55.878691751071],[-4.2884695744141075,55.878689815525256],[-4.288466212676756,55.87869297352095],[-4.28844706096094,55.87868523133796],[-4.288412628620802,55.87867524799673],[-4.288384002917905,55.87866893200535],[-4.288359961402306,55.87866516278468],[-4.288359961402306,55.87866088420987],[-4.288354358506721,55.87866078233904],[-4.288354154765064,55.878664042205564],[-4.288348653740308,55.878663430980595],[-4.288349774319424,55.878617487236795],[-4.288198598009467,55.878614431111934],[-4.288196560592891,55.878659356147445],[-4.28815978522369,55.87866312536811],[-4.28812637159184,55.87866984884281],[-4.288100496401322,55.87867585922171],[-4.288077982948154,55.87868268456724],[-4.288048236666141,55.87869297352095],[-4.288022157733965,55.87870407744129],[-4.2880001536349415,55.878715181361635],[-4.287974380315252,55.87873005450264],[-4.287957062274354,55.878742788356234],[-4.287950950024626,55.87874024158552],[-4.287945448999869,55.87874462203116],[-4.287952681828715,55.87874757628519],[-4.287942087262519,55.878755827822324],[-4.287935363787818,55.87876194007205],[-4.287928945925603,55.87875949517216],[-4.287924361738306,55.87876306065117],[-4.287931085213008,55.87876570929272],[-4.287924463609135,55.87877202528411],[-4.287919879421838,55.878778137533835],[-4.287914174655424,55.87877650760058],[-4.287910609176416,55.878780480562895],[-4.28791712890946,55.87878200862533],[-4.287911526013875,55.878788426487546],[-4.2879073493098945,55.87879514996225],[-4.287900523964364,55.878794131253954],[-4.287898180935301,55.87879912292457],[-4.287904293185029,55.878800039762034],[-4.2879002183518775,55.87880706884921],[-4.287896958485356,55.87881379232392],[-4.28789135558977,55.87881328296977],[-4.287889318173194,55.87881684844878],[-4.28789573603541,55.87881756154459],[-4.287892068685572,55.87882448876094],[-4.287889623785682,55.878831517848134],[-4.28788361340678,55.878831110364814],[-4.2878831040526375,55.87883498145631],[-4.28788891068988,55.8788352870688],[-4.287886771402474,55.87884160306019],[-4.287885548952528,55.87884781718074],[-4.287879946056943,55.87884771530992],[-4.287879742315286,55.87885229949721],[-4.287885345210871,55.878852095755555],[-4.287884122760925,55.87886106038849],[-4.287884632115069,55.87887012689225],[-4.287885752694186,55.87888876925392],[-4.287890438752311,55.87890730974477],[-4.287884122760925,55.87890792096974],[-4.287884835856726,55.87891219954456],[-4.287892068685572,55.87891169019041],[-4.287894717327122,55.87891841366511],[-4.287897467839499,55.8789247296565],[-4.287890846235626,55.878925239010634],[-4.287892170556401,55.87892931384379],[-4.287899199643589,55.87892870261882],[-4.287902663251769,55.87893532422269],[-4.287907247439065,55.87894153834325],[-4.287901440801823,55.87894245518071],[-4.2879034782184,55.8789463262722],[-4.287909081113984,55.87894530756392],[-4.287913359688794,55.878951827296966],[-4.287918351359405,55.878958143288344],[-4.28791285033465,55.87895916199663],[-4.2879159064595145,55.87896242186315],[-4.287921203742613,55.878960995671555],[-4.287925482317422,55.878966802308796],[-4.287930983342179,55.87897199772107],[-4.287925482317422,55.87897332204184],[-4.287929047796431,55.87897719313334],[-4.287934854433673,55.878975665070904],[-4.28794117042506,55.878981471708144],[-4.287948199512248,55.87898717647455],[-4.287942189133348,55.87898901014948],[-4.287945958354014,55.87899206627434],[-4.28795145937877,55.878990028857764],[-4.287958590336787,55.87899573362418],[-4.287966434390604,55.87900062342396],[-4.287960627753362,55.879002660840534],[-4.287965313811489,55.87900581883623],[-4.287971120448731,55.879003577678],[-4.287978557019234,55.879009282444414],[-4.287986095460565,55.879013968502534],[-4.287980696306638,55.87901620966077],[-4.287985586106422,55.87901936765647],[-4.287990781518691,55.87901661714408],[-4.287998727443338,55.87902130320221],[-4.288006775238814,55.879025378035365],[-4.28800198730986,55.87902802667691],[-4.288006978980472,55.87903057344763],[-4.288011868780256,55.87902792480608],[-4.2880209352840195,55.87903301834752],[-4.288031733591874,55.879036889439014],[-4.288026640050433,55.879039741822226],[-4.288031326108558,55.87904157549715],[-4.288036012166684,55.87903882498477],[-4.288045689895421,55.87904340917206],[-4.288055775107473,55.87904677090941],[-4.288051700274321,55.87904982703427],[-4.288057506911563,55.87905196632168],[-4.288061479873886,55.87904891019682],[-4.288071972569254,55.87905257754666],[-4.2880830764895945,55.87905573554235],[-4.28808002036473,55.879058995408876],[-4.288086845710261,55.879060930954616],[-4.288089901835125,55.87905787482975],[-4.288101005755466,55.879061236567104],[-4.28811353586741,55.879063987079476],[-4.288110581613374,55.87906734881683],[-4.288117814442219,55.87906897875009],[-4.288120157471282,55.879065820754406],[-4.288129937070848,55.879068163783465],[-4.288139309187099,55.879069895587556],[-4.288137271770522,55.87907315545408],[-4.288145828920142,55.87907447977485],[-4.288147356982575,55.879071525520814],[-4.2881594796112035,55.87907376667905],[-4.288170685402373,55.879074581645675],[-4.288169361081598,55.879078350866344],[-4.28817700139376,55.879079063962145],[-4.288177918231218,55.87907560035397],[-4.2881923838889096,55.87907753589972],[-4.288206238321628,55.879078452737176],[-4.2882059327091415,55.879082120087006],[-4.288213267408816,55.8790824256995],[-4.2882137767629604,55.879079063962145],[-4.288227936808165,55.879079777057946],[-4.288242606207514,55.87907987892878],[-4.288242809949172,55.87908344440778],[-4.288249940907189,55.879083546278615],[-4.288250144648846,55.879079777057946],[-4.288278974093401,55.879079777057946],[-4.288279177835058,55.87908375002027],[-4.288286308793075,55.879083546278615],[-4.288286308793075,55.87907967518712],[-4.28829965387165,55.87907947144546],[-4.28831157275862,55.879078554608],[-4.288312998950223,55.87908222195784],[-4.288319518683267,55.879081916345356],[-4.288318601845808,55.87907804525386],[-4.288332761891013,55.879076720933085],[-4.2883452920029566,55.87907478538734],[-4.288347329419533,55.879078350866344],[-4.288352932315118,55.879077332158055],[-4.288351098640199,55.87907386854988],[-4.288376871959888,55.87907020120004],[-4.288379113118122,55.87907305358325],[-4.288385530980337,55.87907162739164],[-4.28838278046796,55.87906857126678],[-4.288404886437812,55.87906429269197],[-4.288407738821019,55.87906755255849],[-4.288412934233288,55.87906612636689],[-4.288410285591739,55.879063070242026],[-4.288436364523915,55.87905573554235],[-4.28843931877795,55.879058893538044],[-4.288444310448562,55.87905705986312],[-4.288441356194526,55.879054105609086],[-4.2884617303602885,55.87904677090941],[-4.288465295839297,55.879049725163455],[-4.288470389380738,55.87904738213438],[-4.28846682390173,55.87904473349284],[-4.288489744838212,55.87903546324742],[-4.288494023413022,55.87903831563062],[-4.288497894504517,55.87903638008488],[-4.288493514058878,55.87903373144332],[-4.288504719850048,55.87902894351437],[-4.288515008803757,55.879023646231275],[-4.288518574282766,55.8790258873895],[-4.2885231584700625,55.879023646231275],[-4.288518981766082,55.87902109946055],[-4.2885288632364755,55.879016107789944],[-4.288537420386096,55.879010606765185],[-4.288541800831735,55.879012644181756],[-4.288545570052401,55.879009995540216],[-4.288541087735933,55.87900816186529],[-4.288558405776832,55.87899614110749],[-4.28856451802656,55.87899838226572],[-4.288567472280596,55.87899583549501],[-4.288562174997497,55.87899379807843],[-4.288576640655188,55.878980860483175],[-4.288582854775746,55.8789831016414],[-4.288584994063151,55.878980147387374],[-4.288579900521711,55.878978823066596],[-4.288592736246141,55.87896537611719],[-4.288598644754212,55.87896670043797],[-4.288601089654104,55.87896344057145],[-4.288595588629347,55.87896242186315],[-4.288603534553995,55.878952438521935],[-4.2886139253785345,55.87893919531419],[-4.2886217694323525,55.878925035268985],[-4.288626862973794,55.87891077335295],[-4.288630937806945,55.878896613307745],[-4.288803303249296,55.87889325157039],[-4.2888174632945,55.878904151749076],[-4.288812980978033,55.87890649477814],[-4.288818074519473,55.87890904154886],[-4.2888234736734,55.878906800390624],[-4.2888295859231285,55.87891169019041],[-4.288839467393524,55.878915357540244],[-4.288836207527002,55.87891810805262],[-4.288842727260045,55.8789201454692],[-4.288846190868226,55.87891719121516],[-4.288857396659394,55.87892177540246],[-4.288869926771338,55.878924627785665],[-4.288867278129789,55.87892778578136],[-4.288874612829464,55.87892890636048],[-4.2888767521168685,55.8789261558481],[-4.288888161649696,55.87892798952302],[-4.288900080536667,55.8789290082313],[-4.288900080536667,55.878932573710316],[-4.288907415236341,55.87893236996866],[-4.288907313365512,55.87892890636048],[-4.288922797731492,55.87892849887716],[-4.288923510827293,55.87894225143905],[-4.288917194835907,55.87894245518071],[-4.288917194835907,55.87894653001386],[-4.288923816439779,55.87894642814303],[-4.288924223923095,55.878959263867465],[-4.2889182135441954,55.87895936573829],[-4.288918519156682,55.878963644313096],[-4.288924835148068,55.87896354244228],[-4.288925751985527,55.87897597068339],[-4.2889204547024296,55.87897597068339],[-4.288920760314916,55.87897984177488],[-4.288925853856356,55.87897984177488],[-4.2889263632105,55.87899145504937],[-4.288920964056573,55.87899145504937],[-4.288921167798231,55.87899603923666],[-4.288927789402104,55.87899603923666],[-4.288927891272933,55.87900877309027],[-4.28892300147315,55.87900877309027],[-4.288923205214807,55.87901284792342],[-4.2889290118520496,55.87901284792342],[-4.288930132431167,55.87901977513978],[-4.28893329042686,55.87902486868122],[-4.288927789402104,55.87902649861448],[-4.288930845526967,55.87902935099768],[-4.288935939068409,55.87902782293526],[-4.288941949447309,55.87903352770167],[-4.288948163567866,55.87903739879316],[-4.288944190605542,55.87903994556388],[-4.2889489785344965,55.87904228859295],[-4.288953053367649,55.87904014930554],[-4.288960591808981,55.879043816655376],[-4.288969862054403,55.87904666903858],[-4.2889689452169435,55.87904911393847],[-4.288975770562474,55.87905013264677],[-4.288976279916619,55.87904799335936],[-4.288985957645355,55.8790492158093],[-4.288997876532327,55.8790492158093],[-4.288997978403155,55.879052373804996],[-4.289004600007028,55.879052373804996],[-4.289004498136199,55.87904911393847],[-4.289013157156647,55.87904860458433],[-4.289019880631349,55.879046567167755],[-4.289022936756214,55.87904982703427],[-4.289028335910141,55.87904860458433],[-4.289025789139421,55.879045446588634],[-4.289038217380536,55.879041371755484],[-4.289046265176013,55.87903811188896],[-4.28905074749248,55.8790403530472],[-4.289054618583974,55.879038010018135],[-4.289050340009164,55.87903587073073],[-4.289056554129722,55.87903108280178],[-4.2890604252212166,55.879025581777015],[-4.289065722504315,55.87902619300199],[-4.2890669449542616,55.87902313687712],[-4.289062157025306,55.879022525652154],[-4.289065111279342,55.879016820885745],[-4.289064805666856,55.879008874961094]]]}},{"type":"Feature","id":4,"properties":{"fid":4,"stop":"botanic","osmId":"way/43059929","name":"West Lodge","height":11,"base":0},"geometry":{"type":"Polygon","coordinates":[[[-4.290019403051423,55.87820661071342],[-4.290019403051423,55.87812825243954],[-4.2899576370349894,55.878128466533184],[-4.289956673613589,55.87810459509182],[-4.289867503610662,55.87810470213865],[-4.289850697259569,55.87809624543969],[-4.289813016778139,55.87809613839286],[-4.2898008134404035,55.87810566556004],[-4.289791393320047,55.87810566556004],[-4.289791821507336,55.878140991011385],[-4.289765916176353,55.878140348730454],[-4.289766986644575,55.87816550473367],[-4.289792891975559,55.87816593292097],[-4.289793427209669,55.87820714594753],[-4.289820831196163,55.87820736004117],[-4.289820831196163,55.878210357352195],[-4.289842026466967,55.878210357352195],[-4.289842026466967,55.87820736004117],[-4.290019403051423,55.87820661071342]]]}},{"type":"Feature","id":5,"properties":{"fid":5,"stop":"botanic","osmId":"way/43059933","name":"The Botanic Gardens Tearooms","height":11,"base":0},"geometry":{"type":"Polygon","coordinates":[[[-4.288950618964972,55.87944105795234],[-4.288953287931727,55.87943604029485],[-4.289027058172814,55.87945290816474],[-4.289063569638012,55.879402945107095],[-4.289058231704503,55.87940209103773],[-4.289067519708808,55.87938981379067],[-4.288999087401229,55.879374547300834],[-4.289025990586112,55.87933590066223],[-4.288945067514123,55.87931839224032],[-4.288946135100826,55.87931252051346],[-4.288847490089589,55.8792912755381],[-4.288822722078109,55.879328000520644],[-4.288773506331161,55.8793166841016],[-4.2887175647879925,55.879390988136045],[-4.28879816758397,55.87940871007528],[-4.288812686763114,55.87938895972131],[-4.288869909410324,55.879401770761724],[-4.288858486232616,55.879421094081025],[-4.288950618964972,55.87944105795234]]]}},{"type":"Feature","id":6,"properties":{"fid":6,"stop":"unitower","osmId":"way/182262745","name":"","height":4.7,"base":0},"geometry":{"type":"Polygon","coordinates":[[[-4.286570817459651,55.87164547451223],[-4.28646665497994,55.87163390090337],[-4.286665335265315,55.871171159594866],[-4.286794878466204,55.871184256046995],[-4.286845335339905,55.871078976815554],[-4.287109497885917,55.87112202251866],[-4.287093761838788,55.871173596144104],[-4.287276807599918,55.87119501747277],[-4.2871434065294105,55.871521718115766],[-4.287117112102271,55.87151877395211],[-4.287111528343611,55.871532682587315],[-4.287124726318623,55.87153430695347],[-4.287114980121692,55.871558570922915],[-4.28710178214668,55.871556946556765],[-4.287096299910906,55.87157055062331],[-4.287110005500341,55.87157227651235],[-4.287099954734755,55.871597251141985],[-4.287087162851281,55.871595626775836],[-4.287082492798585,55.87160740343046],[-4.287095487727828,55.871609027796616],[-4.287084624779164,55.87163603288395],[-4.287070107006651,55.87163420547203],[-4.2870652339081845,55.8716462866953],[-4.28707914254339,55.871648012584345],[-4.287074777059347,55.87165897705589],[-4.287101274532256,55.871662327311086],[-4.287104827833221,55.87165339329724],[-4.287182289794254,55.87166334253993],[-4.287178228878866,55.87167319025975],[-4.287126249161895,55.87175745425406],[-4.286977213567142,55.87173816490596],[-4.286937213550567,55.87182181976297],[-4.286608787018532,55.87177674360216],[-4.286633863171056,55.87172364713346],[-4.286538939273853,55.8717113628644],[-4.286570817459651,55.87164547451223]]]}},{"type":"Feature","id":7,"properties":{"fid":7,"stop":"unitower","osmId":"way/532960731","name":"","height":20.7,"base":0},"geometry":{"type":"Polygon","coordinates":[[[-4.28711691829976,55.87113056531821],[-4.2872208417598445,55.87093906820495],[-4.286930019569678,55.87090085053133],[-4.286850620819939,55.870892266882706],[-4.286541507283308,55.870845772119345],[-4.286508092365464,55.87091730252452],[-4.2864572035915,55.87091709815193],[-4.286436970705466,55.87095163711899],[-4.286182629021938,55.87121292747046],[-4.286291866169262,55.871232853797615],[-4.286629489681668,55.87127791795287],[-4.286669853267443,55.87118002348408],[-4.286744142702528,55.87099956249046],[-4.286929815197092,55.87102541562262],[-4.286851029565111,55.87108723832994],[-4.28711691829976,55.87113056531821]]]}},{"type":"Feature","id":8,"properties":{"fid":8,"stop":"unitower","osmId":"way/25302409","name":"John McIntyre Building","height":4.7,"base":0},"geometry":{"type":"Polygon","coordinates":[[[-4.2890160628995675,55.87237257832816],[-4.2890125730378,55.87238027655265],[-4.2889919417961755,55.87237729990584],[-4.288995431657943,55.87236970432435],[-4.288596868915509,55.872313045392126],[-4.288594508126666,55.872318280184786],[-4.288573876885042,55.872315303537974],[-4.288576545602863,55.87230935024438],[-4.288499768643982,55.872298470087095],[-4.288496997283166,55.8723045260237],[-4.288472773536781,55.87230103616193],[-4.288475647540589,55.87229487758234],[-4.288399383796672,55.872283997425065],[-4.28839702300783,55.87228933486071],[-4.288383268846747,55.87228738464384],[-4.288486425054871,55.87205900398406],[-4.288527174323154,55.87206434141971],[-4.28853025361295,55.87205530883631],[-4.288554374716342,55.8720583881261],[-4.288578495819733,55.872052024260526],[-4.288626943312504,55.87205900398406],[-4.288649730056985,55.872072450216166],[-4.288686476248536,55.87207809558078],[-4.288683089029762,55.87208620437725],[-4.289117166247828,55.87214871396008],[-4.2890160628995675,55.87237257832816]]]}},{"type":"Feature","id":9,"properties":{"fid":9,"stop":"unitower","osmId":"way/533970261","name":"","height":14.3,"base":0},"geometry":{"type":"Polygon","coordinates":[[[-4.28741638776187,55.87172353474997],[-4.2873933729941065,55.871720645003336],[-4.287398946076883,55.87170712511735],[-4.287418451866602,55.871709602043026],[-4.287428359569316,55.87168534881242],[-4.287474285899605,55.87157326792546],[-4.28748326475519,55.87155118200483],[-4.287464791017837,55.87154880828439],[-4.287470880126797,55.87153404993556],[-4.287489766685097,55.871536526861235],[-4.287494101305034,55.87152610313234],[-4.2875141231209355,55.87152868326325],[-4.2875096852957615,55.8715395198131],[-4.287582238577095,55.87154880828439],[-4.287586160376086,55.871539106992145],[-4.287605666165805,55.87154168712306],[-4.287601331545868,55.87155200764673],[-4.287670169438683,55.87156088329708],[-4.287674297648148,55.87155087238912],[-4.287697312415911,55.871553865340985],[-4.28769308100121,55.87156397945417],[-4.287759545173585,55.87157254548881],[-4.287763776588285,55.871562328170384],[-4.287786172124629,55.87156521791701],[-4.287782043915165,55.871575435235435],[-4.287849024113722,55.87158410447531],[-4.28785304911795,55.87157440318307],[-4.28787554785953,55.8715772929297],[-4.287871110034355,55.8715880262743],[-4.287939328695752,55.871596798719416],[-4.2879432504947435,55.87158730383765],[-4.28796461397872,55.87159009037903],[-4.287960485769256,55.871600410902694],[-4.288025608273554,55.871608770526855],[-4.288030252509202,55.8715973147456],[-4.288053473687438,55.871600307697456],[-4.2880488294517916,55.87161166027349],[-4.28811880260221,55.8716207423343],[-4.288123034016911,55.871610318605406],[-4.28815193148316,55.87161403399393],[-4.288146977631802,55.871626005801375],[-4.2881679282948335,55.87162868913752],[-4.288161839185874,55.871643447486356],[-4.288139753265241,55.8716404545345],[-4.288127781457795,55.87166862956409],[-4.288069264088639,55.87181208484297],[-4.288064929468701,55.87182271498234],[-4.28803819931242,55.871819309209535],[-4.288042637137595,55.87180836945445],[-4.287969671035314,55.87179897777792],[-4.287965542825851,55.87180909189111],[-4.287943766520926,55.87180620214449],[-4.2879479979356265,55.871795984826065],[-4.287884320304641,55.871787831612366],[-4.2878805017108865,55.8717972232889],[-4.287856867711704,55.8717941271318],[-4.287860995921168,55.87178401301861],[-4.287792261233589,55.87177513736827],[-4.28778854584507,55.871784425839564],[-4.28776666633491,55.87178153609294],[-4.287770691339138,55.87177162839022],[-4.28770494960342,55.87176316556082],[-4.287700614983482,55.871773795700186],[-4.287676258547644,55.87177069954309],[-4.287681005988527,55.87175924376183],[-4.287616089894702,55.87175088413767],[-4.287611652069528,55.87176161748227],[-4.287586573197033,55.8717583149147],[-4.28759121743268,55.87174696233867],[-4.287526301338855,55.871738602714515],[-4.287521966718918,55.87174933605911],[-4.28750091285065,55.87174665272297],[-4.287505350675824,55.8717360225836],[-4.287437751245847,55.871727250138484],[-4.287433519831146,55.87173757066214],[-4.2874117435262225,55.871734784120754],[-4.28741638776187,55.87172353474997]]]}},{"type":"Feature","id":10,"properties":{"fid":10,"stop":"unitower","osmId":"way/533970271","name":"","height":14.3,"base":0},"geometry":{"type":"Polygon","coordinates":[[[-4.288573263697234,55.87187943657526],[-4.288568826139969,55.87189140765998],[-4.2885913235233115,55.871894297232146],[-4.288595451483558,55.871884390127555],[-4.288665523608739,55.87189347164009],[-4.288660982852469,55.87190441073475],[-4.288682551444756,55.87190719710792],[-4.288686885803015,55.8718968772073],[-4.2887565451321725,55.87190595871985],[-4.288752417171927,55.87191596902344],[-4.288772850575145,55.8719186521976],[-4.288776772137379,55.871909261088035],[-4.288844883481445,55.87191813620257],[-4.288841065118216,55.871927424113125],[-4.288862014516467,55.871930107287284],[-4.288865832879695,55.87192081937673],[-4.2889308482535755,55.87192928169523],[-4.288927029890347,55.871938363207775],[-4.288950456064746,55.87194145917796],[-4.288954687223998,55.87193144887436],[-4.28902424335415,55.8719405303869],[-4.289020115393904,55.871950540690506],[-4.28904302557327,55.871953533461685],[-4.289046740737493,55.87194455514815],[-4.28911640006665,55.87195363666069],[-4.2891122721064034,55.87196354376528],[-4.289135595081795,55.87196663973547],[-4.289139516644029,55.87195704222789],[-4.289213303933433,55.871966742934475],[-4.289209175973187,55.87197654684006],[-4.289230022172431,55.87197923001422],[-4.289233943734665,55.87196983890466],[-4.28925664751602,55.87197283167583],[-4.289262323461359,55.87195910620802],[-4.289240858068077,55.871956319834844],[-4.28925396434186,55.871924740938965],[-4.289294727949293,55.87182659868411],[-4.289307318228045,55.871796258176296],[-4.289328577223313,55.87179904454946],[-4.2893346659646765,55.8717845966886],[-4.289315677347543,55.87178211991245],[-4.289319598909777,55.871772522404875],[-4.2892948311482995,55.87176932323569],[-4.289290909586065,55.871778817544254],[-4.289218051087716,55.87176922003668],[-4.289222282246969,55.871759106534086],[-4.2891997848636265,55.871756216961906],[-4.2891954505053675,55.87176643366352],[-4.289126100773228,55.87175745534998],[-4.289130538330494,55.871746722653334],[-4.289108247345164,55.87174383308117],[-4.289103809787898,55.871754565777806],[-4.289034356856753,55.87174558746427],[-4.289038484817,55.87173557716068],[-4.289015471438626,55.8717325843895],[-4.289011240279374,55.871742594693096],[-4.288946121706487,55.871734132374584],[-4.288950559263752,55.871723399677954],[-4.288927133089354,55.87172040690677],[-4.288922901930102,55.871730417210365],[-4.2888602601333625,55.871722161289874],[-4.288864697690627,55.87171142859324],[-4.288837556352007,55.871707919827024],[-4.288833531590767,55.871717723732615],[-4.288770373798998,55.87170946781212],[-4.2887747081572565,55.8716991479115],[-4.2887522107739136,55.87169625833933],[-4.288748082813668,55.87170606224491],[-4.288677185096437,55.87169677433436],[-4.288681313056682,55.87168686722977],[-4.288656132499179,55.87168356486157],[-4.2886524173349585,55.8716924399761],[-4.288631158339689,55.871689653602935],[-4.28862496639932,55.871704617458825],[-4.288645296603533,55.87170719743398],[-4.288632809523788,55.87173733154378],[-4.288573263697234,55.87187943657526]]]}},{"type":"Feature","id":11,"properties":{"fid":11,"stop":"unitower","osmId":"way/533970256","name":"","height":11.1,"base":0},"geometry":{"type":"Polygon","coordinates":[[[-4.287331575845659,55.871554945001336],[-4.287134373432883,55.87152832369951],[-4.28726891339674,55.87119883389457],[-4.28732737787114,55.87105292868262],[-4.287316422181542,55.87105129044867],[-4.287326865923029,55.871048218759995],[-4.287335671430556,55.871043918395856],[-4.287342838704125,55.87103521527795],[-4.287343657821105,55.871026102601554],[-4.287342019587146,55.87102118789967],[-4.287545570156512,55.87104709247415],[-4.287536662259361,55.87106910624296],[-4.287527140024476,55.871092655856124],[-4.287503692800943,55.871150608382415],[-4.287492737111344,55.8711779464116],[-4.2874843411623065,55.87119873150495],[-4.287507685996217,55.87120200797286],[-4.28751966558204,55.8712085609087],[-4.287527242414099,55.87121552340302],[-4.287528266310324,55.87122422652093],[-4.287524170725426,55.87123211052186],[-4.287513522204695,55.8712382538992],[-4.287499392436802,55.87124193992561],[-4.2874856722273975,55.87124193992561],[-4.2874668325368726,55.87123999452278],[-4.287460381990661,55.87125473862841],[-4.287446559391634,55.871285967463244],[-4.287433453519965,55.871315865232994],[-4.287424545622814,55.87133613837823],[-4.2874438972614515,55.87133849333955],[-4.287451678872755,55.87133951723577],[-4.287463044120844,55.87134453432727],[-4.287471235290636,55.87135108726311],[-4.287471952017993,55.871359585601766],[-4.287468880329321,55.87136746960269],[-4.28745823180859,55.871373817759284],[-4.287442770975605,55.871378118123424],[-4.287425979077528,55.871378118123424],[-4.287408060893605,55.871376172720595],[-4.287397821931363,55.87140023428187],[-4.287384408890826,55.87143177028557],[-4.287376217721032,55.87145112192421],[-4.287363419018231,55.87148112208358],[-4.28734980119845,55.871513067645765],[-4.287334749923954,55.87154859684475],[-4.287331575845659,55.871554945001336]]]}},{"type":"Feature","id":12,"properties":{"fid":12,"stop":"unitower","osmId":"way/533970268","name":"","height":11.1,"base":0},"geometry":{"type":"Polygon","coordinates":[[[-4.288052460714885,55.87180657627816],[-4.288075382904234,55.871809043240255],[-4.288072710361978,55.8718156218058],[-4.288098202303495,55.871819116668746],[-4.288100463685403,55.87181233252302],[-4.288119171481194,55.87181469669502],[-4.288133767673513,55.87181654691658],[-4.288131300711432,55.87182394780283],[-4.288155970332254,55.87182713429552],[-4.288158745664597,55.87182014456962],[-4.288182284594464,55.87182271432179],[-4.288169024673272,55.871855093199116],[-4.288209010017023,55.871860541073715],[-4.2882050012036395,55.871862391295274],[-4.288202945401904,55.87186444709701],[-4.288200375649735,55.8718669140591],[-4.288200889600168,55.87186979218152],[-4.288204487253205,55.871871436822914],[-4.288209318387283,55.87187246472378],[-4.28821353278084,55.87187267030396],[-4.288214355101535,55.8718808935109],[-4.288215280212315,55.87188726649627],[-4.288217644384311,55.87189384506183],[-4.288214663471795,55.8718955924933],[-4.288213738361014,55.871898881776076],[-4.2882147662618815,55.87190196547868],[-4.288218363914918,55.871904226860586],[-4.2882236062093435,55.87190474081102],[-4.288228437343421,55.871904432440765],[-4.288232240576631,55.87190854404423],[-4.288239127512444,55.87191378633866],[-4.288246631188778,55.87191851468265],[-4.288254546025458,55.87192262628612],[-4.288253929284937,55.87192735463011],[-4.288253826494851,55.87193064391289],[-4.28825639624702,55.87193300808488],[-4.288260713430664,55.871933830405574],[-4.288265544564742,55.87193331645514],[-4.288271198019513,55.871931569023666],[-4.288282299348883,55.8719336248254],[-4.28829257835756,55.87193475551636],[-4.288302754576149,55.87193537225687],[-4.288310052672309,55.87193557783705],[-4.288314164275779,55.87193896990992],[-4.288319714940465,55.871939792230606],[-4.288324957234889,55.87193814758922],[-4.288327629777145,55.87193506388662],[-4.288328143727579,55.871931877393926],[-4.288335647403912,55.87193064391289],[-4.288344384561288,55.871928588111146],[-4.2883519910277075,55.871926532309416],[-4.288360830975169,55.87192324302664],[-4.288364839788553,55.87192499045811],[-4.288370801613585,55.8719259155689],[-4.288375632747663,55.87192529882837],[-4.28837984714122,55.87192242070594],[-4.2883806694619135,55.87191923421325],[-4.2883789220304385,55.87191645888092],[-4.28840235817022,55.871900937577806],[-4.288408011624992,55.87190052641746],[-4.288412739968984,55.871898676195904],[-4.288415412511239,55.871895695283385],[-4.288415720881499,55.87189158367991],[-4.288413356709504,55.871888088816966],[-4.2884531364730805,55.87189199484027],[-4.288464751752885,55.8718614661845],[-4.288494046927612,55.87186537220779],[-4.288490963225009,55.8718722591436],[-4.288514810525137,55.87187513726604],[-4.288517380277306,55.871868969860834],[-4.288527145335548,55.87187030613195],[-4.288538041084745,55.87187174519317],[-4.288535882492923,55.87187811817855],[-4.288556543300363,55.871880276770376],[-4.288558496312011,55.871874623315605],[-4.288592725410902,55.87187883770916],[-4.288652035290964,55.87173729575969],[-4.28858326872292,55.87172722233118],[-4.288523033732078,55.87171848517381],[-4.288558290731837,55.87163388893241],[-4.288564972087476,55.87163378614232],[-4.288562916285741,55.87162885221816],[-4.28856229954522,55.87162319876339],[-4.288564046976696,55.871616825778005],[-4.288431139394514,55.87159832356239],[-4.288287130482961,55.87157827949547],[-4.288283327249751,55.87158537201145],[-4.288278598905761,55.87159020314554],[-4.288272534290641,55.871594314749004],[-4.288278187745413,55.8715951370697],[-4.288243444696088,55.87168158353266],[-4.288178892521602,55.87167284637528],[-4.288110742694079,55.87166369805757],[-4.288052460714885,55.87180657627816]]]}},{"type":"Feature","id":13,"properties":{"fid":13,"stop":"unitower","osmId":"way/533970282","name":"","height":7.9,"base":0},"geometry":{"type":"Polygon","coordinates":[[[-4.289590931064533,55.87134109987027],[-4.2895985234676335,55.871323760463184],[-4.289243629922669,55.87127512804332],[-4.289097117062822,55.87125512103515],[-4.289092294860851,55.871266304439715],[-4.289073211253056,55.87126363683863],[-4.289077110054649,55.8712545054349],[-4.288831280354233,55.87122085262115],[-4.2888787841736375,55.8711117887766],[-4.288957786205908,55.87112266438104],[-4.2889614798074165,55.87111414857757],[-4.2889837440165115,55.871117226578825],[-4.288980153015045,55.871125537182216],[-4.289123074873425,55.87114513379022],[-4.289127076275059,55.87113589978645],[-4.289145954682771,55.8711384647875],[-4.289141953281136,55.87114759619123],[-4.2892078225080414,55.87115662499492],[-4.289212131709802,55.87114667279085],[-4.289232138717974,55.87114944299198],[-4.289236447919735,55.87113949078791],[-4.289255428927488,55.871142158389006],[-4.289252966526482,55.87114759619123],[-4.289278000936708,55.871151084592654],[-4.289275948935869,55.87115580419458],[-4.289297289744587,55.871158676995755],[-4.2893179123530105,55.87116154979693],[-4.289319964353849,55.871156830195],[-4.289340792162356,55.871159702996174],[-4.2893434597634466,55.87115375219374],[-4.289362851171367,55.87115641979483],[-4.289358541969607,55.871166371998896],[-4.2893765995769835,55.8711688343999],[-4.2893725981753485,55.87117806840367],[-4.289415997993076,55.871184019206105],[-4.289419691594585,55.87117550340263],[-4.289436312801374,55.87117776060355],[-4.289432516599824,55.87118658420715],[-4.289478173618473,55.87119284280971],[-4.289482380220192,55.871183301005814],[-4.2895032080287,55.87118617380698],[-4.289499001426981,55.87119592081097],[-4.289543119445002,55.87120197421344],[-4.28954722344668,55.871192535009584],[-4.289567640855019,55.87119540781076],[-4.289563639453385,55.87120464181453],[-4.289607347071239,55.871210592616954],[-4.28961124587283,55.87120156381327],[-4.289629406080249,55.87120402621428],[-4.289625302078572,55.87121336281809],[-4.289673011098061,55.87121992922077],[-4.289676396899443,55.87121223421763],[-4.28969722470795,55.871215107018806],[-4.289639460884356,55.87134776887299],[-4.289590931064533,55.87134109987027]]]}},{"type":"Feature","id":14,"properties":{"fid":14,"stop":"unitower","osmId":"way/533970266","name":"Bute Hall","height":14.3,"base":0},"geometry":{"type":"Polygon","coordinates":[[[-4.288701388199016,55.871299234668896],[-4.288700556593216,55.871305055909495],[-4.288702115854091,55.8713117087559],[-4.288705754129464,55.87131732209504],[-4.288710327961361,55.871321791976214],[-4.288717396610656,55.871326261857384],[-4.288726960077351,55.87133031593565],[-4.2887370432976715,55.87133291470378],[-4.288735172184622,55.87133894384583],[-4.288765421845581,55.871342997924096],[-4.288759600604984,55.871358070779216],[-4.288729143042576,55.87135443250384],[-4.288715733399058,55.8713905034054],[-4.288744111946968,55.87139403773004],[-4.288738602558546,55.87140921453589],[-4.288708248946862,55.871405264408345],[-4.288694735352619,55.87143977604902],[-4.288723321801979,55.871443310373664],[-4.288717292659933,55.87145796742588],[-4.288688810161298,55.87145443310124],[-4.288674257059805,55.87149154351004],[-4.288702011903365,55.87149476598252],[-4.288695878810594,55.87151077439416],[-4.288666772607609,55.87150755192169],[-4.288653466914817,55.871541128005845],[-4.288681325709102,55.87154497418267],[-4.288675608419229,55.87156035888995],[-4.288646086413346,55.87155682456531],[-4.288632260966929,55.87159185595961],[-4.288657520993089,55.87159518238281],[-4.288652115555393,55.871607656469806],[-4.288626543677056,55.87160422609588],[-4.288624984416183,55.871609111779954],[-4.288615316998762,55.87160817622343],[-4.288603466616118,55.871608384124876],[-4.288593591297249,55.871609735484306],[-4.288584651534904,55.87161202240026],[-4.288575919674009,55.87161566067563],[-4.288568643123263,55.8716201305568],[-4.288563861389916,55.871624600437976],[-4.288560223114543,55.871630005875666],[-4.288425814827191,55.87161129474518],[-4.288280179861545,55.87159102435382],[-4.288280803565894,55.871585099162495],[-4.288279348255745,55.871579277921896],[-4.288276853438346,55.871574911991445],[-4.288272799360074,55.871570442110276],[-4.288268537380351,55.87156711568708],[-4.288261260829605,55.87156316555953],[-4.28825294477161,55.87155994308706],[-4.288239535128092,55.87155713641748],[-4.288240990438241,55.87155266653631],[-4.288213547446857,55.87154944406384],[-4.288218433130929,55.87153520281452],[-4.288247643284637,55.871538841089894],[-4.288260637125256,55.87150360179414],[-4.288233194133871,55.87150037932166],[-4.288238807473018,55.87148478671293],[-4.288268641331076,55.871488736840476],[-4.288282258876044,55.87145505680559],[-4.28825190526436,55.87145069087514],[-4.288258350209308,55.871434370611325],[-4.2882892235746155,55.871439048393945],[-4.288304192479007,55.87140297749239],[-4.288273838867324,55.87139892341412],[-4.28828049171372,55.871383642657555],[-4.288311157177578,55.87138821648945],[-4.288324358919646,55.871354120651674],[-4.288295044815212,55.871349962622666],[-4.288301385809434,55.87133437001393],[-4.288331427568942,55.8713384240922],[-4.288344941163185,55.87130287294428],[-4.2883156270587515,55.871298818865995],[-4.288321552250073,55.87128239465146],[-4.288351801911031,55.871286448729734],[-4.28835325722118,55.871280627489135],[-4.2883666668646985,55.87128260255291],[-4.288378205395167,55.871282706503635],[-4.288387145157511,55.87128177094711],[-4.288395253314057,55.87128021168623],[-4.288403777273503,55.87127740501666],[-4.2884104301198995,55.871274182544184],[-4.288415731606872,55.87127085612099],[-4.288421864699643,55.87126472302822],[-4.288424151615592,55.87126098080212],[-4.288560742868167,55.87127979588333],[-4.288701388199016,55.871299234668896]]]}},{"type":"Feature","id":15,"properties":{"fid":15,"stop":"unitower","osmId":"way/533970254","name":"","height":7.9,"base":0},"geometry":{"type":"Polygon","coordinates":[[[-4.287548058828824,55.871046567181764],[-4.287560792044096,55.8710483128645],[-4.287602996491491,55.87105406334882],[-4.287948847048243,55.87110109409556],[-4.2883590824918985,55.871156853255975],[-4.288403751432572,55.87104851823894],[-4.288363087293476,55.87104348656517],[-4.2883658598484145,55.87103393665371],[-4.288350456765424,55.871031882909314],[-4.288346451963847,55.87104061132301],[-4.288304144829231,55.87103527158757],[-4.288307533507489,55.871027570046074],[-4.28828997399288,55.87102490017836],[-4.2882859691913024,55.87103290978151],[-4.288248899104905,55.871027980794956],[-4.288252390470382,55.87101914969404],[-4.288235960515192,55.87101678788799],[-4.288232058400835,55.871025105552796],[-4.288190572763979,55.87101966313014],[-4.288194166816677,55.87101031859313],[-4.288175375055428,55.87100775141263],[-4.28817178100273,55.87101730132408],[-4.288137996907371,55.871012885773624],[-4.288141180211189,55.87100261705163],[-4.2881206427672005,55.871000563307234],[-4.288117151401723,55.87101103740367],[-4.288072790522709,55.87100456810881],[-4.288076384575407,55.870994094012374],[-4.288066937351172,55.8709931698274],[-4.288068477659473,55.87098813815362],[-4.288060262681877,55.870987522030305],[-4.288062521800716,55.87097940973993],[-4.288048042902704,55.870977664057186],[-4.288045578409426,55.8709854682859],[-4.288030278013655,55.8709839279776],[-4.288028326956476,55.8709890623386],[-4.288002347089832,55.870985570973126],[-4.287975032289328,55.87098197692042],[-4.287976367223187,55.87097684255943],[-4.2879567539641785,55.87097489150225],[-4.287959218457458,55.87096739533519],[-4.2879417616300675,55.87096503352914],[-4.28793816757737,55.870976739872205],[-4.287917835507822,55.87097427537893],[-4.287914754891224,55.87098259304374],[-4.2878734746288085,55.870976739872205],[-4.287876349870967,55.870968524894614],[-4.287857455422498,55.87096585502689],[-4.287853450620921,55.87097437806615],[-4.287680422655324,55.870950965380004],[-4.2876824763997226,55.87094233965353],[-4.2876493084276825,55.870938129477516],[-4.287645817062205,55.870945831019],[-4.28760289380427,55.870940388596345],[-4.287592830456717,55.87093946441137],[-4.287548058828824,55.871046567181764]]]}},{"type":"Feature","id":16,"properties":{"fid":16,"stop":"unitower","osmId":"way/533970249","name":"","height":11.1,"base":0},"geometry":{"type":"Polygon","coordinates":[[[-4.288853284855038,55.87122224205776],[-4.288850168157171,55.87122930657293],[-4.28883458466784,55.87122712488441],[-4.288735473675687,55.871213826973516],[-4.2887172929381325,55.87125964243216],[-4.288740564282202,55.87126192801059],[-4.2887353697857575,55.87127314812291],[-4.288713033451049,55.871270239204904],[-4.288702125008516,55.87129766614612],[-4.288704098917164,55.87129964005477],[-4.288699423870365,55.871304730661286],[-4.288696618842286,55.87131034071745],[-4.28855605576851,55.87129091330075],[-4.28841954440196,55.871272109223625],[-4.288421206640822,55.87126681083725],[-4.288421102750893,55.87126140856095],[-4.288419232732173,55.87125600628464],[-4.288423492219257,55.87125559072493],[-4.288430141174706,55.87123294272043],[-4.288405519261561,55.871230864921856],[-4.288408843739285,55.87121891758003],[-4.28843440066179,55.871221410938325],[-4.2884527891792015,55.87117642659912],[-4.288350145929467,55.87116260923858],[-4.288337679138002,55.87116094699972],[-4.28834058805601,55.871152428025546],[-4.288385780175074,55.871042824150585],[-4.288388792983011,55.871032954607344],[-4.28837871565991,55.87102599398211],[-4.2883926369103795,55.87101861779715],[-4.28840375313277,55.8710245395231],[-4.288464320961308,55.871032954607344],[-4.288467749328961,55.87102464341303],[-4.288490397333457,55.871028383450465],[-4.288486865075875,55.87103575963542],[-4.288564886412464,55.87104708363766],[-4.288529563836645,55.87112822167212],[-4.28870731950496,55.87115253191548],[-4.288743265420353,55.87106993942202],[-4.288810793874125,55.87108001674512],[-4.28881411835185,55.871071393881024],[-4.288836766356346,55.87107451057889],[-4.28883271464912,55.87108323733292],[-4.288899619763319,55.87109196408694],[-4.2889191510699485,55.871087496819996],[-4.288927150594472,55.871096846913595],[-4.288906372608697,55.87110245696976],[-4.28890138589211,55.87111180706336],[-4.288853284855038,55.87122224205776]]]}},{"type":"Feature","id":17,"properties":{"fid":17,"stop":"unitower","osmId":"way/533970278","name":"","height":14.3,"base":0},"geometry":{"type":"Polygon","coordinates":[[[-4.289724865979429,55.871668306274884],[-4.289451678415839,55.87163263265284],[-4.289302159408665,55.87161174548863],[-4.289296782514908,55.8716245673122],[-4.289269587840713,55.871620948249095],[-4.289276205556106,55.87160295633537],[-4.289264314348759,55.87159788964702],[-4.289197103176792,55.87158899709196],[-4.289199584820064,55.871583206591],[-4.2891778704414305,55.87158031134051],[-4.289184281353218,55.87156521467727],[-4.289204754910217,55.871567903124145],[-4.289213233858065,55.87154804997796],[-4.28919803379302,55.87154598194191],[-4.289205582124641,55.87152819683178],[-4.289222229814928,55.87153047167145],[-4.289231639379003,55.87150844708741],[-4.289209407991352,55.871505448435116],[-4.2892149916887155,55.87149231640613],[-4.289235672049321,55.87149500485302],[-4.289238360496199,55.87148890414664],[-4.289305675069968,55.871498520514315],[-4.289321598947634,55.87149428104039],[-4.289327803055816,55.871480114993375],[-4.289356652158859,55.87148404426189],[-4.289351068461496,55.871497383094486],[-4.289506584773244,55.871518166856895],[-4.289770879781775,55.87155342687172],[-4.289766433504245,55.871563870453826],[-4.289852774009771,55.87157545145577],[-4.289854945447634,55.871570384767416],[-4.289895582356222,55.87157586506298],[-4.289893514320162,55.87158082834952],[-4.289915228698797,55.871583827001814],[-4.289910368814055,55.87159530460195],[-4.2898871034083745,55.87159220254785],[-4.2898741781829965,55.871622706079755],[-4.289915435502404,55.87162818637531],[-4.289910265412252,55.87164038778807],[-4.289866629851376,55.8716345972871],[-4.289852257000755,55.871668202873074],[-4.289878004049709,55.87167171853439],[-4.2898733509685725,55.871682575723696],[-4.2898537046259975,55.87167999067863],[-4.289851016179119,55.87168640159041],[-4.289806760207425,55.87168050768764],[-4.2898093452524995,55.87167451038306],[-4.2897258999974595,55.871663342988334],[-4.289724865979429,55.871668306274884]]]}},{"type":"Feature","id":18,"properties":{"fid":18,"stop":"unitower","osmId":"way/532960730","name":"","height":14.3,"base":0},"geometry":{"type":"Polygon","coordinates":[[[-4.286914428323397,55.870907867753075],[-4.287215338292811,55.87094741108708],[-4.287298019809355,55.870752020495544],[-4.287002713574438,55.870716600664295],[-4.286914428323397,55.870907867753075]]]}},{"type":"Feature","id":19,"properties":{"fid":19,"stop":"unitower","osmId":"way/533970281","name":"","height":11.1,"base":0},"geometry":{"type":"Polygon","coordinates":[[[-4.28976271521958,55.8715587397575],[-4.289767520634272,55.87154703961738],[-4.289777967187951,55.87152165449194],[-4.28979133877666,55.87148895677893],[-4.289826230265948,55.871493239865934],[-4.289833751784597,55.87147683877666],[-4.289798337967625,55.871472660155185],[-4.289812022952945,55.87144111156308],[-4.289846914442232,55.87144560358116],[-4.289852137719072,55.87143160519923],[-4.289817873023005,55.871427531043295],[-4.289831871404935,55.871395773520106],[-4.2898675986185175,55.8713994298139],[-4.289872821895357,55.87138678948395],[-4.289856107409471,55.87138428231107],[-4.289570080769739,55.87134615239014],[-4.2895099086205475,55.87148937464107],[-4.289495701307544,55.87152311700946],[-4.28976271521958,55.8715587397575]]]}},{"type":"Feature","id":20,"properties":{"fid":20,"stop":"unitower","osmId":"way/533970279","name":"","height":11.1,"base":0},"geometry":{"type":"Polygon","coordinates":[[[-4.289724486297602,55.87166119381998],[-4.2897169312334675,55.87167955682309],[-4.289707382471854,55.87170253680983],[-4.28969867316181,55.871722158990295],[-4.289694580835404,55.871733176792155],[-4.289729208212686,55.87173768884435],[-4.289723122188801,55.87175237924683],[-4.289689963851766,55.87174807705753],[-4.289676427695192,55.87178050087444],[-4.289708956443548,55.871784698132295],[-4.289703080282555,55.871798654014654],[-4.289669502219736,55.87179424689391],[-4.289656070994607,55.87182656577937],[-4.2896896490574274,55.87183097290011],[-4.289684822210897,55.87184262029066],[-4.289670551534199,55.87184052166173],[-4.2893805210165965,55.87180264140961],[-4.289362577739277,55.87180054278069],[-4.2893676144487,55.871788580595805],[-4.289386292246144,55.87179099401907],[-4.289419240720285,55.8717076784507],[-4.289441171392564,55.871658885328166],[-4.28943361632843,55.8716578360137],[-4.289447257416451,55.87162499247101],[-4.289724486297602,55.87166119381998]]]}},{"type":"Feature","id":21,"properties":{"fid":21,"stop":"unitower","osmId":"way/58979650","name":"","height":11.1,"base":0},"geometry":{"type":"Polygon","coordinates":[[[-4.2904410183465345,55.871448443192186],[-4.290344816569937,55.871435329536716],[-4.2903470196640585,55.871430608620734],[-4.29015912720835,55.871404905856],[-4.290157029023473,55.87140962677197],[-4.290058624152756,55.871396513116494],[-4.290103420399873,55.87128384058861],[-4.2902009859966395,55.87129894751972],[-4.290210532737829,55.87127922458188],[-4.290226269124404,55.87128174240373],[-4.290245992062245,55.87127523803062],[-4.290287641032047,55.8712806933113],[-4.290303692146354,55.87129223332812],[-4.290316386164858,55.87129359714829],[-4.290308413062327,55.87131258572143],[-4.290406083568337,55.87132695828783],[-4.290407867025483,55.87132307664581],[-4.290486234230627,55.871334301934894],[-4.290485185138189,55.87133839339541],[-4.290517182457559,55.87134206521894],[-4.290490535509624,55.87140196839717],[-4.290462944378495,55.87139850639212],[-4.2904410183465345,55.871448443192186]]]}},{"type":"Feature","id":22,"properties":{"fid":22,"stop":"unitower","osmId":"way/533970280","name":"","height":14.3,"base":0},"geometry":{"type":"Polygon","coordinates":[[[-4.289573276868588,55.87133989083811],[-4.289567316146745,55.87135421748535],[-4.2898536399433675,55.87139238701996],[-4.289861901294694,55.87137063561393],[-4.289875600497527,55.87137220422494],[-4.289880515478697,55.87136321085514],[-4.289865770535189,55.87136164224413],[-4.289879365163955,55.87133006087577],[-4.2898933780889905,55.871331629486775],[-4.28989829307016,55.87132075378376],[-4.289882920682247,55.87131897602462],[-4.2898930643667885,55.87129199591522],[-4.289910632810116,55.87129408739657],[-4.289915234069084,55.87128101563815],[-4.289900175403373,55.871279237878994],[-4.289910214513847,55.87125539499162],[-4.289926214346163,55.87125748647297],[-4.289931338475467,55.87124462386268],[-4.2899183712911055,55.871242950677605],[-4.2899225542538035,55.87123019264138],[-4.289900489125575,55.87122653254901],[-4.289894842125934,55.87124002260371],[-4.2898058495945515,55.87122736914155],[-4.289808882242507,55.87121931693836],[-4.28980020259491,55.87121816662362],[-4.289802294076259,55.87121105558703],[-4.289779810651762,55.87119024534761],[-4.289737039858183,55.87118480749611],[-4.289703053286268,55.87120091190249],[-4.28968590313921,55.87119871584707],[-4.289681615602445,55.8712114738833],[-4.289622740402483,55.871346688152485],[-4.289573276868588,55.87133989083811]]]}},{"type":"Feature","id":23,"properties":{"fid":23,"stop":"unitower","osmId":"way/533970277","name":"","height":14.3,"base":0},"geometry":{"type":"Polygon","coordinates":[[[-4.289383649297256,55.87179429555527],[-4.289673048356364,55.87183209333398],[-4.289665300335244,55.87185083516885],[-4.289670430781661,55.87185146338678],[-4.289667499097994,55.87185858318996],[-4.289676084743019,55.87185963021985],[-4.289670535484649,55.87187334631129],[-4.289654620630458,55.87187125225153],[-4.289643940925672,55.87189753270154],[-4.289659646373886,55.871899522058314],[-4.289653573600576,55.87191418047665],[-4.2896357740926,55.8719119817139],[-4.289625199090802,55.87193773864897],[-4.289641323350969,55.87193972800574],[-4.289636716419492,55.87195103592846],[-4.289619021614504,55.87194873246272],[-4.289607399582826,55.871977106972494],[-4.289623209734028,55.87197909632927],[-4.289618079287611,55.87199176539083],[-4.289605619632027,55.87199019484601],[-4.289601012700551,55.87200118865976],[-4.289579339182014,55.871998466382074],[-4.2895838414105025,55.87198747256832],[-4.2894985084752015,55.87197647875457],[-4.289494006246714,55.87198747256832],[-4.289470971589331,55.871984540884654],[-4.289475578520808,55.871973337664926],[-4.289390873803436,55.87196234385117],[-4.289386371574947,55.871973337664926],[-4.289360614639874,55.87197009187229],[-4.289365535680315,55.87195815573165],[-4.28934878320222,55.871955956968904],[-4.289353494836684,55.871944544343194],[-4.289372655483506,55.87194695251193],[-4.289375063652232,55.87194108914459],[-4.289424588165604,55.87182518293677],[-4.289373388404423,55.87181827253955],[-4.289383649297256,55.87179429555527]]]}},{"type":"Feature","id":24,"properties":{"fid":24,"stop":"unitower","osmId":"way/533970259","name":"","height":14.3,"base":0},"geometry":{"type":"Polygon","coordinates":[[[-4.287326821341551,55.871683249555325],[-4.287330874866815,55.87167375577247],[-4.287379410498256,55.87156793742876],[-4.287369276685098,55.87156687071159],[-4.287359676230527,55.87156420391865],[-4.287352422553741,55.87156047040854],[-4.287347515654738,55.87155641688327],[-4.287343888816345,55.8715504432671],[-4.287343462129474,55.87154404296405],[-4.287138012401662,55.87151630831752],[-4.287110384426842,55.87151321483771],[-4.287104517482382,55.871527828862995],[-4.28711838480565,55.87152953561047],[-4.287108144320776,55.871555030150944],[-4.2870942769975064,55.87155332340347],[-4.287088516724764,55.87156761741361],[-4.28710291740662,55.87156943083281],[-4.287092356906592,55.871595672075294],[-4.287078916270193,55.87159396532782],[-4.2870740093711905,55.871606339247045],[-4.287087663351024,55.87160804599452],[-4.2870762494772565,55.871636420671365],[-4.287060995421661,55.871634500580456],[-4.287055875179223,55.87164719451483],[-4.287070489204514,55.871649007934025],[-4.2870659023206645,55.8716605284795],[-4.287093743638919,55.87166404864618],[-4.28709747714903,55.871654661535054],[-4.287178867669446,55.871665115363356],[-4.287174600800748,55.871675462519946],[-4.287193268351302,55.871677809297736],[-4.287197428548282,55.871667248797706],[-4.287286819447508,55.871677702626016],[-4.287282445907092,55.87169039656039],[-4.287306233700083,55.87169306335333],[-4.287311353942521,55.87168143613613],[-4.287326821341551,55.871683249555325]]]}},{"type":"Feature","id":25,"properties":{"fid":25,"stop":"unitower","osmId":"way/533970252","name":"","height":14.3,"base":0},"geometry":{"type":"Polygon","coordinates":[[[-4.287567142010381,55.871051204082775],[-4.287564069009804,55.871060211153434],[-4.28754817417923,55.871058409739305],[-4.287337514691365,55.8710316004584],[-4.287328931482856,55.871022381456676],[-4.2873394220710335,55.87099271110627],[-4.287321725826329,55.870990485829985],[-4.287326282344426,55.870978193827675],[-4.2873451442100405,55.87097978331074],[-4.287356164625904,55.87095223227108],[-4.287338362415662,55.870950430856944],[-4.287343024899298,55.87093591357836],[-4.287362204661522,55.87093792692356],[-4.2873732250773875,55.87091143553927],[-4.2873529856597905,55.870908574469766],[-4.287357542177888,55.87089607053638],[-4.2873782054576335,55.8708984017782],[-4.287381384423748,55.870889818569694],[-4.28740702808374,55.87089246770812],[-4.2874034252554765,55.87090221653754],[-4.287487561891978,55.87091334291894],[-4.28749116472024,55.87090359408952],[-4.287516384518083,55.87090624322795],[-4.2875121458965975,55.87091673381613],[-4.287592997601447,55.87092828405968],[-4.287599567464751,55.87091673381613],[-4.287620866537719,55.87091980681671],[-4.287616945812844,55.87093114512918],[-4.2876274364010225,55.8709326286467],[-4.2876237276072215,55.87094163571736],[-4.287613342984581,55.87094068202753],[-4.287567142010381,55.871051204082775]]]}},{"type":"Feature","id":26,"properties":{"fid":26,"stop":"unitower","osmId":"way/532962294","name":"","height":84.7,"base":0},"geometry":{"type":"Polygon","coordinates":[[[-4.2887462129036695,55.871073068273496],[-4.288708581048603,55.87115953453008],[-4.28852248826242,55.87113408408475],[-4.2885594675419645,55.871049140504375],[-4.288568277311504,55.87102880190063],[-4.288659202834151,55.87104130959812],[-4.288754370097688,55.87105436110855],[-4.2887462129036695,55.871073068273496]]]}},{"type":"Feature","id":27,"properties":{"fid":27,"stop":"unitower","osmId":"way/533970275","name":"","height":11.1,"base":0},"geometry":{"type":"Polygon","coordinates":[[[-4.289235706794642,55.87192683946856],[-4.289309418419884,55.87193677688766],[-4.289386078510135,55.871947260318805],[-4.289437731249008,55.871826373253406],[-4.289384331271611,55.8718191658945],[-4.289383130045126,55.871825281229334],[-4.289343161963883,55.87183161496898],[-4.289278841745709,55.87182298797877],[-4.289235706794642,55.87192683946856]]]}},{"type":"Feature","id":28,"properties":{"fid":28,"stop":"unitower","osmId":"way/533970263","name":"","height":11.1,"base":0},"geometry":{"type":"Polygon","coordinates":[[[-4.287315782056665,55.87167578366168],[-4.287441174176734,55.871691900900764],[-4.28748898865268,55.8715752120898],[-4.28748125237792,55.87157424505546],[-4.287424412248087,55.871566831125484],[-4.287410551422475,55.87156500450505],[-4.287394219286871,55.87156285553984],[-4.287386912805153,55.871566078987655],[-4.287380251012999,55.87156790560808],[-4.287372084945196,55.87156908753895],[-4.287364671015219,55.87156919498721],[-4.287315782056665,55.87167578366168]]]}},{"type":"Feature","id":29,"properties":{"fid":29,"stop":"kelvingrove","osmId":"way/26605473","name":"Kelvingrove Art Gallery and Museum","height":16,"base":0},"geometry":{"type":"Polygon","coordinates":[[[-4.290125765212903,55.86880599826342],[-4.2900587318462575,55.86874776113041],[-4.290052261053701,55.86875008657148],[-4.290031230977891,55.86873188746741],[-4.2900831995306135,55.86871308172655],[-4.290132134899326,55.86869528704701],[-4.290098264344535,55.86866586516211],[-4.290084513910352,55.868670819362656],[-4.290004134534058,55.86860095502426],[-4.2900178849682415,55.868596000823715],[-4.290181171374171,55.8685368537355],[-4.289918194320411,55.86830835387333],[-4.289858137276991,55.86833009169208],[-4.289833871804903,55.868308960510134],[-4.28979201386555,55.868290458087664],[-4.289776443520959,55.868278628670026],[-4.289763097511311,55.868265282660374],[-4.289750358138464,55.868236265200004],[-4.289727609258381,55.868216549503934],[-4.289795350367961,55.8681921829257],[-4.2897553123390155,55.86815730130958],[-4.289837410519582,55.86812757610627],[-4.2898468133900165,55.86813566459696],[-4.290235970898639,55.867994621540454],[-4.290229297893815,55.86798885849083],[-4.290307048510631,55.86796064987953],[-4.290346378796642,55.86799482375272],[-4.290382979217043,55.867981578849204],[-4.290379743820764,55.867978747877466],[-4.2904079524320675,55.86796853615795],[-4.290429993569214,55.86798774632336],[-4.29047245814537,55.86800776533783],[-4.2904901517187675,55.86802090913522],[-4.290502587773213,55.86803385072033],[-4.290517551481002,55.86806387924204],[-4.290539289299748,55.8680826849829],[-4.290474480268044,55.86810614160592],[-4.2907369517911365,55.868334338149694],[-4.290784572780111,55.86831704900083],[-4.290780831853164,55.86831381360456],[-4.290858582469981,55.86828560499325],[-4.290862323396928,55.86828894149566],[-4.2908998337725315,55.86832149767071],[-4.290924705881422,55.868312499224814],[-4.290964845016503,55.868347380840945],[-4.290971619127461,55.86835324499669],[-4.290982740802168,55.86834920075135],[-4.29115836215641,55.868501871013244],[-4.291147240481703,55.86850591525859],[-4.291151891363853,55.86850995950393],[-4.291188896208788,55.86854211125445],[-4.291164024099897,55.868551109700356],[-4.291197186911752,55.86858002605459],[-4.291202545536838,55.86858467693674],[-4.291124794920021,55.86861278444191],[-4.2911194362949345,55.86860813355976],[-4.29107181530596,55.868625422708625],[-4.291332163600245,55.86885321482786],[-4.291392422855933,55.86883137590298],[-4.291417294964823,55.868852810403325],[-4.291452479899352,55.8688650442455],[-4.291479879661585,55.8688824345005],[-4.291497269916582,55.868903464576306],[-4.291503134072337,55.86892641566866],[-4.291529927197768,55.86894946786715],[-4.291498483190187,55.86896079175411],[-4.291494337838706,55.86895725303944],[-4.291459456222578,55.86897120568589],[-4.291497371022716,55.869004975134544],[-4.291418407132294,55.86903358817038],[-4.291413250719475,55.869029038394366],[-4.291028339668468,55.86916846375274],[-4.291035315991694,55.86917453012076],[-4.290950184627116,55.86920536749154],[-4.290943208303891,55.86919930112352],[-4.290907416732559,55.86916816043434],[-4.29087930922739,55.86917827104771],[-4.290882342411401,55.86918089980719],[-4.290845843097135,55.86919404360457],[-4.290819555502372,55.86917129472449],[-4.29077719203235,55.86915319672655],[-4.2907483767842445,55.86912812240539],[-4.290736446260468,55.86909900383888],[-4.290710158665705,55.86907615385267],[-4.290774664379008,55.86905279833578],[-4.290515023827659,55.868827129445364],[-4.290351737421729,55.86888617542744],[-4.290337986987545,55.86889112962799],[-4.290258719778722,55.86882227635094],[-4.290272470212905,55.86881732215039],[-4.290237891915179,55.86878719252255],[-4.29018986650167,55.86880468388368],[-4.290136987993743,55.86882379294295],[-4.290119294420346,55.86880832370449],[-4.290125765212903,55.86880599826342]]]}}]}