{"type":"FeatureCollection","properties":{"meters":3563,"order":["trinity","botanic","unitower","kelvinpark","kelvingrove"]},"features":[{"type":"Feature","properties":{"kind":"whole","meters":3563},"geometry":{"type":"LineString","coordinates":[[-4.2989202,55.8733976],[-4.2997192,55.8734966],[-4.2995992,55.873812],[-4.2981899,55.8736408],[-4.2971085,55.8735101],[-4.2959534,55.8733705],[-4.2959353,55.8733673],[-4.2952467,55.8739736],[-4.295012,55.8740679],[-4.2948959,55.8741703],[-4.2948704,55.8741935],[-4.2948203,55.874239],[-4.294469,55.8745502],[-4.2943952,55.8746233],[-4.2938573,55.8750994],[-4.293617,55.8753267],[-4.2934353,55.8754985],[-4.2933189,55.8756096],[-4.2932005,55.8757206],[-4.2926885,55.8761867],[-4.2924773,55.876384],[-4.2923324,55.8765273],[-4.2920353,55.876755],[-4.2918989,55.8768542],[-4.291703,55.8769813],[-4.2916008,55.8770421],[-4.2912063,55.8772643],[-4.2907948,55.8774815],[-4.2905297,55.8776338],[-4.2904437,55.8776751],[-4.2901078,55.8778608],[-4.2900451,55.8778902],[-4.2899683,55.8779112],[-4.2897627,55.8779434],[-4.2898855,55.8779985],[-4.2898292,55.8780098],[-4.2897937,55.8780365],[-4.2897809,55.8780568],[-4.2896991,55.8780581],[-4.2896046,55.8780595],[-4.2895657,55.8780613],[-4.2894933,55.8780764],[-4.288647,55.878278],[-4.2885183,55.8783186],[-4.2884137,55.8783623],[-4.2883372,55.8784014],[-4.288246,55.8784563],[-4.2881119,55.8785624],[-4.2879322,55.8787377],[-4.2877442,55.8789451],[-4.2875728,55.8788936],[-4.2876099,55.8788562],[-4.2876444,55.8788204],[-4.2877715,55.8786844],[-4.2878179,55.8785824],[-4.2878356,55.878538],[-4.2878399,55.8784944],[-4.2878593,55.8784336],[-4.2878337,55.8784082],[-4.287725,55.8783482],[-4.2876686,55.8783271],[-4.2875904,55.8783089],[-4.2874841,55.8782946],[-4.2873936,55.8783032],[-4.2873056,55.8782946],[-4.2872135,55.8782808],[-4.2871184,55.8782607],[-4.2876301,55.8777209],[-4.2879526,55.8773708],[-4.2879605,55.8773616],[-4.2879797,55.8773422],[-4.2874624,55.8771884],[-4.2874734,55.8771764],[-4.2875219,55.8771261],[-4.2875541,55.87707],[-4.2875996,55.8770501],[-4.2873346,55.8769732],[-4.2875319,55.8767155],[-4.287541,55.8766839],[-4.2875036,55.8766755],[-4.2875931,55.8765549],[-4.2889429,55.8746925],[-4.2888628,55.8746756],[-4.2883751,55.874549],[-4.2883176,55.8745341],[-4.2882944,55.874527],[-4.288812,55.8738738],[-4.2887288,55.8738648],[-4.2887681,55.8737474],[-4.2886207,55.8737136],[-4.2886798,55.8736284],[-4.2883976,55.8734807],[-4.2883684,55.8734155],[-4.2885761,55.8731161],[-4.2887758,55.8728462],[-4.2889562,55.8725721],[-4.2890265,55.8724645],[-4.289069,55.8724044],[-4.2890891,55.872376],[-4.2891716,55.8722053],[-4.2891525,55.8721821],[-4.2891706,55.8721431],[-4.2892188,55.8721131],[-4.2892466,55.8720517],[-4.289388,55.8720345],[-4.2896151,55.8720641],[-4.289733,55.8720795],[-4.2898795,55.8717461],[-4.2898965,55.8717075],[-4.2899577,55.8715682],[-4.2900142,55.8714396],[-4.2899821,55.8714116],[-4.2900205,55.8713202],[-4.2900732,55.8712012],[-4.2899902,55.8711927],[-4.2899091,55.8711858],[-4.2893221,55.8711109],[-4.2889527,55.8710593],[-4.2889655,55.8710282],[-4.2886844,55.8709905],[-4.2886581,55.8710442],[-4.2886844,55.8709905],[-4.2887311,55.8708922],[-4.2880763,55.8708062],[-4.2873595,55.8707142],[-4.2869791,55.8706631],[-4.2869114,55.8706628],[-4.2868277,55.8706822],[-4.2866646,55.8705409],[-4.2866219,55.8704476],[-4.2866123,55.8704267],[-4.2865911,55.8703638],[-4.2865868,55.8702997],[-4.2865989,55.8701176],[-4.2865922,55.8700717],[-4.286568,55.8700386],[-4.2865251,55.8699994],[-4.2863464,55.8699993],[-4.2863187,55.8699993],[-4.2862603,55.8700814],[-4.2861457,55.8700802],[-4.286094,55.8700836],[-4.2860508,55.8700945],[-4.2859439,55.8701355],[-4.2858815,55.8701679],[-4.2858179,55.8702122],[-4.2857824,55.8702445],[-4.2857073,55.8703062],[-4.2856724,55.8703318],[-4.2856269,55.8703581],[-4.2855853,55.8703769],[-4.2855276,55.8703943],[-4.2854498,55.8704123],[-4.285364,55.8704281],[-4.2852674,55.8704424],[-4.2851655,55.8704544],[-4.2850569,55.870462],[-4.284967,55.8704605],[-4.2849013,55.8704552],[-4.284782,55.8704458],[-4.2842227,55.8703423],[-4.283969,55.8702913],[-4.2839379,55.8703326],[-4.2839069,55.8703723],[-4.2838238,55.8704016],[-4.283754,55.8704242],[-4.283691,55.8704415],[-4.2836067,55.8704658],[-4.283494,55.870517],[-4.2836067,55.8703968],[-4.2836213,55.8703272],[-4.2836213,55.8702624],[-4.2836146,55.8701752],[-4.2836079,55.8701345],[-4.2835944,55.8700924],[-4.2835757,55.8700608],[-4.2835448,55.8700232],[-4.28351,55.8699923],[-4.2834617,55.8699577],[-4.2833309,55.8698958],[-4.283349,55.8699417],[-4.2833403,55.8699785],[-4.2833228,55.8700146],[-4.2832872,55.8700812],[-4.2833228,55.8700146],[-4.2833403,55.8699785],[-4.283349,55.8699417],[-4.2833309,55.8698958],[-4.2833993,55.8698849],[-4.2834696,55.8698701],[-4.283528,55.8698529],[-4.2835816,55.8698348],[-4.2836319,55.8698178],[-4.2836708,55.8698036],[-4.2837191,55.8697743],[-4.283754,55.8697464],[-4.2837928,55.8697163],[-4.2838371,55.8696719],[-4.2839263,55.8695782],[-4.2840342,55.8694266],[-4.2841248,55.8694052],[-4.2841657,55.8693803],[-4.2842086,55.8693495],[-4.2842549,55.8693224],[-4.2843179,55.8692953],[-4.2846579,55.8692129],[-4.2847437,55.8691881],[-4.2848061,55.8691602],[-4.2848591,55.8691305],[-4.2848973,55.8690991],[-4.2849087,55.8690795],[-4.2849194,55.8690592],[-4.2849241,55.8690308],[-4.2849275,55.8689789],[-4.2849369,55.8689345],[-4.284967,55.8688863],[-4.2850314,55.8688268],[-4.2850723,55.8687805],[-4.2851032,55.8687278],[-4.2851246,55.8686695],[-4.2851407,55.8686258],[-4.2851749,55.8685039],[-4.2851857,55.8684509],[-4.2854291,55.8685242],[-4.2854244,55.8684849],[-4.2857744,55.8683297],[-4.2859387,55.8682557],[-4.2860875,55.8682129],[-4.2863356,55.8681124],[-4.2864664,55.8680257],[-4.2868493,55.8678489],[-4.2868962,55.8678309],[-4.2869458,55.8678166],[-4.2869861,55.8678075],[-4.2871055,55.8677899],[-4.2871833,55.8677801],[-4.2872215,55.8677764],[-4.287294,55.8677806],[-4.2876007,55.8678453],[-4.2878047,55.8678836],[-4.2890373,55.8682688],[-4.2890855,55.8682801],[-4.2891318,55.8682872],[-4.2891882,55.8682917],[-4.2892324,55.8682902],[-4.2892807,55.8682826],[-4.2893303,55.8682699],[-4.2893773,55.8682533],[-4.2894361,55.8682293],[-4.2894737,55.8682082],[-4.28965,55.8681254],[-4.2904198,55.8678376],[-4.2906022,55.8679881],[-4.2910605,55.868367],[-4.2910953,55.8683987]]}},{"type":"Feature","properties":{"kind":"leg","from":"trinity","to":"botanic","meters":1129,"straight":false},"geometry":{"type":"LineString","coordinates":[[-4.2989202,55.8733976],[-4.2997192,55.8734966],[-4.2995992,55.873812],[-4.2981899,55.8736408],[-4.2971085,55.8735101],[-4.2959534,55.8733705],[-4.2959353,55.8733673],[-4.2952467,55.8739736],[-4.295012,55.8740679],[-4.2948959,55.8741703],[-4.2948704,55.8741935],[-4.2948203,55.874239],[-4.294469,55.8745502],[-4.2943952,55.8746233],[-4.2938573,55.8750994],[-4.293617,55.8753267],[-4.2934353,55.8754985],[-4.2933189,55.8756096],[-4.2932005,55.8757206],[-4.2926885,55.8761867],[-4.2924773,55.876384],[-4.2923324,55.8765273],[-4.2920353,55.876755],[-4.2918989,55.8768542],[-4.291703,55.8769813],[-4.2916008,55.8770421],[-4.2912063,55.8772643],[-4.2907948,55.8774815],[-4.2905297,55.8776338],[-4.2904437,55.8776751],[-4.2901078,55.8778608],[-4.2900451,55.8778902],[-4.2899683,55.8779112],[-4.2897627,55.8779434],[-4.2898855,55.8779985],[-4.2898292,55.8780098],[-4.2897937,55.8780365],[-4.2897809,55.8780568],[-4.2896991,55.8780581],[-4.2896046,55.8780595],[-4.2895657,55.8780613],[-4.2894933,55.8780764],[-4.288647,55.878278],[-4.2885183,55.8783186],[-4.2884137,55.8783623],[-4.2883372,55.8784014],[-4.288246,55.8784563],[-4.2881119,55.8785624],[-4.2879322,55.8787377]]}},{"type":"Feature","properties":{"kind":"leg","from":"botanic","to":"unitower","meters":1194,"straight":false},"geometry":{"type":"LineString","coordinates":[[-4.2879322,55.8787377],[-4.2877442,55.8789451],[-4.2875728,55.8788936],[-4.2876099,55.8788562],[-4.2876444,55.8788204],[-4.2877715,55.8786844],[-4.2878179,55.8785824],[-4.2878356,55.878538],[-4.2878399,55.8784944],[-4.2878593,55.8784336],[-4.2878337,55.8784082],[-4.287725,55.8783482],[-4.2876686,55.8783271],[-4.2875904,55.8783089],[-4.2874841,55.8782946],[-4.2873936,55.8783032],[-4.2873056,55.8782946],[-4.2872135,55.8782808],[-4.2871184,55.8782607],[-4.2876301,55.8777209],[-4.2879526,55.8773708],[-4.2879605,55.8773616],[-4.2879797,55.8773422],[-4.2874624,55.8771884],[-4.2874734,55.8771764],[-4.2875219,55.8771261],[-4.2875541,55.87707],[-4.2875996,55.8770501],[-4.2873346,55.8769732],[-4.2875319,55.8767155],[-4.287541,55.8766839],[-4.2875036,55.8766755],[-4.2875931,55.8765549],[-4.2889429,55.8746925],[-4.2888628,55.8746756],[-4.2883751,55.874549],[-4.2883176,55.8745341],[-4.2882944,55.874527],[-4.288812,55.8738738],[-4.2887288,55.8738648],[-4.2887681,55.8737474],[-4.2886207,55.8737136],[-4.2886798,55.8736284],[-4.2883976,55.8734807],[-4.2883684,55.8734155],[-4.2885761,55.8731161],[-4.2887758,55.8728462],[-4.2889562,55.8725721],[-4.2890265,55.8724645],[-4.289069,55.8724044],[-4.2890891,55.872376],[-4.2891716,55.8722053],[-4.2891525,55.8721821],[-4.2891706,55.8721431],[-4.2892188,55.8721131],[-4.2892466,55.8720517],[-4.289388,55.8720345],[-4.2896151,55.8720641],[-4.289733,55.8720795],[-4.2898795,55.8717461],[-4.2898965,55.8717075],[-4.2899577,55.8715682],[-4.2900142,55.8714396],[-4.2899821,55.8714116],[-4.2900205,55.8713202],[-4.2900732,55.8712012],[-4.2899902,55.8711927],[-4.2899091,55.8711858],[-4.2893221,55.8711109],[-4.2889527,55.8710593],[-4.2889655,55.8710282],[-4.2886844,55.8709905],[-4.2886581,55.8710442]]}},{"type":"Feature","properties":{"kind":"leg","from":"unitower","to":"kelvinpark","meters":542,"straight":false},"geometry":{"type":"LineString","coordinates":[[-4.2886581,55.8710442],[-4.2886844,55.8709905],[-4.2887311,55.8708922],[-4.2880763,55.8708062],[-4.2873595,55.8707142],[-4.2869791,55.8706631],[-4.2869114,55.8706628],[-4.2868277,55.8706822],[-4.2866646,55.8705409],[-4.2866219,55.8704476],[-4.2866123,55.8704267],[-4.2865911,55.8703638],[-4.2865868,55.8702997],[-4.2865989,55.8701176],[-4.2865922,55.8700717],[-4.286568,55.8700386],[-4.2865251,55.8699994],[-4.2863464,55.8699993],[-4.2863187,55.8699993],[-4.2862603,55.8700814],[-4.2861457,55.8700802],[-4.286094,55.8700836],[-4.2860508,55.8700945],[-4.2859439,55.8701355],[-4.2858815,55.8701679],[-4.2858179,55.8702122],[-4.2857824,55.8702445],[-4.2857073,55.8703062],[-4.2856724,55.8703318],[-4.2856269,55.8703581],[-4.2855853,55.8703769],[-4.2855276,55.8703943],[-4.2854498,55.8704123],[-4.285364,55.8704281],[-4.2852674,55.8704424],[-4.2851655,55.8704544],[-4.2850569,55.870462],[-4.284967,55.8704605],[-4.2849013,55.8704552],[-4.284782,55.8704458],[-4.2842227,55.8703423],[-4.283969,55.8702913],[-4.2839379,55.8703326],[-4.2839069,55.8703723],[-4.2838238,55.8704016],[-4.283754,55.8704242],[-4.283691,55.8704415],[-4.2836067,55.8704658],[-4.283494,55.870517],[-4.2836067,55.8703968],[-4.2836213,55.8703272],[-4.2836213,55.8702624],[-4.2836146,55.8701752],[-4.2836079,55.8701345],[-4.2835944,55.8700924],[-4.2835757,55.8700608],[-4.2835448,55.8700232],[-4.28351,55.8699923],[-4.2834617,55.8699577],[-4.2833309,55.8698958],[-4.283349,55.8699417],[-4.2833403,55.8699785],[-4.2833228,55.8700146],[-4.2832872,55.8700812]]}},{"type":"Feature","properties":{"kind":"leg","from":"kelvinpark","to":"kelvingrove","meters":698,"straight":false},"geometry":{"type":"LineString","coordinates":[[-4.2832872,55.8700812],[-4.2833228,55.8700146],[-4.2833403,55.8699785],[-4.283349,55.8699417],[-4.2833309,55.8698958],[-4.2833993,55.8698849],[-4.2834696,55.8698701],[-4.283528,55.8698529],[-4.2835816,55.8698348],[-4.2836319,55.8698178],[-4.2836708,55.8698036],[-4.2837191,55.8697743],[-4.283754,55.8697464],[-4.2837928,55.8697163],[-4.2838371,55.8696719],[-4.2839263,55.8695782],[-4.2840342,55.8694266],[-4.2841248,55.8694052],[-4.2841657,55.8693803],[-4.2842086,55.8693495],[-4.2842549,55.8693224],[-4.2843179,55.8692953],[-4.2846579,55.8692129],[-4.2847437,55.8691881],[-4.2848061,55.8691602],[-4.2848591,55.8691305],[-4.2848973,55.8690991],[-4.2849087,55.8690795],[-4.2849194,55.8690592],[-4.2849241,55.8690308],[-4.2849275,55.8689789],[-4.2849369,55.8689345],[-4.284967,55.8688863],[-4.2850314,55.8688268],[-4.2850723,55.8687805],[-4.2851032,55.8687278],[-4.2851246,55.8686695],[-4.2851407,55.8686258],[-4.2851749,55.8685039],[-4.2851857,55.8684509],[-4.2854291,55.8685242],[-4.2854244,55.8684849],[-4.2857744,55.8683297],[-4.2859387,55.8682557],[-4.2860875,55.8682129],[-4.2863356,55.8681124],[-4.2864664,55.8680257],[-4.2868493,55.8678489],[-4.2868962,55.8678309],[-4.2869458,55.8678166],[-4.2869861,55.8678075],[-4.2871055,55.8677899],[-4.2871833,55.8677801],[-4.2872215,55.8677764],[-4.287294,55.8677806],[-4.2876007,55.8678453],[-4.2878047,55.8678836],[-4.2890373,55.8682688],[-4.2890855,55.8682801],[-4.2891318,55.8682872],[-4.2891882,55.8682917],[-4.2892324,55.8682902],[-4.2892807,55.8682826],[-4.2893303,55.8682699],[-4.2893773,55.8682533],[-4.2894361,55.8682293],[-4.2894737,55.8682082],[-4.28965,55.8681254],[-4.2904198,55.8678376],[-4.2906022,55.8679881],[-4.2910605,55.868367],[-4.2910953,55.8683987]]}}]}